Name,Address,Latitude,Longitude,
Abilene Christian University,"ACU Box 27916,Abilene,TX,79699",32.469732,-32.469732,
Abraham Baldwin Agricultural College,"2802 Moore Hwy,Tifton,GA,31793",31.4819694,-31.4819694,
Academy of Art University,"79 New Montgomery,San Francisco,CA,94105",37.7879584,-37.7879584,
Adams State University,"208 Edgemont Blvd,Alamosa,CO,81101",37.4710901,-37.4710901,
Adelphi University,"South Ave,Garden City,NY,11530",40.7227969,-40.7227969,
Adirondack Community College,"640 Bay Rd,Queensbury,NY,12804",43.354045,-43.354045,
Adrian College,"110 S Madison St,Adrian,MI,49221",41.8965125,-41.8965125,
Alabama A & M University,"4900 Meridian Street,Normal,AL,35762",34.7927879,-34.7927879,
Alabama State University,"915 S Jackson Street,Montgomery,AL,36104",32.3651836,-32.3651836,
Albany College of Pharmacy and Health Sciences,"106 New Scotland Avenue,Albany,NY,12208",42.6519665,-42.6519665,
Albany State University,"504 College Drive,Albany,GA,31705",31.5734365,-31.5734365,
Albany Technical College,"1704 South Slappey Boulevard,Albany,GA,31701",31.554176,-31.554176,
Albertus Magnus College,"700 Prospect St,New Haven,CT,6511",41.3315693,-41.3315693,
Albion College,"611 E Porter St,Albion,MI,49224",42.2439655,-42.2439655,
Albright College,"1621 N. 13th St.,Reading,PA,19612",40.3603494,-40.3603494,
Alcorn State University,"1000 ASU Dr Ste 359,Alcorn State,MS,39096",31.8759422,-31.8759422,
Alderson Broaddus University,"101 College Hill Drive,Philippi,WV,26416",39.1579337,-39.1579337,
Alfred University,"One Saxon Drive,Alfred,NY,14802",42.253418,-42.253418,
Alice Lloyd College,"100 Purpose Rd,Pippa Passes,KY,41844",37.3344951,-37.3344951,
Allan Hancock College,"800 South College Drive,Santa Maria,CA,93454",34.9438546,-34.9438546,
Allegany College of Maryland,"12401 Willowbrook Rd SE,Cumberland,MD,21502",39.6528705,-39.6528705,
Allegheny College,"520 N Main St,Meadville,PA,16335",41.6482949,-41.6482949,
Allen County Community College,"1801 N Cottonwood,Iola,KS,66749",37.938448,-37.938448,
Allen University,"1530 Harden Street,Columbia,SC,29204",34.0109162,-34.0109162,
Alma College,"614 W Superior,Alma,MI,48801",43.3789707,-43.3789707,
Alpena Community College,"665 Johnson St,Alpena,MI,49707",45.079889,-45.079889,
Alvernia University,"400 Saint Bernardine St,Reading,PA,19607",40.3108142,-40.3108142,
Alvin Community College,"3110 Mustang Rd,Alvin,TX,77511",29.3990108,-29.3990108,
American International College,"1000 State Street,Springfield,MA,1109",42.1131176,-42.1131176,
American River College,"4700 College Oak Dr,Sacramento,CA,95841",38.6488478,-38.6488478,
American University,"4400 Massachusetts Ave NW,Washington,DC,20016",38.9399652,-38.9399652,
American University of Puerto Rico,"Carr. #2, Km.14.4, Bo. Hato Tejas,Bayamon,PR,960",18.4067603,-18.4067603,
Amherst College,"Boltwood Avenue,Amherst,MA,1002",42.3740663,-42.3740663,
Ancilla College,"9601 S. Union Road,Donaldson,IN,46513",41.3377279,-41.3377279,
Anderson University,"316 Boulevard,Anderson,SC,29621",34.5143475,-34.5143475,
Anderson University,"1100 E 5th St,Anderson,IN,46012",40.1100894,-40.1100894,
Andrew College,"501College St,Cuthbert,GA,39840",31.772328,-31.772328,
Andrews University,"4150 Administration Drive, Room 136,Berrien Springs,MI,49104",41.9628187,-41.9628187,
Angelina College,"3500 South First,Lufkin,TX,75902",31.2871142,-31.2871142,
Angelo State University,"2601 W. Avenue N,San Angelo,TX,76909",31.4414289,-31.4414289,
Anna Maria College,"50 Sunset Lane,Paxton,MA,1612",42.327075,-42.327075,
Anne Arundel Community College,"101 College Pky,Arnold,MD,21012",39.0490696,-39.0490696,
Anoka-Ramsey Community College,"11200 Mississippi Blvd NW,Coon Rapids,MN,55433",45.1740986,-45.1740986,
Antelope Valley College,"3041 West  Ave K,Lancaster,CA,93536",34.6761685,-34.6761685,
Appalachian Bible College,"161 College Drive,Mount Hope,WV,25880",37.853737,-37.853737,
Appalachian State University,"287 Rivers St,Boone,NC,28608",36.2109506,-36.2109506,
Aquinas College,"1700 Fulton St. E,Grand Rapids,MI,49506",42.9610438,-42.9610438,
Arcadia University,"450 S Easton Rd,Glenside,PA,19038",40.092564,-40.092564,
Arizona Christian University,"1 West Firestorm Way,Glendale,AZ,85306",33.6209932,-33.6209932,
Arizona State University-Tempe,"University Drive and Mill Avenue,Tempe,AZ,85287",33.4219437,-33.4219437,
Arizona Western College,"2020 S. Avenue 8E,Yuma,AZ,85365",32.688474,-32.688474,
Arkansas Baptist College,"1600 Dr. Martin Luther King Drive,Little Rock,AR,72202",34.7354335,-34.7354335,
Arkansas State University Mid-South,"2000 W.  Broadway,West Memphis,AR,72301",35.1456656,-35.1456656,
Arkansas State University-Main Campus,"2105 E. Aggie Road,Jonesboro,AR,72401",35.8414567,-35.8414567,
Arkansas Tech University,"1509 N Boulder Ave,Russellville,AR,72801",35.293186,-35.293186,
Arlington Baptist University,"3001 W Division,Arlington,TX,76012",32.739242,-32.739242,
ASA College,"81 Willoughby Street,Brooklyn,NY,11201",40.6924059,-40.6924059,
Asbury University,"1 Macklem Dr,Wilmore,KY,40390",37.8632671,-37.8632671,
Ashland University,"401 College Avenue,Ashland,OH,44805",40.8614368,-40.8614368,
Assumption College,"500 Salisbury St,Worcester,MA,1609",42.2922426,-42.2922426,
Atlantic Cape Community College,"5100 Black Horse Pike,Mays Landing,NJ,8330",39.4606358,-39.4606358,
Auburn University,"P.O. Box 351,Auburn,AL,36849",32.5909562,-32.5909562,
Auburn University at Montgomery,"7440 East Drive,Montgomery,AL,36117",32.36729,-32.36729,
Augsburg University,"2211 Riverside Ave,Minneapolis,MN,55454",44.9668218,-44.9668218,
Augusta University,"1120 Fifteenth St,Augusta,GA,30912",33.4706236,-33.4706236,
Augustana College,"639 38th St,Rock Island,IL,61201",41.5051381,-41.5051381,
Augustana University,"2001 S Summit Ave,Sioux Falls,SD,57197",43.525073,-43.525073,
Aurora University,"347 S Gladstone Ave,Aurora,IL,60506",41.7549208,-41.7549208,
Austin College,"900 N Grand Ave,Sherman,TX,75090",33.647123,-33.647123,
Austin Peay State University,"601 College St,Clarksville,TN,37044",36.5320374,-36.5320374,
Ave Maria University,"5050 Ave Maria Blvd,Ave Maria,FL,34142",26.3366663,-26.3366663,
Averett University,"420 W Main St,Danville,VA,24541",36.577241,-36.577241,
Avila University,"11901 Wornall Rd,Kansas City,MO,64145",38.911948,-38.911948,
Azusa Pacific University,"901 E Alosta,Azusa,CA,91702",34.1294151,-34.1294151,
Babson College,"231 Forest Street,Wellesley,MA,2457",42.2990302,-42.2990302,
Bacone College,"2299 Old Bacone Rd,Muskogee,OK,74403",35.7740418,-35.7740418,
Baker University,"618 Eighth Street,Baldwin City,KS,66006",38.7763345,-38.7763345,
Bakersfield College,"1801 Panorama Dr,Bakersfield,CA,93305",35.408,-35.408,
Baldwin Wallace University,"275 Eastland Rd,Berea,OH,44017",41.3684663,-41.3684663,
Ball State University,"2000 University Ave,Muncie,IN,47306",40.1999048,-40.1999048,
Baltimore City Community College,"2901 Liberty Heights Avenue,Baltimore,MD,21215",39.3207741,-39.3207741,
Baptist Bible College,"628 E Kearney,Springfield,MO,65803",37.2401984,-37.2401984,
Barclay College,"607 N Kingman,Haviland,KS,67059",37.6209975,-37.6209975,
Bard College,"30 Campus Rd,Annandale,NY,12504",42.0193866,-42.0193866,
Barry University,"11300 NE 2nd Ave,Miami,FL,33161",25.8791629,-25.8791629,
Barstow Community College,"2700 Barstow Road,Barstow,CA,92311",34.8703181,-34.8703181,
Barton College,"200 E. ACC Drive,Wilson,NC,27893",35.735325,-35.735325,
Barton County Community College,"245 NE 30th Road,Great Bend,KS,67530",38.4037674,-38.4037674,
Bates College,"2 Andrews Road,Lewiston,ME,4240",44.1068479,-44.1068479,
Baton Rouge Community College,"201 Community College Drive,Baton Rouge,LA,70806",30.4480275,-30.4480275,
Bay de Noc Community College,"2001 N Lincoln Road,Escanaba,MI,49829",45.7721711,-45.7721711,
Baylor University,"500 Speight Ave.,Waco,TX,76798",31.5447753,-31.5447753,
Becker College,"61 Sever St,Worcester,MA,1609",42.2690259,-42.2690259,
Belhaven University,"1500 Peachtree St,Jackson,MS,39202",32.3198074,-32.3198074,
Bellarmine University,"2001 Newburg Rd,Louisville,KY,40205",38.2187146,-38.2187146,
Bellevue College,"3000 Landerholm Cir SE,Bellevue,WA,98007",47.5848959,-47.5848959,
Bellevue University,"1000 Galvin Rd S,Bellevue,NE,68005",41.1509774,-41.1509774,
Belmont Abbey College,"100 Belmont-Mt Holly Road,Belmont,NC,28012",35.2621669,-35.2621669,
Belmont University,"1900 Belmont Blvd,Nashville,TN,37212",36.1336191,-36.1336191,
Beloit College,"700 College St,Beloit,WI,53511",42.5030333,-42.5030333,
Bemidji State University,"1500 Birchmont Dr,Bemidji,MN,56601",47.4826372,-47.4826372,
Benedict College,"1600 Harden Street,Columbia,SC,29204",34.01302,-34.01302,
Benedictine College,"1020 N 2nd St,Atchison,KS,66002",39.5722819,-39.5722819,
Benedictine University,"5700 College Rd,Lisle,IL,60532",41.7788628,-41.7788628,
Benjamin Franklin Institute of Technology,"41 Berkeley St,Boston,MA,2116",42.3460977,-42.3460977,
Bentley University,"175 Forest St,Waltham,MA,2452",42.3870692,-42.3870692,
Berea College,"101 Chestnut Street,Berea,KY,40404",37.5717311,-37.5717311,
Bergen Community College,"400 Paramus Rd,Paramus,NJ,7652",40.9516735,-40.9516735,
Berkeley College-New York,"3 East 43 Street,New York,NY,10017",40.7539196,-40.7539196,
Berkeley College-Woodland Park,"44 Rifle Camp Rd,Woodland Park,NJ,7424",40.8986902,-40.8986902,
Berry College,"2277 Martha Berry Hwy NW,Mount Berry,GA,30149",34.289492,-34.289492,
Bethany College,"335 E Swensson St,Lindsborg,KS,67456",38.5799308,-38.5799308,
Bethany College,"31 E Campus Dr,Bethany,WV,26032",40.206055,-40.206055,
Bethany Lutheran College,"700 Luther Dr,Mankato,MN,56001",44.1667466,-44.1667466,
Bethel College-Indiana,"1001 Bethel Circle,Mishawaka,IN,46545",41.6781593,-41.6781593,
Bethel College-North Newton,"300 E 27th St,North Newton,KS,67117",38.0736885,-38.0736885,
Bethel University,"325 Cherry Ave,McKenzie,TN,38201",36.1419765,-36.1419765,
Bethel University,"3900 Bethel Dr,Saint Paul,MN,55112",45.0575752,-45.0575752,
Bethesda University,"730 N. Euclid St,Anaheim,CA,92801",33.8422654,-33.8422654,
Bethune-Cookman University,"640 Dr Mary McLeod Bethune Blvd,Daytona Beach,FL,32114",29.2121248,-29.2121248,
Bevill State Community College,"1411 Indiana Avenue,Jasper,AL,35501",33.8371004,-33.8371004,
Big Bend Community College,"7662 Chanute St NE,Moses Lake,WA,98837",47.1847684,-47.1847684,
Binghamton University,"4400 Vestal Parkway East,Vestal,NY,13850",42.0934421,-42.0934421,
Biola University,"13800 Biola Ave,La Mirada,CA,90639",33.9055482,-33.9055482,
Birmingham Southern College,"900 Arkadelphia Road,Birmingham,AL,35254",33.5148629,-33.5148629,
Bishop State Community College,"351 North Broad Street,Mobile,AL,36603",30.6959001,-30.6959001,
Bismarck State College,"1500 Edwards Ave.,Bismarck,ND,585065587",46.8222613,-46.8222613,
Black Hawk College,"6600 34th Avenue,Moline,IL,612655899",41.4768837,-41.4768837,
Black Hills State University,"1200 University St,Spearfish,SD,57799",44.4965054,-44.4965054,
Blackburn College,"700 College Ave,Carlinville,IL,62626",39.2886353,-39.2886353,
Blinn College,"902 College Ave,Brenham,TX,77833",30.1587451,-30.1587451,
Bloomfield College,"467 Franklin St,Bloomfield,NJ,7003",40.7947084,-40.7947084,
Bloomsburg University of Pennsylvania,"400 E Second St,Bloomsburg,PA,17815",41.0079402,-41.0079402,
Blue Mountain College,"201 W Main St,Blue Mountain,MS,38610",34.6720826,-34.6720826,
Blue Mountain Community College,"2411 NW Carden Ave,Pendleton,OR,97801",45.6765562,-45.6765562,
Bluefield College,"3000 College Avenue,Bluefield,VA,24605",37.2460648,-37.2460648,
Bluefield State College,"219 Rock St,Bluefield,WV,24701",37.267207,-37.267207,
Bluffton University,"1 University Drive,Bluffton,OH,45817",40.8969477,-40.8969477,
Bob Jones University,"1700 Wade Hampton Boulavard,Greenville,SC,29614",34.8750509,-34.8750509,
Boise State University,"1910 University Dr,Boise,ID,83725",43.609316,-43.609316,
Bossier Parish Community College,"6220 East Texas,Bossier City,LA,71111",32.5395936,-32.5395936,
Boston College,"140 Commonwealth Avenue,Chestnut Hill,MA,2467",42.3355488,-42.3355488,
Boston University,"One Silber Way,Boston,MA,2215",42.349583,-42.349583,
Bowdoin College,"255 Maine Street,Brunswick,ME,4011",43.9068757,-43.9068757,
Bowie State University,"14000 Jericho Park Rd,Bowie,MD,20715",39.0192914,-39.0192914,
Bowling Green State University-Main Campus,"220 McFall Ctr,Bowling Green,OH,43403",41.3754425,-41.3754425,
Bradley University,"1501 W Bradley Ave,Peoria,IL,61625",40.6963829,-40.6963829,
Brandeis University,"415 South St,Waltham,MA,2454",42.3641909,-42.3641909,
Brenau University,"500 Washington Street SE,Gainesville,GA,30501",34.3018881,-34.3018881,
Brescia University,"717 Frederica St,Owensboro,KY,42301",37.768595,-37.768595,
Brevard College,"One Brevard College Drive,Brevard,NC,28712",35.2367409,-35.2367409,
Brewton-Parker College,"201 David-Eliza Fountain Circle,Mount Vernon,GA,30445",32.1858028,-32.1858028,
Briar Cliff University,"3303 Rebecca Street,Sioux City,IA,51104",42.5270102,-42.5270102,
Bridgewater College,"402 E College St,Bridgewater,VA,22812",38.3789235,-38.3789235,
Bridgewater State University,"131 Summer Street,Bridgewater,MA,2325",41.987662,-41.987662,
Brigham Young University-Provo,"Main Campus,Provo,UT,84602",40.2524308,-40.2524308,
Bristol Community College,"777 Elsbree St,Fall River,MA,2720",41.7221259,-41.7221259,
Brookdale Community College,"765 Newman Springs Rd,Lincroft,NJ,7738",40.3270495,-40.3270495,
Brookhaven College,"3939 Valley View Ln,Farmers Branch,TX,75244",32.9282811,-32.9282811,
Broward College,"111 East Las Olas Blvd,Fort Lauderdale,FL,33301",26.119446,-26.119446,
Brown University,"One Prospect Street,Providence,RI,2912",41.8243851,-41.8243851,
Brunswick Community College,"50 College Rd,Bolivia,NC,28422",34.038474,-34.038474,
Bryan College-Dayton,"721 Bryan Drive,Dayton,TN,37321",35.4983997,-35.4983997,
Bryant & Stratton College-Albany,"1259 Central Ave,Albany,NY,12205",42.6982085,-42.6982085,
Bryant & Stratton College-Buffalo,"465 Main Street, Suite 400,Buffalo,NY,14203",42.8864942,-42.8864942,
Bryant & Stratton College-Greece,"854 Long Pond Road,Rochester,NY,14612",43.2405383,-43.2405383,
Bryant & Stratton College-Solon,"33001 Solon Rd.,Solon,OH,44139",41.3900122,-41.3900122,
Bryant & Stratton College-Syracuse,"953 James St,Syracuse,NY,13203",43.0589909,-43.0589909,
Bryant & Stratton College-Syracuse North,"8687 Carling Rd,Liverpool,NY,13090",43.1896516,-43.1896516,
Bryant & Stratton College-Virginia Beach,"301 Centre Pointe Dr,Virginia Beach,VA,23462",36.8278959,-36.8278959,
Bryant & Stratton College-Wauwatosa,"10950 W Potter Road,Wauwatosa,WI,53226",43.0431584,-43.0431584,
Bryant University,"1150 Douglas Pike,Smithfield,RI,2917",41.924952,-41.924952,
Bryn Athyn College of the New Church,"801 Tomlinson Rd,Bryn Athyn,PA,19009",40.1320822,-40.1320822,
Bucknell University,"One Dent Drive,Lewisburg,PA,17837",40.9547722,-40.9547722,
Bucks County Community College,"275 Swamp Rd,Newtown,PA,18940",40.2402579,-40.2402579,
Buena Vista University,"610 W 4th St,Storm Lake,IA,50588",42.6419535,-42.6419535,
Bunker Hill Community College,"250 New Rutherford Ave,Boston,MA,2129",42.3749673,-42.3749673,
Butler Community College,"901 S Haverhill Rd,El Dorado,KS,67042",37.8064386,-37.8064386,
Butler County Community College,"107 College Drive,Butler,PA,16002",40.8295624,-40.8295624,
Butler University,"4600 Sunset Ave,Indianapolis,IN,46208",39.8381669,-39.8381669,
Butte College,"3536 Butte Campus Drive,Oroville,CA,95965",39.6501451,-39.6501451,
Cabrillo College,"6500 Soquel Dr,Aptos,CA,95003",36.9876108,-36.9876108,
Cabrini University,"610 King of Prussia Rd,Radnor,PA,19087",40.055158,-40.055158,
Cairn University-Langhorne,"200 Manor Ave,Langhorne,PA,19047",40.1650923,-40.1650923,
Caldwell Community College and Technical Institute,"2855 Hickory Boulevard,Hudson,NC,28638",35.8575917,-35.8575917,
Caldwell University,"120 Bloomfield Avenue,Caldwell,NJ,7006",40.8356398,-40.8356398,
California Baptist University,"8432 Magnolia Ave,Riverside,CA,92504",33.9284053,-33.9284053,
California Institute of Technology,"1200 E California Blvd,Pasadena,CA,91125",34.1356666,-34.1356666,
California Lutheran University,"60 W Olsen Rd,Thousand Oaks,CA,91360",34.2253821,-34.2253821,
California Polytechnic State University-San Luis Obispo,"1 Grand Ave.,San Luis Obispo,CA,93407",35.3011339,-35.3011339,
California State Polytechnic University-Pomona,"3801 West Temple Avenue,Pomona,CA,91768",34.055599,-34.055599,
California State University Maritime Academy,"200 Maritime Academy Dr,Vallejo,CA,94590",38.0692105,-38.0692105,
California State University-Bakersfield,"9001 Stockdale Hwy,Bakersfield,CA,93311",35.3486641,-35.3486641,
California State University-Chico,"400 W. 1st Street,Chico,CA,95929",39.7296139,-39.7296139,
California State University-Dominguez Hills,"1000 E Victoria St,Carson,CA,90747",33.8639658,-33.8639658,
California State University-East Bay,"25800 Carlos Bee Blvd,Hayward,CA,94542",37.6571303,-37.6571303,
California State University-Fresno,"5241 N Maple Ave,Fresno,CA,93740",36.8108284,-36.8108284,
California State University-Fullerton,"800 N State College Blvd,Fullerton,CA,92831",33.8819278,-33.8819278,
California State University-Long Beach,"1250 Bellflower Blvd,Long Beach,CA,90840",33.7826983,-33.7826983,
California State University-Los Angeles,"5151 State University Dr,Los Angeles,CA,90032",34.0620391,-34.0620391,
California State University-Monterey Bay,"100 Campus Center,Seaside,CA,93955",36.6508506,-36.6508506,
California State University-Northridge,"18111 Nordhoff St,Northridge,CA,91330",34.2399364,-34.2399364,
California State University-Sacramento,"6000 J St,Sacramento,CA,95819",38.5642453,-38.5642453,
California State University-San Bernardino,"5500 University Parkway,San Bernardino,CA,92407",34.1813145,-34.1813145,
California State University-San Marcos,"333 S Twin Oaks Valley Rd,San Marcos,CA,92096",33.1290871,-33.1290871,
California State University-Stanislaus,"One University Circle,Turlock,CA,95382",37.5235478,-37.5235478,
California University of Pennsylvania,"250 University Ave,California,PA,15419",40.0632191,-40.0632191,
Calumet College of Saint Joseph,"2400 New York Ave,Whiting,IN,46394",41.67086,-41.67086,
Calvary University,"15800 Calvary Road,Kansas City,MO,64147",38.8391679,-38.8391679,
Calvin College,"3201 Burton Street SE,Grand Rapids,MI,49546",42.9331793,-42.9331793,
Camden County College,"200 College Drive,Blackwood,NJ,8012",39.7855923,-39.7855923,
Cameron University,"2800 West Gore Blvd,Lawton,OK,73505",34.6054387,-34.6054387,
Campbell University,"143 Main Street,Buies Creek,NC,27506",35.4091517,-35.4091517,
Campbellsville University,"1 University Dr,Campbellsville,KY,42718",37.3429502,-37.3429502,
Canada College,"4200 Farm Hill Blvd.,Redwood City,CA,94061",37.4473861,-37.4473861,
Canisius College,"2001 Main St,Buffalo,NY,14208",42.9272065,-42.9272065,
Cape Fear Community College,"411 North Front Street,Wilmington,NC,28401",34.2400947,-34.2400947,
Capital University,"1 College and Main,Columbus,OH,43209",39.9571011,-39.9571011,
Cardinal Stritch University,"6801 N Yates Rd,Milwaukee,WI,53217",43.140054,-43.140054,
Caribbean University-Bayamon,"167 Ave.  Km 21.2,Bayamon,PR,960",18.3870265,-18.3870265,
Carl Albert State College,"1507 S McKenna,Poteau,OK,74953",35.0387744,-35.0387744,
Carl Sandburg College,"2400 Tom L. Wilson Boulevard,Galesburg,IL,61401",40.981153,-40.981153,
Carleton College,"One North College Street,Northfield,MN,55057",44.4613633,-44.4613633,
Carlow University,"3333 Fifth Ave,Pittsburgh,PA,15213",40.4389338,-40.4389338,
Carnegie Mellon University,"5000 Forbes Avenue,Pittsburgh,PA,15213",40.4441647,-40.4441647,
Carolina Christian College,"4209 Indiana Avenue,Winston Salem,NC,27105",36.1461702,-36.1461702,
Carroll College,"1601 N Benton Ave,Helena,MT,59625",46.6013247,-46.6013247,
Carroll University,"100 N East Ave,Waukesha,WI,53186",43.0044881,-43.0044881,
Carson-Newman University,"1646 S Russell Ave,Jefferson City,TN,37760",36.1223377,-36.1223377,
Carthage College,"2001 Alford Park Dr,Kenosha,WI,53140",42.6221689,-42.6221689,
Case Western Reserve University,"10900 Euclid Ave,Cleveland,OH,44106",41.50462,-41.50462,
Casper College,"125 College Drive,Casper,WY,82601",42.830783,-42.830783,
Castleton University,"190 University Drive,Castleton,VT,5735",43.6072172,-43.6072172,
Catawba College,"2300 W Innes St,Salisbury,NC,28144",35.6915176,-35.6915176,
Catawba Valley Community College,"2550 Hwy 70 SE,Hickory,NC,28602",35.6998273,-35.6998273,
Catholic University of America,"620 Michigan Avenue, NE,Washington,DC,20064",38.9326676,-38.9326676,
Cayuga County Community College,"197 Franklin Street,Auburn,NY,13021",42.9439149,-42.9439149,
Cazenovia College,"22 Sullivan St,Cazenovia,NY,13035",42.9324543,-42.9324543,
Cecil College,"One Seahawk Drive,North East,MD,21901",39.6410412,-39.6410412,
Cedar Crest College,"100 College Drive,Allentown,PA,18104",40.5860439,-40.5860439,
Cedar Valley College,"3030 North Dallas Ave,Lancaster,TX,75134",32.6256727,-32.6256727,
Cedarville University,"251 N. Main Street,Cedarville,OH,45314",39.7468502,-39.7468502,
Centenary College of Louisiana,"2911 Centenary Boulevard,Shreveport,LA,71104",32.4830533,-32.4830533,
Centenary University,"400 Jefferson St,Hackettstown,NJ,7840",40.8474559,-40.8474559,
Central Alabama Community College,"1675 Cherokee Rd,Alexander City,AL,35010",32.925393,-32.925393,
Central Arizona College,"8470 N Overfield Rd,Coolidge,AZ,85128",32.9574297,-32.9574297,
Central Baptist College,"1501 College Avenue,Conway,AR,72034",35.0837628,-35.0837628,
Central Carolina Community College,"1105 Kelly Dr,Sanford,NC,27330",35.471033,-35.471033,
Central Christian College of Kansas,"1200 S Main,McPherson,KS,67460",38.3583827,-38.3583827,
Central Christian College of the Bible,"911 E Urbandale Dr,Moberly,MO,65270",39.3960168,-39.3960168,
Central College,"812 University,Pella,IA,50219",41.4015297,-41.4015297,
Central Community College,"3134 West Hwy 34,Grand Island,NE,68802",40.8896717,-40.8896717,
Central Connecticut State University,"1615 Stanley St,New Britain,CT,6050",41.6907573,-41.6907573,
Central Georgia Technical College,"80 Cohen Walker Drive,Warner Robins,GA,31088",32.5454972,-32.5454972,
Central Lakes College-Brainerd,"501 West College Drive,Brainerd,MN,56401",46.345808,-46.345808,
Central Maine Community College,"1250 Turner Street,Auburn,ME,4210",44.1333377,-44.1333377,
Central Methodist University-College of Liberal Arts and Sciences,"411 Central Methodist Square,Fayette,MO,65248",39.1514905,-39.1514905,
Central Michigan University,"106 Warriner Hall,Mount Pleasant,MI,48859",43.5911786,-43.5911786,
Central Penn College,"600 Valley Road,Summerdale,PA,17093",40.3049419,-40.3049419,
Central State University,"1400 Brush Row Rd,Wilberforce,OH,45384",39.714915,-39.714915,
Central Washington University,"400 East University Way,Ellensburg,WA,98926",47.0029902,-47.0029902,
Central Wyoming College,"2660 Peck Avenue,Riverton,WY,82501",43.0280952,-43.0280952,
Centralia College,"600 Centralia College Blvd.,Centralia,WA,98531",46.7162571,-46.7162571,
Centre College,"600 W Walnut St,Danville,KY,40422",37.6457777,-37.6457777,
Century College,"3300 Century Ave N,White Bear Lake,MN,55110",45.0416329,-45.0416329,
Cerritos College,"11110 Alondra Blvd,Norwalk,CA,90650",33.8861477,-33.8861477,
Cerro Coso Community College,"3000 College Heights Blvd,Ridgecrest,CA,93555",35.5673364,-35.5673364,
Chabot College,"25555 Hesperian Blvd,Hayward,CA,94545",37.6398046,-37.6398046,
Chadron State College,"1000 Main St,Chadron,NE,69337",42.8198689,-42.8198689,
Chaffey College,"5885 Haven Ave,Rancho Cucamonga,CA,91737",34.1464807,-34.1464807,
Chaminade University of Honolulu,"3140 Waialae Avenue,Honolulu,HI,96816",21.2897129,-21.2897129,
Champion Christian College,"600 Garland Avenue,Hot Springs,AR,71913",34.5002048,-34.5002048,
Chandler-Gilbert Community College,"2626 E Pecos Rd,Chandler,AZ,85225",33.2925859,-33.2925859,
Chapman University,"One University Dr.,Orange,CA,92866",33.7931305,-33.7931305,
Charleston Southern University,"9200 University Blvd,Charleston,SC,29406",32.9821829,-32.9821829,
Chatham University,"Woodland Rd,Pittsburgh,PA,15232",40.4476155,-40.4476155,
Chattahoochee Valley Community College,"2602 College Drive,Phenix City,AL,36869",32.4244948,-32.4244948,
Chattanooga State Community College,"4501 Amnicola Hwy,Chattanooga,TN,37406",35.100833,-35.100833,
Chemeketa Community College,"4000 Lancaster Dr NE,Salem,OR,97305",44.9785165,-44.9785165,
Chesapeake College,"1000 College Circle,Wye Mills,MD,21679",38.9532484,-38.9532484,
Chestnut Hill College,"9601 Germantown Ave,Philadelphia,PA,19118",40.0874677,-40.0874677,
Cheyney University of Pennsylvania,"1837 University Circle,Cheyney,PA,19319",39.9350609,-39.9350609,
Chicago State University,"9501 S. King Drive,Chicago,IL,60628",41.7211175,-41.7211175,
Chipola College,"3094 Indian Circle,Marianna,FL,32446",30.7874134,-30.7874134,
Chowan University,"One University Place,Murfreesboro,NC,27855",36.4354563,-36.4354563,
Christian Brothers University,"650 East Parkway South,Memphis,TN,38104",35.128596,-35.128596,
Christopher Newport University,"1 Avenue of the Arts,Newport News,VA,23606",37.0608093,-37.0608093,
Cincinnati Christian University,"2700 Glenway Ave,Cincinnati,OH,45204",39.1123835,-39.1123835,
Cincinnati State Technical and Community College,"3520 Central Parkway,Cincinnati,OH,45223",39.1495094,-39.1495094,
Cisco College,"101 College Heights,Cisco,TX,76437",32.4008802,-32.4008802,
Citadel Military College of South Carolina,"171 Moultrie St,Charleston,SC,29409",32.7975896,-32.7975896,
Citrus College,"1000 W Foothill Blvd,Glendora,CA,91741",34.1333467,-34.1333467,
City College of San Francisco,"50 Frida Kahlo Way,San Francisco,CA,94112",37.725852,-37.725852,
City Colleges of Chicago-Harry S Truman College,"1145 W Wilson Ave.,Chicago,IL,60640",41.9647366,-41.9647366,
City Colleges of Chicago-Kennedy-King College,"6301 S Halsted St,Chicago,IL,60621",41.7804262,-41.7804262,
City Colleges of Chicago-Malcolm X College,"1900 W Jackson Blvd,Chicago,IL,60612",41.8778058,-41.8778058,
City Colleges of Chicago-Olive-Harvey College,"10001 S Woodlawn Ave,Chicago,IL,60628",41.7105412,-41.7105412,
City Colleges of Chicago-Richard J Daley College,"7500 S Pulaski Rd,Chicago,IL,60652",41.756218,-41.756218,
City Colleges of Chicago-Wilbur Wright College,"4300 N Narragansett,Chicago,IL,60634",41.9588516,-41.9588516,
Clackamas Community College,"19600 Molalla Ave,Oregon City,OR,97045",45.3229707,-45.3229707,
Claflin University,"400 Magnolia Street,Orangeburg,SC,29115",33.4990214,-33.4990214,
Claremont McKenna College,"500 E 9th St,Claremont,CA,91711",34.1020742,-34.1020742,
Clarendon College,"1122 College Drive,Clarendon,TX,79226",34.944589,-34.944589,
Clarion University of Pennsylvania,"840 Wood Street,Clarion,PA,16214",41.2104564,-41.2104564,
Clark Atlanta University,"223 James P Brawley Drive, SW,Atlanta,GA,30314",33.7482561,-33.7482561,
Clark College,"1933 Fort Vancouver Way,Vancouver,WA,98663",45.6346831,-45.6346831,
Clark State Community College,"570 E Leffel Ln,Springfield,OH,45505",39.8945469,-39.8945469,
Clark University,"950 Main St,Worcester,MA,1610",42.2516001,-42.2516001,
Clarke University,"1550 Clarke Dr,Dubuque,IA,52001",42.5091309,-42.5091309,
Clarks Summit University,"538 Venard Rd,South Abington Township,PA,18411",41.4951198,-41.4951198,
Clarkson University,"8 Clarkson Ave,Potsdam,NY,13699",44.6650767,-44.6650767,
Clayton  State University,"2000 Clayton State Boulevard,Morrow,GA,30260",33.5946104,-33.5946104,
Cleary University,"3750 Cleary Drive,Howell,MI,48843",42.5866341,-42.5866341,
Clemson University,"201 Sikes Hall,Clemson,SC,29634",34.679339,-34.679339,
Cleveland State Community College,"3535 Adkisson Drive,Cleveland,TN,37312",35.2005694,-35.2005694,
Cleveland State University,"2121 Euclid Avenue,Cleveland,OH,44115",41.5024973,-41.5024973,
Clinton College,"1029 Crawford Rd,Rock Hill,SC,29730",34.9134385,-34.9134385,
Clinton Community College,"136 Clinton Point Dr.,Plattsburgh,NY,12901",44.648192,-44.648192,
Cloud County Community College,"2221 Campus Dr,Concordia,KS,66901",39.5539267,-39.5539267,
Clovis Community College,"10309 N. Willow Ave,Fresno,CA,93730",36.8865174,-36.8865174,
Coahoma Community College,"3240 Friars Point Rd,Clarksdale,MS,38614",34.2322937,-34.2322937,
Coastal Alabama Community College,"1900 U.S. Highway 31 S,Bay Minette,AL,36507",30.8516559,-30.8516559,
Coastal Bend College,"3800 Charco Rd,Beeville,TX,78102",28.4358166,-28.4358166,
Coastal Carolina University,"103 Tom Trout Drive,Conway,SC,29526",33.795026,-33.795026,
Cochise County Community College District,"901 N Colombo Ave,Sierra Vista,AZ,85635",31.5637785,-31.5637785,
Coe College,"1220 First Ave NE,Cedar Rapids,IA,52402",41.9882822,-41.9882822,
Coffeyville Community College,"400 W 11th St,Coffeyville,KS,67337",37.0337728,-37.0337728,
Coker College,"300 E College Ave,Hartsville,SC,29550",34.3765863,-34.3765863,
Colby College,"4000 Mayflower Hill Drive,Waterville,ME,4901",44.5626829,-44.5626829,
Colby Community College,"1255 S Range,Colby,KS,67701",39.3775645,-39.3775645,
Colby-Sawyer College,"541 Main St,New London,NH,3257",43.4143404,-43.4143404,
Colgate University,"13 Oak Drive,Hamilton,NY,13346",42.8183255,-42.8183255,
College of Alameda,"555 Ralph Appezzato Memorial Pky,Alameda,CA,94501",37.7808735,-37.7808735,
College of Central Florida,"3001 SW College Rd,Ocala,FL,34474",29.1626611,-29.1626611,
College of Charleston,"66 George St,Charleston,SC,29424",32.7834631,-32.7834631,
College of Coastal Georgia,"One College Drive,Brunswick,GA,31520",31.1832649,-31.1832649,
College of DuPage,"425 Fawell Blvd.,Glen Ellyn,IL,60137",41.8414336,-41.8414336,
College of Lake County,"19351 W Washington St.,Grayslake,IL,60030",42.3542648,-42.3542648,
College of Marin,"835 College Ave,Kentfield,CA,94904",37.9516402,-37.9516402,
College of Mount Saint Vincent,"6301 Riverdale Ave,Bronx,NY,10471",40.9124186,-40.9124186,
College of Our Lady of the Elms,"291 Springfield St,Chicopee,MA,1013",42.1418743,-42.1418743,
College of Saint Elizabeth,"2 Convent Rd,Morristown,NJ,7960",40.7806132,-40.7806132,
College of San Mateo,"1700 W Hillsdale Blvd,San Mateo,CA,94402",37.5350511,-37.5350511,
College of Southern Idaho,"315 Falls Ave.,Twin Falls,ID,83301",42.5814891,-42.5814891,
College of Southern Maryland,"8730 Mitchell Rd,La Plata,MD,20646",38.558853,-38.558853,
College of Southern Nevada,"6375 W. Charleston Blvd.,Las Vegas,NV,89146",36.1556186,-36.1556186,
College of Staten Island CUNY,"2800 Victory Blvd,Staten Island,NY,10314",40.6080147,-40.6080147,
College of the Canyons,"26455 Rockwell Canyon Rd,Santa Clarita,CA,91355",34.4043812,-34.4043812,
College of the Desert,"43-500 Monterey Ave,Palm Desert,CA,92260",33.7330326,-33.7330326,
College of the Holy Cross,"One College Street,Worcester,MA,1610",42.2392391,-42.2392391,
College of the Ozarks,"100 Opportunity Avenue,Point Lookout,MO,65726",36.6192811,-36.6192811,
College of the Redwoods,"7351 Tompkins Hill Rd,Eureka,CA,95501",40.698432,-40.698432,
College of the Sequoias,"915 S. Mooney Blvd,Visalia,CA,93277",36.3229462,-36.3229462,
College of the Siskiyous,"800 College Ave,Weed,CA,96094",41.4126153,-41.4126153,
College of William and Mary,"200 Richmond Road,Williamsburg,VA,23187",37.271949,-37.271949,
Collin County Community College District,"3452 Spur 399,McKinney,TX,75069",33.1624419,-33.1624419,
Colorado Christian University,"8787 West Alameda Avenue,Lakewood,CO,80226",39.7131041,-39.7131041,
Colorado College,"14. E Cache La Poudre St.,Colorado Springs,CO,80903",38.847021,-38.847021,
Colorado Mesa University,"1100 North Avenue,Grand Junction,CO,81501",39.0803555,-39.0803555,
Colorado Mountain College,"802 Grand Ave.,Glenwood Springs,CO,81601",39.5464088,-39.5464088,
Colorado Northwestern Community College,"500 Kennedy Drive,Rangely,CO,81648",40.0839684,-40.0839684,
Colorado School of Mines,"1500 Illinois St,Golden,CO,80401",39.7508585,-39.7508585,
Colorado State University-Fort Collins,"102 Administration Building,Fort Collins,CO,80523",40.5757036,-40.5757036,
Colorado State University-Pueblo,"2200 Bonforte Blvd,Pueblo,CO,81001",38.3060152,-38.3060152,
Columbia Basin College,"2600 N 20th Ave,Pasco,WA,99301",46.2521452,-46.2521452,
Columbia College,"1301 Columbia College Dr,Columbia,SC,29203",34.0455993,-34.0455993,
Columbia College,"11600 Columbia College Dr,Sonora,CA,95370",38.0305209,-38.0305209,
Columbia College,"1001 Rogers Street,Columbia,MO,65216",38.9578722,-38.9578722,
Columbia International University,"7435 Monticello Rd,Columbia,SC,29203",34.0753414,-34.0753414,
Columbia State Community College,"1665 Hampshire Pike,Columbia,TN,38401",35.6163784,-35.6163784,
Columbia University in the City of New York,"West 116 St and Broadway,New York,NY,10027",40.8079878,-40.8079878,
Columbia-Greene Community College,"4400 Route 23,Hudson,NY,12534",42.2176687,-42.2176687,
Columbus State Community College,"550 E Spring St,Columbus,OH,43215",39.9692367,-39.9692367,
Columbus State University,"4225 University Ave,Columbus,GA,31907",32.5023087,-32.5023087,
Community College of Allegheny County,"800 Allegheny Ave,Pittsburgh,PA,15233",40.450889,-40.450889,
Community College of Baltimore County,"7201 Rossville Blvd.,Baltimore,MD,21237",39.3535763,-39.3535763,
Community College of Beaver County,"1 Campus Drive,Monaca,PA,15061",40.6551335,-40.6551335,
Community College of Philadelphia,"1700 Spring Garden St,Philadelphia,PA,19130",39.9621811,-39.9621811,
Community College of Rhode Island,"400 East Ave,Warwick,RI,2886",41.7129353,-41.7129353,
Concord University,"1000 Vermillion Street,Athens,WV,24712",37.4226958,-37.4226958,
Concordia College at Moorhead,"901 S 8th St,Moorhead,MN,56562",46.8648964,-46.8648964,
Concordia College-New York,"171 White Plains Rd,Bronxville,NY,10708",40.9437539,-40.9437539,
Concordia University Texas,"11400 Concordia University Drive,Austin,TX,78726",30.4209992,-30.4209992,
Concordia University-Ann Arbor,"4090 Geddes Road,Ann Arbor,MI,48105",42.274529,-42.274529,
Concordia University-Chicago,"7400 Augusta,River Forest,IL,60305",41.900068,-41.900068,
Concordia University-Irvine,"1530 Concordia West,Irvine,CA,92612",33.6545502,-33.6545502,
Concordia University-Nebraska,"800 N Columbia Ave,Seward,NE,68434",40.9135666,-40.9135666,
Concordia University-Portland,"2811 NE Holman Street,Portland,OR,97211",45.568541,-45.568541,
Concordia University-Saint Paul,"1282 Concordia Ave,Saint Paul,MN,55104",44.950563,-44.950563,
Concordia University-Wisconsin,"12800 N Lake Shore Dr,Mequon,WI,53097",43.2544619,-43.2544619,
Connecticut College,"270 Mohegan Avenue,New London,CT,6320",41.3786877,-41.3786877,
Connors State College,"700 College Road,Warner,OK,74469",35.4918602,-35.4918602,
Contra Costa College,"2600 Mission Bell Drive,San Pablo,CA,94806",37.9686416,-37.9686416,
Copiah-Lincoln Community College,"1001 Co-Lin Lane,Wesson,MS,39191",31.6903033,-31.6903033,
Copper Mountain Community College,"6162 Rotary Way,Joshua Tree,CA,92252",34.1382233,-34.1382233,
Coppin State University,"2500 West North Avenue,Baltimore,MD,21216",39.3126114,-39.3126114,
Corban University,"5000 Deer Park Dr SE,Salem,OR,97317",44.8830429,-44.8830429,
Cornell College,"600 First St. SW,Mount Vernon,IA,52314",41.9245718,-41.9245718,
Cornell University,"300 Day Hall,Ithaca,NY,14853",42.4472814,-42.4472814,
Cornerstone University,"1001 E Beltline Ave NE,Grand Rapids,MI,49525",42.9801473,-42.9801473,
Corning Community College,"1 Academic Dr,Corning,NY,14830",42.1167732,-42.1167732,
Cosumnes River College,"8401 Center Parkway,Sacramento,CA,95823",38.4535803,-38.4535803,
County College of Morris,"214 Center Grove Rd,Randolph,NJ,7869",40.8600762,-40.8600762,
Covenant College,"14049 Scenic Highway,Lookout Mountain,GA,30750",34.9542752,-34.9542752,
Cowley County Community College,"125 S 2nd St,Arkansas City,KS,67005",37.061329,-37.061329,
Crafton Hills College,"11711 Sand Canyon Road,Yucaipa,CA,923391799",34.038649,-34.038649,
Creighton University,"2500 California Plaza,Omaha,NE,68178",41.2655878,-41.2655878,
Crowder College,"601 Laclede Ave,Neosho,MO,64850",36.8136425,-36.8136425,
Crowley's Ridge College,"100 College Dr,Paragould,AR,72450",36.066437,-36.066437,
Crown College,"8700 College View Drive,Saint Bonifacius,MN,55375",44.884838,-44.884838,
Cuesta College,"HIGHWAY 1,San Luis Obispo,CA,934038106",35.2860745,-35.2860745,
Culver-Stockton College,"One College Hill,Canton,MO,63435",40.1290996,-40.1290996,
Cumberland County College,"3322 College Drive,Vineland,NJ,8362",39.4410843,-39.4410843,
Cumberland University,"1 Cumberland Square,Lebanon,TN,37087",36.2052571,-36.2052571,
CUNY Bernard M Baruch College,"One Bernard Baruch Way,New York,NY,10010",40.7401991,-40.7401991,
CUNY Borough of Manhattan Community College,"199 Chambers St,New York,NY,10007",40.7174546,-40.7174546,
CUNY Bronx Community College,"2155 University Avenue,Bronx,NY,10453",40.8567706,-40.8567706,
CUNY Brooklyn College,"2900 Bedford Ave,Brooklyn,NY,11210",40.6308935,-40.6308935,
CUNY City College,"160 Convent Ave,New York,NY,10031",40.8216144,-40.8216144,
CUNY Hostos Community College,"500 Grand Concourse,Bronx,NY,10451",40.8181423,-40.8181423,
CUNY Hunter College,"695 Park Ave,New York,NY,10065",40.7685437,-40.7685437,
CUNY John Jay College of Criminal Justice,"524 W 59th St,New York,NY,10019",40.7711041,-40.7711041,
CUNY Kingsborough Community College,"2001 Oriental Blvd,Brooklyn,NY,11235",40.5778144,-40.5778144,
CUNY Lehman College,"250 Bedford Park Blvd West,Bronx,NY,10468",40.8708651,-40.8708651,
CUNY Medgar Evers College,"1650 Bedford Ave,Brooklyn,NY,11225",40.6664923,-40.6664923,
CUNY Queens College,"65-30 Kissena Blvd,Queens,NY,11367",40.7382488,-40.7382488,
CUNY Queensborough Community College,"222-05 56th Avenue,Bayside,NY,11364",40.7554985,-40.7554985,
CUNY York College,"94-20 Guy R. Brewer Blvd,Jamaica,NY,11451",40.7022966,-40.7022966,
Curry College,"1071 Blue Hill Ave,Milton,MA,2186",42.2369018,-42.2369018,
Cuyahoga Community College District,"700 Carnegie Ave,Cleveland,OH,44115",41.4948675,-41.4948675,
Cuyamaca College,"900 Rancho San Diego Pky,El Cajon,CA,92019",32.7464261,-32.7464261,
Cypress College,"9200 Valley View,Cypress,CA,90630",33.8279582,-33.8279582,
D'Youville College,"320 Porter Ave,Buffalo,NY,14201",42.9025892,-42.9025892,
Daemen College,"4380 Main St,Amherst,NY,14226",42.9650703,-42.9650703,
Dakota College at Bottineau,"105 Simrall Blvd,Bottineau,ND,58318",48.832551,-48.832551,
Dakota County Technical College,"1300  145th Street East,Rosemount,MN,55068",44.7386313,-44.7386313,
Dakota State University,"820 N Washington Ave,Madison,SD,57042",44.0124808,-44.0124808,
Dakota Wesleyan University,"1200 W University Ave,Mitchell,SD,57301",43.6984049,-43.6984049,
Dallas Baptist University,"3000 Mountain Creek Parkway,Dallas,TX,75211",32.7100766,-32.7100766,
Dallas Christian College,"2700 Christian Pkwy.,Dallas,TX,75234",32.9133282,-32.9133282,
Dalton State College,"650 College Drive,Dalton,GA,30720",34.7732488,-34.7732488,
Danville Area Community College,"2000 E Main St,Danville,IL,61832",40.1318487,-40.1318487,
Dartmouth College,"207 Parkhurst Hall,Hanover,NH,3755",43.704026,-43.704026,
Davenport University,"6191 Kraft Avenue S.E.,Grand Rapids,MI,49512",42.8493922,-42.8493922,
Davidson College,"102 N. Main Street,Davidson,NC,28035",35.499519,-35.499519,
Davidson County Community College,"297 DCCC Road,Thomasville,NC,27360",35.866896,-35.866896,
Davis & Elkins College,"100 Campus Dr,Elkins,WV,26241",38.9315561,-38.9315561,
Davis College,"400 Riverside Drive,Johnson City,NY,13790",42.1007417,-42.1007417,
Dawson Community College,"300 College Dr,Glendive,MT,59330",47.0854354,-47.0854354,
Daytona State College,"1200 W. International Speedway Blvd.,Daytona Beach,FL,32114",29.2029077,-29.2029077,
De Anza College,"21250 Stevens Creek Blvd.,Cupertino,CA,95014",37.3195396,-37.3195396,
Dean College,"99 Main Street,Franklin,MA,2038",42.084841,-42.084841,
Defiance College,"701 N Clinton,Defiance,OH,43512",41.2960849,-41.2960849,
Delaware County Community College,"901 S Media Line Rd,Media,PA,19063",39.9674581,-39.9674581,
Delaware State University,"1200 N. Dupont Highway,Dover,DE,19901",39.1884429,-39.1884429,
Delaware Technical Community College-Terry,"100 Campus Drive,Dover,DE,19901",39.1980302,-39.1980302,
Delaware Valley University,"700 E Butler Ave,Doylestown,PA,18901",40.2991045,-40.2991045,
Delgado Community College,"615 City Park Avenue,New Orleans,LA,70119",29.9847034,-29.9847034,
Delta College,"1961 Delta Road,University Center,MI,48710",43.5575386,-43.5575386,
Delta State University,"1003 W Sunflower Road,Cleveland,MS,38733",33.746706,-33.746706,
Denison University,"100 West College Street,Granville,OH,43023",40.0711678,-40.0711678,
Denmark Technical College,"1126 Solomon Blatt Blvd,Denmark,SC,29042",33.311775,-33.311775,
DePaul University,"1 E Jackson Blvd,Chicago,IL,60604",41.8781342,-41.8781342,
DePauw University,"313 S Locust St,Greencastle,IN,46135",39.6408691,-39.6408691,
Des Moines Area Community College,"2006 Ankeny Blvd,Ankeny,IA,50023",41.7483226,-41.7483226,
DeSales University,"2755 Station Avenue,Center Valley,PA,18034",40.5384792,-40.5384792,
Diablo Valley College,"321 Golf Club Rd,Pleasant Hill,CA,94523",37.9685658,-37.9685658,
Dickinson College,"College and Louther Streets,Carlisle,PA,17013",40.2044944,-40.2044944,
Dickinson State University,"291 Campus Drive,Dickinson,ND,58601",46.8830578,-46.8830578,
Dillard University,"2601 Gentilly Blvd,New Orleans,LA,70122",29.9948773,-29.9948773,
Dine College,"Route 12, One Circle Drive,Tsaile,AZ,86556",36.29557,-36.29557,
Dixie State University,"225 S University Avenue,Saint George,UT,84770",37.1091597,-37.1091597,
Doane University-Arts & Sciences,"1014 Boswell Avenue,Crete,NE,68333",40.622954,-40.622954,
Dodge City Community College,"2501 N 14th Ave,Dodge City,KS,67801",37.7777983,-37.7777983,
Dominican College of Blauvelt,"470 Western Highway,Orangeburg,NY,10962",41.0513059,-41.0513059,
Dominican University,"7900 W Division Street,River Forest,IL,60305",41.9021729,-41.9021729,
Dominican University of California,"50 Acacia Ave,San Rafael,CA,94901",37.9798523,-37.9798523,
Dordt College,"700 7th Street NE,Sioux Center,IA,51250",43.0843536,-43.0843536,
Drake University,"2507 University Avenue,Des Moines,IA,50311",41.6022771,-41.6022771,
Drew University,"36 Madison Ave,Madison,NJ,7940",40.7612505,-40.7612505,
Drexel University,"3141 Chestnut St,Philadelphia,PA,19104",39.9540928,-39.9540928,
Drury University,"900 N. Benton Ave,Springfield,MO,65802",37.2196487,-37.2196487,
Duke University,"103 Allen Bldg,Durham,NC,27708",36.0014258,-36.0014258,
Duquesne University,"Administration Bldg 600 Forbes Ave,Pittsburgh,PA,15282",40.4367914,-40.4367914,
Dutchess Community College,"53 Pendell Rd,Poughkeepsie,NY,12601",41.7262267,-41.7262267,
Dyersburg State Community College,"1510 Lake Rd,Dyersburg,TN,38024",36.0483788,-36.0483788,
Earlham College,"801 National Rd West,Richmond,IN,47374",39.8259613,-39.8259613,
East Carolina University,"East 5th Street,Greenville,NC,27858",35.6066409,-35.6066409,
East Central College,"1964 Prairie Dell Rd,Union,MO,63084",38.4311131,-38.4311131,
East Central Community College,"15738 Highway 15,Decatur,MS,39327",32.4442075,-32.4442075,
East Central University,"1100 E. 14th Street,Ada,OK,74820",34.7728483,-34.7728483,
East Georgia State College,"131 College Cir,Swainsboro,GA,30401",32.5933275,-32.5933275,
East Los Angeles College,"1301 Avenida Cesar Chavez,Monterey Park,CA,91754",34.0410705,-34.0410705,
East Mississippi Community College,"1512 Kemper Street,Scooba,MS,39358",32.830934,-32.830934,
East Stroudsburg University of Pennsylvania,"200 Prospect Street,East Stroudsburg,PA,18301",40.9974053,-40.9974053,
East Tennessee State University,"1276 Gilbreath Drive,Johnson City,TN,37614",36.3041643,-36.3041643,
East Texas Baptist University,"One Tiger Drive,Marshall,TX,75670",32.5537361,-32.5537361,
Eastern Arizona College,"615 N. Stadium Ave.,Thatcher,AZ,85552",32.8463004,-32.8463004,
Eastern Connecticut State University,"83 Windham St,Willimantic,CT,6226",41.7188674,-41.7188674,
Eastern Florida State College,"1519 Clearlake Rd,Cocoa,FL,32922",28.3837737,-28.3837737,
Eastern Gateway Community College,"4000 Sunset Blvd,Steubenville,OH,43952",40.3762371,-40.3762371,
Eastern Illinois University,"600 Lincoln Avenue,Charleston,IL,61920",39.4780297,-39.4780297,
Eastern Iowa Community College District,"101 W 3rd St,Davenport,IA,52801",41.5221486,-41.5221486,
Eastern Kentucky University,"521 Lancaster Ave,Richmond,KY,40475",37.7382655,-37.7382655,
Eastern Mennonite University,"1200 Park Rd,Harrisonburg,VA,22802",38.4700518,-38.4700518,
Eastern Michigan University,"401 Pierce Hall,Ypsilanti,MI,48197",42.2466866,-42.2466866,
Eastern Nazarene College,"23 E Elm Ave,Quincy,MA,2170",42.271675,-42.271675,
Eastern New Mexico University-Main Campus,"ENMU Station 2, 1500 S Ave K,Portales,NM,88130",34.1784011,-34.1784011,
Eastern Oklahoma State College,"1301 W Main St,Wilburton,OK,74578",34.9134248,-34.9134248,
Eastern Oregon University,"One University Blvd,La Grande,OR,97850",45.3177348,-45.3177348,
Eastern University,"1300 Eagle Rd,Saint Davids,PA,19087",40.0533472,-40.0533472,
Eastern Washington University,"526 5th Street,Cheney,WA,99004",47.4901128,-47.4901128,
Eastern Wyoming College,"3200 West C St,Torrington,WY,82240",42.0757471,-42.0757471,
Eastfield College,"3737 Motley Dr,Mesquite,TX,75150",32.8158186,-32.8158186,
Ecclesia College,"9653 Nations Dr,Springdale,AR,72762",36.2140489,-36.2140489,
Eckerd College,"4200 54th Ave S,Saint Petersburg,FL,33711",27.7181319,-27.7181319,
Edgewood College,"1000 Edgewood College Drive,Madison,WI,53711",43.0579472,-43.0579472,
Edinboro University of Pennsylvania,"219 Meadville Street,Edinboro,PA,16444",41.8713002,-41.8713002,
Edison State Community College,"1973 Edison Dr,Piqua,OH,45356",40.1583581,-40.1583581,
Edmonds Community College,"20000 68th Ave W,Lynnwood,WA,98036",47.816842,-47.816842,
Edward Waters College,"1658 Kings Rd,Jacksonville,FL,32209",30.3436937,-30.3436937,
El Camino College-Compton Center,"1111 East Artesia Blvd.,Compton,CA,90221",33.8774168,-33.8774168,
El Camino Community College District,"16007 Crenshaw Blvd,Torrance,CA,90506",33.8844832,-33.8844832,
El Paso Community College,"9050 Viscount Blvd,El Paso,TX,79925",31.7722351,-31.7722351,
Elgin Community College,"1700 Spartan Drive,Elgin,IL,60123",42.0177155,-42.0177155,
Elizabeth City State University,"1704 Weeksville Rd,Elizabeth City,NC,27909",36.2747718,-36.2747718,
Elizabethtown College,"One Alpha Drive,Elizabethtown,PA,17022",40.1503251,-40.1503251,
Ellsworth Community College,"1100 College Ave,Iowa Falls,IA,50126",42.5262564,-42.5262564,
Elmhurst College,"190 Prospect Ave,Elmhurst,IL,60126",41.8976377,-41.8976377,
Elmira College,"One Park Place,Elmira,NY,14901",42.0977801,-42.0977801,
Elon University,"100 Campus Drive,Elon,NC,27244",36.1048942,-36.1048942,
Embry-Riddle Aeronautical University-Daytona Beach,"600 S Clyde Morris Blvd,Daytona Beach,FL,32114",29.1916159,-29.1916159,
Embry-Riddle Aeronautical University-Prescott,"3700 Willow Creek Road,Prescott,AZ,86301",34.6161839,-34.6161839,
Emerson College,"120 Boylston Street,Boston,MA,2116",42.3522392,-42.3522392,
Emmanuel College,"181 Springs St,Franklin Springs,GA,30639",34.2821297,-34.2821297,
Emmanuel College,"400 The Fenway,Boston,MA,2115",42.3402743,-42.3402743,
Emmaus Bible College,"2570 Asbury Rd,Dubuque,IA,52001",42.5105975,-42.5105975,
Emory & Henry College,"30461 Garnand Drive,Emory,VA,24327",36.7732717,-36.7732717,
Emory University,"408 Administration Building, 201 Dowman Drive,Atlanta,GA,30322",33.7971368,-33.7971368,
Emory University-Oxford College,"801 Emory Street,Oxford,GA,30054",33.6211771,-33.6211771,
Emporia State University,"1 Kellogg Circle,Emporia,KS,66801",38.4133013,-38.4133013,
Endicott College,"376 Hale Street,Beverly,MA,1915",42.5535537,-42.5535537,
Enterprise State Community College,"600 Plaza Drive,Enterprise,AL,36330",31.2983627,-31.2983627,
Erie Community College,"121 Ellicott St,Buffalo,NY,14203",42.8817115,-42.8817115,
Erskine College,"P.O. Box 338,Due West,SC,29639",34.3305278,-34.3305278,
Essex County College,"303 University Ave,Newark,NJ,7102",40.7383477,-40.7383477,
Estrella Mountain Community College,"3000 N Dysart Rd,Avondale,AZ,85392",33.4804594,-33.4804594,
Eureka College,"300 E. College Avenue,Eureka,IL,61530",40.71398,-40.71398,
Evangel University,"1111 N Glenstone,Springfield,MO,65802",37.2222974,-37.2222974,
Everett Community College,"2000 Tower Street,Everett,WA,98201",48.0065191,-48.0065191,
Evergreen Valley College,"3095 Yerba Buena Rd,San Jose,CA,95135",37.3001189,-37.3001189,
Fairfield University,"1073 N Benson Rd,Fairfield,CT,6824",41.158843,-41.158843,
Fairleigh Dickinson University-Florham Campus,"285 Madison Ave,Madison,NJ,7940",40.7741362,-40.7741362,
Fairleigh Dickinson University-Metropolitan Campus,"1000 River Rd,Teaneck,NJ,7666",40.8980254,-40.8980254,
Fairmont State University,"1201 Locust Ave,Fairmont,WV,26554",39.4857867,-39.4857867,
Faith Baptist Bible College and Theological Seminary,"1900 NW 4th St,Ankeny,IA,50023",41.7370765,-41.7370765,
Farmingdale State College,"2350 Broadhollow Road,Farmingdale,NY,11735",40.7510877,-40.7510877,
Fashion Institute of Technology,"227 W 27th St,New York,NY,10001",40.7472258,-40.7472258,
Faulkner University,"5345 Atlanta Hwy,Montgomery,AL,36109",32.3835179,-32.3835179,
Fayetteville State University,"1200 Murchison Rd,Fayetteville,NC,28301",35.0742206,-35.0742206,
Fayetteville Technical Community College,"P.O. Box 35236,Fayetteville,NC,28303",35.0666422,-35.0666422,
Feather River Community College District,"570 Golden Eagle Ave,Quincy,CA,95971",39.9521546,-39.9521546,
Felician University,"262 S Main St,Lodi,NJ,7644",40.8668874,-40.8668874,
Ferris State University,"1201 S State St,Big Rapids,MI,49307",43.6844327,-43.6844327,
Ferrum College,"215 Ferrum Mountain Road,Ferrum,VA,24088",36.9264771,-36.9264771,
Finger Lakes Community College,"3325 Marvin Sands Drive,Canandaigua,NY,14424",42.8671852,-42.8671852,
Finlandia University,"601 Quincy St,Hancock,MI,49930",47.1267999,-47.1267999,
Fisher College,"118 Beacon Street,Boston,MA,2116",42.35531,-42.35531,
Fisk University,"1000 17th Ave North,Nashville,TN,37208",36.167017,-36.167017,
Fitchburg State University,"160 Pearl St,Fitchburg,MA,1420",42.5881824,-42.5881824,
Five Towns College,"305 North Service Road,Dix Hills,NY,11746",40.7945036,-40.7945036,
Flagler College-St Augustine,"74 King Street,Saint Augustine,FL,32084",29.8930524,-29.8930524,
Florence-Darlington Technical College,"2715 W. Lucas Street,Florence,SC,29501",34.2449336,-34.2449336,
Florida Agricultural and Mechanical University,"1500 S Martin Luther King Jr Blvd,Tallahassee,FL,32307",30.4286389,-30.4286389,
Florida Atlantic University,"777 Glades Rd,Boca Raton,FL,33431",26.3693119,-26.3693119,
Florida College,"119 N Glen Arven Ave,Temple Terrace,FL,33617",28.034409,-28.034409,
Florida Gateway College,"149 SE College Pl,Lake City,FL,32025",30.176324,-30.176324,
Florida Gulf Coast University,"10501 Fgcu Blvd S,Fort Myers,FL,33965",26.4616473,-26.4616473,
Florida Institute of Technology,"150 West University Boulevard,Melbourne,FL,32901",28.0644994,-28.0644994,
Florida International University,"11200 S. W. 8 Street,Miami,FL,33199",25.7567674,-25.7567674,
Florida Memorial University,"15800 NW 42 Avenue,Miami Gardens,FL,33054",25.9182546,-25.9182546,
Florida National University-Main Campus,"4425 West 20th Avenue,Hialeah,FL,33012",25.8617133,-25.8617133,
Florida Southern College,"111 Lake Hollingsworth Dr,Lakeland,FL,33801",28.0296636,-28.0296636,
Florida SouthWestern State College,"8099 College Parkway,Fort Myers,FL,33919",26.5568395,-26.5568395,
Florida State College at Jacksonville,"501 W State St,Jacksonville,FL,32202",30.3349528,-30.3349528,
Florida State University,"222 S. Copeland Street,Tallahassee,FL,32306",30.4404775,-30.4404775,
Folsom Lake College,"10 College Parkway,Folsom,CA,95630",38.661472,-38.661472,
Fond du Lac Tribal and Community College,"2101 14th St,Cloquet,MN,55720",46.6896331,-46.6896331,
Fontbonne University,"6800 Wydown Blvd,Saint Louis,MO,63105",38.6414182,-38.6414182,
Foothill College,"12345 El Monte Rd,Los Altos Hills,CA,94022",37.3677565,-37.3677565,
Fordham University,"441 E Fordham Rd,Bronx,NY,10458",40.8620281,-40.8620281,
Fort Hays State University,"600 Park St,Hays,KS,67601",38.8731404,-38.8731404,
Fort Lewis College,"1000 Rim Drive,Durango,CO,81301",37.2737647,-37.2737647,
Fort Scott Community College,"2108 S Horton,Fort Scott,KS,66701",37.8169345,-37.8169345,
Fort Valley State University,"1005 State University Dr,Fort Valley,GA,31030",32.5370907,-32.5370907,
Framingham State University,"100 State Street,Framingham,MA,1701",42.2981072,-42.2981072,
Francis Marion University,"4822 East Palmetto Street,Florence,SC,29506",34.1959695,-34.1959695,
Franciscan University of Steubenville,"1235 University Blvd,Steubenville,OH,43952",40.3772091,-40.3772091,
Frank Phillips College,"1301 W. Roosevelt St.,Borger,TX,79008",35.6568328,-35.6568328,
Franklin and Marshall College,"College Ave,Lancaster,PA,17604",40.0435373,-40.0435373,
Franklin College,"101 Branigin Blvd,Franklin,IN,46131",39.4781674,-39.4781674,
Franklin Pierce University,"40 University Drive,Rindge,NH,3461",42.7793667,-42.7793667,
Frederick Community College,"7932 Opossumtown Pike,Frederick,MD,21702",39.451818,-39.451818,
Freed-Hardeman University,"158 E Main St,Henderson,TN,38340",35.4408398,-35.4408398,
Fresno City College,"1101 E. University Ave,Fresno,CA,93741",36.7675959,-36.7675959,
Fresno Pacific University,"1717 S Chestnut Ave,Fresno,CA,93702",36.7254417,-36.7254417,
Friends University,"2100 W. University Ave.,Wichita,KS,67213",37.6771802,-37.6771802,
Frontier Community College,"2 Frontier Drive,Fairfield,IL,62837",38.38231,-38.38231,
Frostburg State University,"101 Braddock Road,Frostburg,MD,21532",39.6498765,-39.6498765,
Full Sail University,"3300 University Boulevard,Winter Park,FL,327927429",28.5965556,-28.5965556,
Fullerton College,"321 E Chapman Avenue,Fullerton,CA,92832",33.875251,-33.875251,
Fulton-Montgomery Community College,"2805 State Hwy 67,Johnstown,NY,12095",42.9830843,-42.9830843,
Furman,"3300 Poinsett Highway,Greenville,SC,29613",34.9279032,-34.9279032,
Gadsden State Community College,"1001 George Wallace Dr,Gadsden,AL,35903",33.9959754,-33.9959754,
Gallaudet University,"800 Florida Ave, NE,Washington,DC,20002",38.9073649,-38.9073649,
Galveston College,"4015 Ave Q,Galveston,TX,77550",29.284711,-29.284711,
Gannon University,"109 W Sixth St,Erie,PA,16541",42.128853,-42.128853,
Garden City Community College,"801 Campus Dr,Garden City,KS,67846",37.9706495,-37.9706495,
Gardner-Webb University,"Main St,Boiling Springs,NC,28017",35.2574562,-35.2574562,
Garrett College,"687 Mosser Road,McHenry,MD,21541",39.5606927,-39.5606927,
GateWay Community College,"108 N. 40th Street,Phoenix,AZ,85034",33.4507462,-33.4507462,
Gateway Community College,"20 Church Street,New Haven,CT,6510",41.3045457,-41.3045457,
Gavilan College,"5055 Santa Teresa Blvd,Gilroy,CA,95020",36.9666134,-36.9666134,
Genesee Community College,"One College Rd,Batavia,NY,14020",43.0169369,-43.0169369,
Geneva College,"3200 College Ave,Beaver Falls,PA,15010",40.7739825,-40.7739825,
George C Wallace Community College-Dothan,"1141 Wallace Drive,Dothan,AL,36303",31.3156396,-31.3156396,
George C Wallace State Community College-Hanceville,"801 Main St NW,Hanceville,AL,35077",34.0598451,-34.0598451,
George C Wallace State Community College-Selma,"3000 Earl Goodwin Parkway,Selma,AL,36703",32.4466035,-32.4466035,
George Fox University,"414 N Meridian St,Newberg,OR,97132",45.303629,-45.303629,
George Mason University,"4400 University Dr,Fairfax,VA,22030",38.8336468,-38.8336468,
George Washington University,"2121 I Street, NW,Washington,DC,20052",38.9009637,-38.9009637,
Georgetown College,"400 East College Street,Georgetown,KY,40324",38.207738,-38.207738,
Georgetown University,"37th and O St NW,Washington,DC,20057",38.9076192,-38.9076192,
Georgia College & State University,"231 W Hancock Street,Milledgeville,GA,31061",33.0828388,-33.0828388,
Georgia Gwinnett College,"1000 University Center Lane,Lawrenceville,GA,30043",33.9803214,-33.9803214,
Georgia Highlands College,"3175 Cedartown Highway, S.E.,Rome,GA,30161",34.169222,-34.169222,
Georgia Institute of Technology-Main Campus,"225 North Ave,Atlanta,GA,30332",33.7724173,-33.7724173,
Georgia Military College,"201 E Greene St,Milledgeville,GA,31061",33.0786691,-33.0786691,
Georgia Southern University,"Brannen Hall, Room 2015, 2670 Southern Drive,Statesboro,GA,30460",32.4286684,-32.4286684,
Georgia Southwestern State University,"800 Georgia Southwestern State University Dr.,Americus,GA,31709",32.0560379,-32.0560379,
Georgia State University,"33 gilmer st,Atlanta,GA,30303",33.7534327,-33.7534327,
Georgian Court University,"900 Lakewood Ave,Lakewood,NJ,8701",40.0997898,-40.0997898,
Gettysburg College,"300 North Washington Street,Gettysburg,PA,17325",39.8355775,-39.8355775,
Glen Oaks Community College,"62249 Shimmel Rd,Centreville,MI,49032",41.8926528,-41.8926528,
Glendale Community College,"6000 W Olive Ave,Glendale,AZ,85302",33.5694333,-33.5694333,
Glendale Community College,"1500 N Verdugo Rd,Glendale,CA,91208",34.1670866,-34.1670866,
Glenville State College,"200 High Street,Glenville,WV,26351",38.9348779,-38.9348779,
Gogebic Community College,"E4946 Jackson Rd,Ironwood,MI,49938",46.472624,-46.472624,
Golden West College,"15744 Goldenwest St.,Huntington Beach,CA,92647",33.7325619,-33.7325619,
Goldey-Beacom College,"4701 Limestone Rd,Wilmington,DE,19808",39.7415725,-39.7415725,
Gonzaga University,"E 502 Boone Ave,Spokane,WA,99258",47.6664473,-47.6664473,
Gordon College,"255 Grapevine Rd,Wenham,MA,1984",42.5893751,-42.5893751,
Gordon State College,"419 College Dr,Barnesville,GA,30204",33.0481964,-33.0481964,
Goshen College,"1700 S Main St,Goshen,IN,46526",41.562224,-41.562224,
Goucher College,"1021 Dulaney Valley Rd,Baltimore,MD,21204",39.408765,-39.408765,
Governors State University,"1 University Pky,University Park,IL,60484",41.4483892,-41.4483892,
Grace Bible College,"1011 Aldon SW,Grand Rapids,MI,49509",42.9194335,-42.9194335,
Grace College and Theological Seminary,"200 Seminary Dr,Winona Lake,IN,46590",41.2258318,-41.2258318,
Graceland University-Lamoni,"1 University Place,Lamoni,IA,50140",40.6161507,-40.6161507,
Grambling State University,"403 Main Street,Grambling,LA,71245",32.5221156,-32.5221156,
Grand Canyon University,"3300 W Camelback Rd,Phoenix,AZ,85017",33.5131895,-33.5131895,
Grand Rapids Community College,"143 Bostwick Ave NE,Grand Rapids,MI,49503",42.9669729,-42.9669729,
Grand Valley State University,"1 Campus Dr,Allendale,MI,49401",42.9629773,-42.9629773,
Grand View University,"1200 Grandview Ave,Des Moines,IA,50316",41.6204245,-41.6204245,
Grays Harbor College,"1620 Edward P Smith Drive,Aberdeen,WA,98520",46.9538135,-46.9538135,
Grayson College,"6101 Grayson Drive,Denison,TX,75020",33.7065029,-33.7065029,
Great Bay Community College,"320 Corporate Drive,Portsmouth,NH,3801",43.0720351,-43.0720351,
Great Lakes Christian College,"6211 W Willow Hwy,Lansing,MI,489171299",42.754214,-42.754214,
Green River College,"12401 SE 320th St,Auburn,WA,98092",47.3130004,-47.3130004,
Greensboro College,"815 W Market St,Greensboro,NC,27401",36.071019,-36.071019,
Greenville University,"315 E. College Ave,Greenville,IL,62246",38.8941304,-38.8941304,
Grinnell College,"1121 Park Street,Grinnell,IA,50112",41.7469499,-41.7469499,
Grossmont College,"8800 Grossmont College Dr,El Cajon,CA,92020",32.8164953,-32.8164953,
Guilford College,"5800 W Friendly Avenue,Greensboro,NC,27410",36.0895288,-36.0895288,
Guilford Technical Community College,"601 E. Main Street,Jamestown,NC,27282",35.9986281,-35.9986281,
Gulf Coast State College,"5230 West U.S. Highway 98,Panama City,FL,32401",30.1856374,-30.1856374,
Gustavus Adolphus College,"800 West College Avenue,Saint Peter,MN,56082",44.3232193,-44.3232193,
Gwynedd Mercy University,"1325 Sumneytown Pike,Gwynedd Valley,PA,19437",40.1937701,-40.1937701,
Hagerstown Community College,"11400 Robinwood Dr,Hagerstown,MD,21742",39.630176,-39.630176,
Hamilton College,"198 College Hill Rd,Clinton,NY,13323",43.0498348,-43.0498348,
Hamline University,"1536 Hewitt Avenue,Saint Paul,MN,55104",44.9657315,-44.9657315,
Hampden-Sydney College,"College Road,Hampden-Sydney,VA,23943",37.2390019,-37.2390019,
Hampshire College,"893 West St,Amherst,MA,1002",42.3267995,-42.3267995,
Hampton University,"100 E. Queen Street,Hampton,VA,23668",37.0228029,-37.0228029,
Hannibal-LaGrange University,"2800 Palmyra Rd,Hannibal,MO,63401",39.7241427,-39.7241427,
Hanover College,"517 Ball Drive,Hanover,IN,47243",38.7189081,-38.7189081,
Harcum College,"750 Montgomery Ave,Bryn Mawr,PA,19010",40.0225303,-40.0225303,
Hardin-Simmons University,"2200 Hickory,Abilene,TX,79698",32.4762039,-32.4762039,
Harding University,"915 E. Market Ave.,Searcy,AR,72149",35.2491804,-35.2491804,
Harford Community College,"401 Thomas Run Rd,Bel Air,MD,21015",39.5587983,-39.5587983,
Harris-Stowe State University,"3026 Laclede Ave,Saint Louis,MO,63103",38.6319589,-38.6319589,
Harrisburg Area Community College,"1 HACC Dr.,Harrisburg,PA,17110",40.2972076,-40.2972076,
Harrisburg University of Science and Technology,"326 Market Street,Harrisburg,PA,171012208",40.2619027,-40.2619027,
Hartnell College,"411 Central Avenue,Salinas,CA,93901",36.6739532,-36.6739532,
Hartwick College,"One Hartwick Drive,Oneonta,NY,13820",42.4586674,-42.4586674,
Harvard University,"Massachusetts Hall,Cambridge,MA,2138",42.3748649,-42.3748649,
Haskell Indian Nations University,"155 Indian Ave,Lawrence,KS,66046",38.938797,-38.938797,
Hastings College,"710 N Turner Ave,Hastings,NE,68901",40.5906776,-40.5906776,
Haverford College,"370  Lancaster Ave,Haverford,PA,19041",40.0119253,-40.0119253,
Hawaii Pacific University,"1 Aloha Tower Drive,Honolulu,HI,96813",21.3065617,-21.3065617,
Hawkeye Community College,"1501 E Orange Rd,Waterloo,IA,50701",42.4297978,-42.4297978,
Heartland Community College,"1500 West Raab Road,Normal,IL,61761",40.5352293,-40.5352293,
Heidelberg University,"310 E Market St,Tiffin,OH,44883",41.1163289,-41.1163289,
Henderson State University,"1100 Henderson Street,Arkadelphia,AR,71999",34.126744,-34.126744,
Hendrix College,"1600 Washington Ave,Conway,AR,72032",35.0995323,-35.0995323,
Henry Ford College,"5101 Evergreen Rd,Dearborn,MI,48128",42.3239417,-42.3239417,
Herkimer County Community College,"100 Reservoir Rd,Herkimer,NY,13350",43.0322822,-43.0322822,
Hesston College,"301 South Main,Hesston,KS,67062",38.1345466,-38.1345466,
Hibbing Community College,"1515 E 25th St,Hibbing,MN,55746",47.4240927,-47.4240927,
High Point University,"One University Parkway,High Point,NC,27268",35.9721829,-35.9721829,
Highland Community College,"606 W Main,Highland,KS,66035",39.8600065,-39.8600065,
Highland Community College,"2998 W Pearl City Rd,Freeport,IL,61032",42.2831242,-42.2831242,
Highline College,"2400 S 240th St,Des Moines,WA,98198",47.3897813,-47.3897813,
Hilbert College,"5200 South Park Avenue,Hamburg,NY,14075",42.7543894,-42.7543894,
Hill College,"112 Lamar Dr,Hillsboro,TX,76645",32.0118479,-32.0118479,
Hillsborough Community College,"39 Columbia Drive,Tampa,FL,33606",27.9348426,-27.9348426,
Hinds Community College,"608 Hinds Boulevard,Raymond,MS,39154",32.253804,-32.253804,
Hiram College,"PO Box 1808,Hiram,OH,44234",41.3125552,-41.3125552,
Hobart William Smith Colleges,"337 Pulteney Street,Geneva,NY,14456",42.858059,-42.858059,
Hocking College,"3301 Hocking Parkway,Nelsonville,OH,45764",39.4440015,-39.4440015,
Hofstra University,"100 Hofstra University,Hempstead,NY,11549",40.7166872,-40.7166872,
Holmes Community College,"#1 Hill St,Goodman,MS,39079",32.9691105,-32.9691105,
Holy Cross College,"54515 State Road 933 North,Notre Dame,IN,46556",41.6984637,-41.6984637,
Holy Family University,"9801 Frankford Avenue,Philadelphia,PA,19114",40.0592303,-40.0592303,
Holy Names University,"3500 Mountain Blvd,Oakland,CA,94619",37.8029258,-37.8029258,
Holyoke Community College,"303 Homestead Ave,Holyoke,MA,1040",42.1955366,-42.1955366,
Hood College,"401 Rosemont Ave,Frederick,MD,21701",39.4213829,-39.4213829,
Hope College,"100 E. 8th Street, Suite 260,Holland,MI,494229000",42.7901211,-42.7901211,
Hope International University,"2500 E Nutwood Ave,Fullerton,CA,92831",33.8764863,-33.8764863,
Houghton College,"1 Willard Ave,Houghton,NY,14744",42.4266355,-42.4266355,
Houston Baptist University,"7502 Fondren Rd,Houston,TX,77074",29.6929877,-29.6929877,
Howard College,"1001 Birdwell Lane,Big Spring,TX,79720",32.2522202,-32.2522202,
Howard Community College,"10901 Little Patuxent Pkwy,Columbia,MD,21044",39.2140416,-39.2140416,
Howard Payne University,"1000 Fisk St.,Brownwood,TX,76801",31.7159054,-31.7159054,
Howard University,"2400 Sixth St NW,Washington,DC,20059",38.9232583,-38.9232583,
Hudson Valley Community College,"80 Vandenburgh Ave,Troy,NY,12180",42.6958354,-42.6958354,
Humboldt State University,"1 Harpst Street,Arcata,CA,95521",40.8744392,-40.8744392,
Huntingdon College,"1500 East Fairview Avenue,Montgomery,AL,36106",32.3504918,-32.3504918,
Huntington University,"2303 College Ave,Huntington,IN,46750",40.8990026,-40.8990026,
Husson University,"1 College Circle,Bangor,ME,4401",44.8288028,-44.8288028,
Huston-Tillotson University,"900 Chicon St,Austin,TX,78702",30.2646809,-30.2646809,
Hutchinson Community College,"1300 N Plum St,Hutchinson,KS,67501",38.0666992,-38.0666992,
Idaho State University,"921 S 8th Ave Stop 8173,Pocatello,ID,83209",42.8627836,-42.8627836,
Illinois Central College,"1 College Drive,East Peoria,IL,61635",40.7072344,-40.7072344,
Illinois College,"1101 West College Ave,Jacksonville,IL,62650",39.7312595,-39.7312595,
Illinois Institute of Technology,"10 West 35th Street,Chicago,IL,60616",41.8313967,-41.8313967,
Illinois State University,"North and School Streets,Normal,IL,61790",40.52355,-40.52355,
Illinois Valley Community College,"815 N Orlando Smith Road,Oglesby,IL,61348",41.3067576,-41.3067576,
Illinois Wesleyan University,"1312 N Park St,Bloomington,IL,61702",40.4918279,-40.4918279,
Immaculata University,"1145 King Rd,Immaculata,PA,19345",40.0279019,-40.0279019,
Imperial Valley College,"380 E. Aten Road,Imperial,CA,92251",32.8290418,-32.8290418,
Independence Community College,"1057 West College Avenue,Independence,KS,67301",37.1964732,-37.1964732,
Indian Hills Community College,"525 Grandview Ave,Ottumwa,IA,52501",41.0457764,-41.0457764,
Indian River State College,"3209 Virginia Ave,Fort Pierce,FL,34981",27.4225457,-27.4225457,
Indiana Institute of Technology,"1600 E Washington Blvd,Fort Wayne,IN,46803",41.077818,-41.077818,
Indiana State University,"210 N 7th St,Terre Haute,IN,47809",39.4683597,-39.4683597,
Indiana University of Pennsylvania-Main Campus,"1011 South Dr 201 Sutton Hall,Indiana,PA,15705",40.6173325,-40.6173325,
Indiana University-Bloomington,"107 South Indiana Ave.,Bloomington,IN,47405",39.166111,-39.166111,
Indiana University-East,"2325 Chester Blvd,Richmond,IN,47374",39.866598,-39.866598,
Indiana University-Kokomo,"2300 S Washington St,Kokomo,IN,46904",40.4594254,-40.4594254,
Indiana University-Northwest,"3400 Broadway,Gary,IN,46408",41.5565044,-41.5565044,
Indiana University-Purdue University-Fort Wayne,"2101 E Coliseum Blvd,Fort Wayne,IN,46805",41.1157605,-41.1157605,
Indiana University-Purdue University-Indianapolis,"425 University Blvd,Indianapolis,IN,46202",39.7737388,-39.7737388,
Indiana University-South Bend,"1700 Mishawaka Ave,South Bend,IN,46634",41.6652955,-41.6652955,
Indiana University-Southeast,"4201 Grant Line Rd,New Albany,IN,47150",38.347053,-38.347053,
Indiana Wesleyan University-Marion,"4201 South Washington Street,Marion,IN,46953",40.5207334,-40.5207334,
Inter American University of Puerto Rico-San German,"Rd. 102 Km. 30.6,San German,PR,683",18.0807082,-18.0807082,
Iona College,"715 North Ave,New Rochelle,NY,10801",40.9271278,-40.9271278,
Iowa Central Community College,"One Triton Circle,Fort Dodge,IA,50501",42.4902957,-42.4902957,
Iowa Lakes Community College,"19 S 7th St,Estherville,IA,51334",43.4013635,-43.4013635,
Iowa State University,"1750 Beardshear Hall,Ames,IA,50011",42.0266573,-42.0266573,
Iowa Wesleyan University,"601 N Main Street,Mount Pleasant,IA,52641",40.9728375,-40.9728375,
Iowa Western Community College,"2700 College Rd,Council Bluffs,IA,51503",41.2725376,-41.2725376,
Irvine Valley College,"5500 Irvine Center Drive,Irvine,CA,92618",33.676084,-33.676084,
Itasca Community College,"1851 Hwy 169 East,Grand Rapids,MN,55744",47.2432395,-47.2432395,
Itawamba Community College,"602 W Hill Street,Fulton,MS,38843",34.2777922,-34.2777922,
Ithaca College,"953 Danby Road,Ithaca,NY,14850",42.4199351,-42.4199351,
Jackson College,"2111 Emmons Rd,Jackson,MI,49201",42.1652785,-42.1652785,
Jackson State Community College,"2046 North Pky,Jackson,TN,38301",35.645096,-35.645096,
Jackson State University,"1400 J R Lynch Street,Jackson,MS,39217",32.2979167,-32.2979167,
Jacksonville College-Main Campus,"105 B J Albritton Dr,Jacksonville,TX,75766",31.9649981,-31.9649981,
Jacksonville State University,"700 Pelham Road North,Jacksonville,AL,36265",33.8218096,-33.8218096,
Jacksonville University,"2800 University Blvd N,Jacksonville,FL,32211",30.3520387,-30.3520387,
James Madison University,"800 South Main Street,Harrisonburg,VA,22807",38.4400229,-38.4400229,
Jamestown Community College,"525 Falconer St,Jamestown,NY,14701",42.115959,-42.115959,
Jarvis Christian College,"PR 7631,Hwy 80 E,Hawkins,TX,75765",32.5891917,-32.5891917,
Jefferson College,"1000 Viking Drive,Hillsboro,MO,63050",38.2593094,-38.2593094,
Jefferson Community College,"1220 Coffeen St,Watertown,NY,13601",43.9924713,-43.9924713,
Jefferson State Community College,"2601 Carson Rd,Birmingham,AL,35215",33.6518095,-33.6518095,
John A Logan College,"700 Logan College Drive,Carterville,IL,62918",37.7460636,-37.7460636,
John Brown University,"2000 W University St,Siloam Springs,AR,72761",36.1890088,-36.1890088,
John C Calhoun State Community College,"6250 U S Highway 31 N,Tanner,AL,35671",34.6493007,-34.6493007,
John Carroll University,"1 John Carroll Boulevard,University Heights,OH,44118",41.4905071,-41.4905071,
John Wood Community College,"1301 S 48th Street,Quincy,IL,62305",39.912622,-39.912622,
Johns Hopkins University,"3400 N Charles St,Baltimore,MD,21218",39.3304957,-39.3304957,
Johnson & Wales University-Charlotte,"801 West Trade Street,Charlotte,NC,28202",35.2329541,-35.2329541,
Johnson & Wales University-Denver,"7150 Montview Blvd,Denver,CO,80220",39.7469815,-39.7469815,
Johnson & Wales University-North Miami,"1701 NE 127th St,North Miami,FL,33181",25.89405,-25.89405,
Johnson & Wales University-Providence,"8 Abbott Park Place,Providence,RI,2903",41.819957,-41.819957,
Johnson C Smith University,"100 Beatties Ford Road,Charlotte,NC,28216",35.243588,-35.243588,
Johnson County Community College,"12345 College Blvd,Overland Park,KS,66210",38.9237863,-38.9237863,
Johnson State College,"337 College Hill,Johnson,VT,5656",44.641575,-44.641575,
Johnson University,"7900 Johnson Dr,Knoxville,TN,37998",35.9386221,-35.9386221,
Johnson University Florida,"1011 Bill Beck Blvd,Kissimmee,FL,34744",28.301658,-28.301658,
Johnston Community College,"245 College Road,Smithfield,NC,27577",35.5019508,-35.5019508,
Joliet Junior College,"1215 Houbolt Rd,Joliet,IL,60431",41.5005349,-41.5005349,
Jones County Junior College,"900 South Court Street,Ellisville,MS,39437",31.5949078,-31.5949078,
Judson College,"302 Bibb St,Marion,AL,36756",32.6299197,-32.6299197,
Judson University,"1151 N State St,Elgin,IL,60123",42.0599279,-42.0599279,
Juniata College,"1700 Moore St,Huntingdon,PA,16652",40.4989319,-40.4989319,
Kalamazoo College,"1200 Academy St,Kalamazoo,MI,49006",42.2900676,-42.2900676,
Kalamazoo Valley Community College,"6767 West O Ave,Kalamazoo,MI,49003",42.2263148,-42.2263148,
Kankakee Community College,"100 College Drive,Kankakee,IL,60901",41.0985076,-41.0985076,
Kansas Christian College,"7401 Metcalf,Overland Park,KS,66204",38.9952185,-38.9952185,
Kansas City Kansas Community College,"7250 State Ave,Kansas City,KS,66112",39.1171336,-39.1171336,
Kansas State University,"919 Mid-Campus Drive, Anderson Hall,Manhattan,KS,66506",39.1886244,-39.1886244,
Kansas Wesleyan University,"100 E. Claflin Ave.,Salina,KS,67401",38.8134816,-38.8134816,
Kaskaskia College,"27210 College Rd,Centralia,IL,62801",38.5633556,-38.5633556,
Kean University,"1000 Morris Avenue,Union,NJ,7083",40.6764579,-40.6764579,
Keene State College,"229 Main Street,Keene,NH,3435",42.9255005,-42.9255005,
Keiser University-Ft Lauderdale,"1500 NW 49th St.,Fort Lauderdale,FL,33309",26.1859033,-26.1859033,
Kellogg Community College,"450 North Ave,Battle Creek,MI,49017",42.3348958,-42.3348958,
Kennesaw State University,"1000 Chastain Rd,Kennesaw,GA,30144",34.038296,-34.038296,
Kent State University at Kent,"Executive Office, 2nd Floor Library,Kent,OH,44242",41.1467499,-41.1467499,
Kent State University at Tuscarawas,"330 University Dr N.E.,New Philadelphia,OH,446639403",40.4677399,-40.4677399,
Kentucky Christian University,"100 Academic Pkwy,Grayson,KY,41143",38.3391318,-38.3391318,
Kentucky State University,"400 East Main Street,Frankfort,KY,40601",38.2011552,-38.2011552,
Kentucky Wesleyan College,"3000 Frederica Street,Owensboro,KY,42301",37.7435478,-37.7435478,
Kenyon College,"Kenyon College,Gambier,OH,43022",40.3718965,-40.3718965,
Keuka College,"141 Central Avenue,Keuka Park,NY,14478",42.6153271,-42.6153271,
Keystone College,"One College Green,La Plume,PA,18440",41.5590074,-41.5590074,
Kilgore College,"1100 Broadway,Kilgore,TX,75662",32.3773413,-32.3773413,
King University,"1350 King College Rd,Bristol,TN,37620",36.585985,-36.585985,
King's College,"133 N River St,Wilkes-Barre,PA,18711",41.2499979,-41.2499979,
Kirkwood Community College,"6301 Kirkwood Blvd SW,Cedar Rapids,IA,52406",41.9187029,-41.9187029,
Kirtland Community College,"4800 W. 4 Mile Rd,Grayling,MI,48738",44.6016664,-44.6016664,
Kishwaukee College,"21193 Malta Road,Malta,IL,60150",41.9384044,-41.9384044,
Knox College,"2 E South St,Galesburg,IL,61401",40.9434553,-40.9434553,
Kutztown University of Pennsylvania,"15200 Kutztown Rd,Kutztown,PA,19530",40.5080523,-40.5080523,
La Roche College,"9000 Babcock Blvd,Pittsburgh,PA,15237",40.5684407,-40.5684407,
La Salle University,"1900 W Olney Ave,Philadelphia,PA,19141",40.0377071,-40.0377071,
La Sierra University,"4500 Riverwalk Parkway,Riverside,CA,92505",33.9107229,-33.9107229,
Labette Community College,"200 S 14th,Parsons,KS,67357",37.3390987,-37.3390987,
Lackawanna College,"501 Vine St,Scranton,PA,18509",41.4115723,-41.4115723,
Lafayette College,"730 High St,Easton,PA,18042",40.7002085,-40.7002085,
LaGrange College,"601 Broad Street,Lagrange,GA,30240",33.038947,-33.038947,
Lake Erie College,"391 W Washington St,Painesville,OH,44077",41.716033,-41.716033,
Lake Forest College,"555 N Sheridan Road,Lake Forest,IL,600452338",42.2507024,-42.2507024,
Lake Land College,"5001 Lake Land Blvd,Mattoon,IL,61938",39.4168843,-39.4168843,
Lake Michigan College,"2755 East Napier Avenue,Benton Harbor,MI,49022",42.0955639,-42.0955639,
Lake Region State College,"1801 College Dr N,Devils Lake,ND,58301",48.1261678,-48.1261678,
Lake Superior College,"2101 Trinity Rd,Duluth,MN,55811",46.784743,-46.784743,
Lake Superior State University,"650 W Easterday Ave,Sault Ste Marie,MI,49783",46.4935563,-46.4935563,
Lake Tahoe Community College,"One College Drive,South Lake Tahoe,CA,96150",38.9269827,-38.9269827,
Lake-Sumter State College,"9501 US Hwy 441,Leesburg,FL,34788",28.9016582,-28.9016582,
Lakeland Community College,"7700 Clocktower Drive,Kirtland,OH,44094",41.639741,-41.639741,
Lakeland University,"W3718 South Drive,Plymouth,WI,53073",43.8407318,-43.8407318,
Lamar Community College,"2401 S Main St,Lamar,CO,81052",38.0674918,-38.0674918,
Lamar State College-Port Arthur,"1500 Proctor St,Port Arthur,TX,77641",29.8799965,-29.8799965,
Lamar University,"4400 MLK Blvd,Beaumont,TX,77705",30.0440162,-30.0440162,
Lancaster Bible College,"901 Eden Rd,Lancaster,PA,17601",40.0736288,-40.0736288,
Lander University,"320 Stanley Avenue,Greenwood,SC,29649",34.2008662,-34.2008662,
Lane College,"545 Lane Ave,Jackson,TN,38301",35.6277386,-35.6277386,
Lane Community College,"4000 E 30th Ave,Eugene,OR,97405",44.0118985,-44.0118985,
Laney College,"900 Fallon Sreet,Oakland,CA,94607",37.7945245,-37.7945245,
Langston University,"102 Page Hall,Langston,OK,73050",35.9459622,-35.9459622,
Lansing Community College,"419 N Capitol Ave,Lansing,MI,48901",42.7374805,-42.7374805,
Laramie County Community College,"1400 E College Dr,Cheyenne,WY,82007",41.1054751,-41.1054751,
Laredo Community College,"West End Washington St,Laredo,TX,78040",27.5087686,-27.5087686,
Las Positas College,"3000 Campus Hill Drive,Livermore,CA,94551",37.7108595,-37.7108595,
Lasell College,"1844 Commonwealth Avenue,Newton,MA,2466",42.343169,-42.343169,
Lassen Community College,"478-200 Hwy 139,Susanville,CA,96130",40.429826,-40.429826,
Lawrence Technological University,"21000 West Ten Mile Road,Southfield,MI,48075",42.4737249,-42.4737249,
Lawrence University,"College Ave,Appleton,WI,54911",44.258491,-44.258491,
Lawson State Community College-Birmingham Campus,"3060 Wilson Rd SW,Birmingham,AL,35221",33.4506233,-33.4506233,
Le Moyne College,"1419 Salt Springs Rd,Syracuse,NY,13214",43.0496767,-43.0496767,
Le Moyne-Owen College,"807 Walker Ave,Memphis,TN,38126",35.1180178,-35.1180178,
Lebanon Valley College,"101 N College Ave,Annville,PA,17003",40.3312446,-40.3312446,
Lee College,"511 S Whiting,Baytown,TX,77520",29.7306898,-29.7306898,
Lee University,"1120 N Ocoee St,Cleveland,TN,37311",35.1659969,-35.1659969,
Leech Lake Tribal College,"6945 Littlewolf Road NW,Cass Lake,MN,56633",47.395383,-47.395383,
Lees-McRae College,"191 Main Street,Banner Elk,NC,28604",36.162553,-36.162553,
Lehigh Carbon Community College,"4525 Education Park Dr,Schnecksville,PA,18078",40.6647699,-40.6647699,
Lehigh University,"27 Memorial Drive West,Bethlehem,PA,18015",40.6068348,-40.6068348,
Lenoir Community College,"231 Highway 58 South,Kinston,NC,28502",35.2338386,-35.2338386,
Lenoir-Rhyne University,"625 7th Avenue NE,Hickory,NC,28601",35.7414291,-35.7414291,
Lesley University,"29 Everett St,Cambridge,MA,2138",42.3800709,-42.3800709,
LeTourneau University,"2100 S Mobberly Ave,Longview,TX,75602",32.4669735,-32.4669735,
Lewis & Clark College,"0615 S W Palatine Hill Rd,Portland,OR,97219",45.4450779,-45.4450779,
Lewis and Clark Community College,"5800 Godfrey Rd,Godfrey,IL,62035",38.9518844,-38.9518844,
Lewis University,"One University Parkway,Romeoville,IL,60446",41.6050295,-41.6050295,
Lewis-Clark State College,"500 8th Ave,Lewiston,ID,83501",46.412247,-46.412247,
Liberty University,"1971 University Blvd,Lynchburg,VA,24515",37.3530503,-37.3530503,
Life Pacific College,"1100 W. Covina Blvd.,San Dimas,CA,91773",34.0987652,-34.0987652,
Life University,"1269 Barclay Circle,Marietta,GA,30060",33.93127,-33.93127,
Limestone College,"1115 College Drive,Gaffney,SC,29340",35.056615,-35.056615,
Lincoln Christian University,"100 Campus View Drive,Lincoln,IL,62656",40.1494576,-40.1494576,
Lincoln College,"300 Keokuk St,Lincoln,IL,62656",40.1569482,-40.1569482,
Lincoln Land Community College,"5250 Shepherd Rd,Springfield,IL,62794",39.7205657,-39.7205657,
Lincoln Memorial University,"6965 Cumberland Gap Pkwy,Harrogate,TN,37752",36.5773983,-36.5773983,
Lincoln Trail College,"11220 State Hwy 1,Robinson,IL,62454",39.0194015,-39.0194015,
Lincoln University,"820 Chestnut Street,Jefferson City,MO,65101",38.5638414,-38.5638414,
Lincoln University,"1570 Baltimore Pike,Lincoln University,PA,19352",39.8070754,-39.8070754,
Lindenwood University,"209 S Kingshighway,Saint Charles,MO,63301",38.7859784,-38.7859784,
Lindsey Wilson College,"210 Lindsey Wilson St,Columbia,KY,42728",37.1028076,-37.1028076,
Linfield College-McMinnville Campus,"900 SE Baker,McMinnville,OR,97128",45.2030604,-45.2030604,
Linn-Benton Community College,"6500 Pacific Blvd SW,Albany,OR,97321",44.5884944,-44.5884944,
Lipscomb University,"One University Park Drive,Nashville,TN,37204",36.105632,-36.105632,
Little Priest Tribal College,"610 E. College Drive,Winnebago,NE,68071",42.2351598,-42.2351598,
LIU Post,"720 Northern Blvd,Brookville,NY,11548",40.8174969,-40.8174969,
Livingstone College,"701 W Monroe St,Salisbury,NC,28144",35.6710363,-35.6710363,
Lock Haven University,"401 North Fairview Street,Lock Haven,PA,17745",41.1421859,-41.1421859,
Long Beach City College,"4901 E. Carson St.,Long Beach,CA,90808",33.8327926,-33.8327926,
Longwood University,"201 High St,Farmville,VA,23909",37.3011542,-37.3011542,
Lorain County Community College,"1005 North Abbe Rd,Elyria,OH,44035",41.4128041,-41.4128041,
Loras College,"1450 Alta Vista,Dubuque,IA,52004",42.5054189,-42.5054189,
Los Angeles Harbor College,"1111 Figueroa Place,Wilmington,CA,90744",33.7841,-33.7841,
Los Angeles Mission College,"13356 Eldridge Avenue,Sylmar,CA,91342",34.3151143,-34.3151143,
Los Angeles Pierce College,"6201 Winnetka Ave,Woodland Hills,CA,91371",34.1824071,-34.1824071,
Los Angeles Southwest College,"1600 W. Imperial Hwy.,Los Angeles,CA,90047",33.9288113,-33.9288113,
Los Angeles Trade Technical College,"400 W Washington Blvd,Los Angeles,CA,90015",34.0325515,-34.0325515,
Los Angeles Valley College,"5800 Fulton Avenue,Valley Glen,CA,91401",34.1753393,-34.1753393,
Los Medanos College,"2700 East Leland Road,Pittsburg,CA,94565",38.0053337,-38.0053337,
Louisburg College,"501 N. Main St.,Louisburg,NC,27549",36.0967977,-36.0967977,
Louisiana College,"1140 College Dr,Pineville,LA,71359",31.325387,-31.325387,
Louisiana State University and Agricultural & Mechanical College,"156 Thomas Boyd Hall,Baton Rouge,LA,70803",30.4150707,-30.4150707,
Louisiana State University-Alexandria,"8100 Hwy 71 South,Alexandria,LA,71302",31.178112,-31.178112,
Louisiana State University-Eunice,"2048 Johnson Hwy,Eunice,LA,70535",30.4746996,-30.4746996,
Louisiana State University-Shreveport,"1 University Place,Shreveport,LA,71115",32.4283894,-32.4283894,
Louisiana Tech University,"1310 West Railroad Avenue,Ruston,LA,71272",32.5281991,-32.5281991,
Lourdes University,"6832 Convent Blvd,Sylvania,OH,43560",41.7109153,-41.7109153,
Lower Columbia College,"1600 Maple Street,Longview,WA,98632",46.1435851,-46.1435851,
Loyola Marymount University,"One Lmu Drive,Los Angeles,CA,90045",33.9701634,-33.9701634,
Loyola University Chicago,"1032 W. Sheridan Rd,Chicago,IL,60660",41.9986438,-41.9986438,
Loyola University Maryland,"4501 N Charles St,Baltimore,MD,21210",39.3476737,-39.3476737,
Loyola University New Orleans,"6363 Saint Charles Ave,New Orleans,LA,70118",29.9353302,-29.9353302,
Lubbock Christian University,"5601 19th Street,Lubbock,TX,79407",33.5760419,-33.5760419,
Luna Community College,"336 Luna Drive,Las Vegas,NM,87701",35.6163988,-35.6163988,
Lurleen B Wallace Community College,"1000 Dannelly Blvd.,Andalusia,AL,36420",31.3222583,-31.3222583,
Luther College,"700 College Drive,Decorah,IA,52101",43.3133043,-43.3133043,
Luzerne County Community College,"1333 South Prospect Street,Nanticoke,PA,18634",41.1962017,-41.1962017,
Lycoming College,"One College Place,Williamsport,PA,17701",41.2446263,-41.2446263,
Lynn University,"3601 N. Military Trail,Boca Raton,FL,33431",26.3845609,-26.3845609,
Lyon College,"2300 Highland Road,Batesville,AR,72501",35.7792058,-35.7792058,
Macalester College,"1600 Grand Ave,Saint Paul,MN,55105",44.9379243,-44.9379243,
MacMurray College,"447 East College Ave,Jacksonville,IL,62650",39.731828,-39.731828,
Macomb Community College,"14500 E Twelve Mile Rd,Warren,MI,48088",42.5028411,-42.5028411,
Madison Area Technical College,"1701 Wright Street,Madison,WI,53704",43.1215712,-43.1215712,
Madonna University,"36600 Schoolcraft Rd,Livonia,MI,48150",42.3842285,-42.3842285,
Maine Maritime Academy,"1 Pleasant Street,Castine,ME,4420",44.3870428,-44.3870428,
Malone University,"2600 Cleveland Avenue NW,Canton,OH,44709",40.826423,-40.826423,
Manchester University,"604 E. College Ave,North Manchester,IN,46962",41.0126887,-41.0126887,
Manhattan Christian College,"1415 Anderson Ave,Manhattan,KS,66502",39.1860646,-39.1860646,
Manhattan College,"4513 Manhattan College Parkway,Riverdale,NY,10471",40.8897823,-40.8897823,
Manhattanville College,"2900 Purchase St,Purchase,NY,10577",41.0334555,-41.0334555,
Manor College,"700 Fox Chase Rd,Jenkintown,PA,19046",40.0871795,-40.0871795,
Mansfield University of Pennsylvania,"Academy Street,Mansfield,PA,16933",41.8105202,-41.8105202,
Maranatha Baptist University,"745 West Main Street,Watertown,WI,53094",43.194346,-43.194346,
Marian University,"3200 Cold Spring Rd,Indianapolis,IN,46222",39.8136086,-39.8136086,
Marian University,"45 S National Ave,Fond Du Lac,WI,54935",43.7778991,-43.7778991,
Marietta College,"Irvine Bldg,Marietta,OH,45750",39.4166304,-39.4166304,
Marion Military Institute,"1101 Washington St,Marion,AL,36756",32.623964,-32.623964,
Marist College,"3399 North Rd,Poughkeepsie,NY,12601",41.7216281,-41.7216281,
Marquette University,"1250 W Wisconsin Ave,Milwaukee,WI,53233",43.0389659,-43.0389659,
Mars Hill University,"100 Athletic St,Mars Hill,NC,28754",35.8274056,-35.8274056,
Marshall University,"1 John Marshall Dr,Huntington,WV,25755",38.4223904,-38.4223904,
Marshalltown Community College,"3700 S Center St,Marshalltown,IA,50158",42.0013493,-42.0013493,
Martin Luther College,"1995 Luther Ct,New Ulm,MN,56073",44.3045069,-44.3045069,
Martin Methodist College,"433 West Madison Street,Pulaski,TN,38478",35.2002256,-35.2002256,
Mary Baldwin University,"318 Prospect Street,Staunton,VA,24401",38.1538783,-38.1538783,
Marymount California University,"30800 Palos Verdes Drive East,Rancho Palos Verdes,CA,90275",33.7344926,-33.7344926,
Marymount University,"2807 N Glebe Rd,Arlington,VA,22207",38.9053535,-38.9053535,
Maryville College,"502 E Lamar Alexander Pky,Maryville,TN,37804",35.7539654,-35.7539654,
Maryville University of Saint Louis,"650 Maryville University Drive,Saint Louis,MO,63141",38.6468582,-38.6468582,
Marywood University,"2300 Adams Ave,Scranton,PA,18509",41.4337093,-41.4337093,
Massachusetts Bay Community College,"50 Oakland St,Wellesley Hills,MA,2481",42.3116026,-42.3116026,
Massachusetts College of Liberal Arts,"375 Church Street,North Adams,MA,1247",42.691554,-42.691554,
Massachusetts Institute of Technology,"77 Massachusetts Avenue,Cambridge,MA,2139",42.3592444,-42.3592444,
Massachusetts Maritime Academy,"101 Academy Drive,Buzzards Bay,MA,25321803",41.7408213,-41.7408213,
Massasoit Community College,"One Massasoit Boulevard,Brockton,MA,2302",42.0758677,-42.0758677,
Mayville State University,"330 Third Street NE,Mayville,ND,58257",47.505783,-47.505783,
McDaniel College,"2 College Hill,Westminster,MD,21157",39.5817181,-39.5817181,
McHenry County College,"8900 US Hwy 14,Crystal Lake,IL,60012",42.259164,-42.259164,
McKendree University,"701 College Rd,Lebanon,IL,62254",38.6076721,-38.6076721,
McLennan Community College,"1400 College Dr,Waco,TX,76708",31.5899707,-31.5899707,
McMurry University,"S 14th and Sayles Blvd,Abilene,TX,79697",32.4321567,-32.4321567,
McNeese State University,"4205 Ryan St,Lake Charles,LA,70605",30.1803625,-30.1803625,
McPherson College,"1600 E. Euclid,McPherson,KS,67460",38.3721279,-38.3721279,
Medaille College,"18 Agassiz Circle,Buffalo,NY,14214",42.9283234,-42.9283234,
Mendocino College,"1000 Hensley Creek Road,Ukiah,CA,95482",39.1886846,-39.1886846,
Menlo College,"1000 El Camino Real,Atherton,CA,94027",37.4562115,-37.4562115,
Merced College,"3600 M St,Merced,CA,95348",37.3336824,-37.3336824,
Mercer County Community College,"1200 Old Trenton Rd,West Windsor,NJ,8550",40.2546343,-40.2546343,
Mercer University,"1501 Mercer University Drive,Macon,GA,31207",32.8260317,-32.8260317,
Mercy College,"555 Broadway,Dobbs Ferry,NY,10522",41.0222142,-41.0222142,
Mercyhurst University,"501 E 38th St,Erie,PA,16546",42.1050202,-42.1050202,
Mercyhurst University-North East Campus,"16 W Division St,North East,PA,16428",42.2196529,-42.2196529,
Meridian Community College,"910 Hwy 19 N,Meridian,MS,39307",32.3657388,-32.3657388,
Merrimack College,"315 Turnpike St,North Andover,MA,1845",42.6714055,-42.6714055,
Merritt College,"12500 Campus Dr,Oakland,CA,94619",37.7933608,-37.7933608,
Mesa Community College,"1833 W Southern Ave,Mesa,AZ,85202",33.3916488,-33.3916488,
Mesabi Range College,"1001 Chestnut Street West,Virginia,MN,55792",47.5250385,-47.5250385,
Mesalands Community College,"911 S Tenth Street,Tucumcari,NM,88401",35.1609305,-35.1609305,
Messiah College,"One College Ave,Mechanicsburg,PA,17055",40.1579079,-40.1579079,
Methodist University,"5400 Ramsey St,Fayetteville,NC,28311",35.1296003,-35.1296003,
Metropolitan Community College-Kansas City,"3200 Broadway,Kansas City,MO,64111",39.068401,-39.068401,
Metropolitan State University of Denver,"Speer Blvd and Colfax Ave,Denver,CO,80217",39.7401554,-39.7401554,
Miami Dade College,"300 NE 2nd Avenue,Miami,FL,33132",25.7775568,-25.7775568,
Miami University-Oxford,"501 East High St,Oxford,OH,45056",39.5092997,-39.5092997,
Michigan State University,"426 Auditorium Road,East Lansing,MI,48824",42.7296495,-42.7296495,
Michigan Technological University,"1400 Townsend Drive,Houghton,MI,49931",47.115026,-47.115026,
Mid Michigan Community College,"1375 S Clare Ave,Harrison,MI,48625",43.9691945,-43.9691945,
Mid-America Christian University,"3500 SW 119th St,Oklahoma City,OK,73170",35.347349,-35.347349,
Mid-Atlantic Christian University,"715 N Poindexter St,Elizabeth City,NC,27909",36.3046,-36.3046,
Mid-Plains Community College,"1101 Halligan Drive,North Platte,NE,69101",41.1103171,-41.1103171,
MidAmerica Nazarene University,"2030 E College Way,Olathe,KS,66062",38.8730082,-38.8730082,
Middle Georgia State University,"100 University Parkway,Macon,GA,31206",32.808039,-32.808039,
Middle Tennessee State University,"1301 East Main Street,Murfreesboro,TN,37132",35.843624,-35.843624,
Middlebury College,"Old Chapel,Middlebury,VT,5753",44.0093156,-44.0093156,
Middlesex County College,"2600 Woodbridge Avenue,Edison,NJ,8818",40.5082704,-40.5082704,
Midland College,"3600 N Garfield,Midland,TX,79705",32.0298602,-32.0298602,
Midland University,"900 N. Clarkson,Fremont,NE,68025",41.437512,-41.437512,
Midway University,"512 E. Stephens St,Midway,KY,40347",38.1445932,-38.1445932,
Midwestern State University,"3410 Taft Blvd,Wichita Falls,TX,76308",33.871351,-33.871351,
Miles College,"5500 Myron Massey Blvd,Fairfield,AL,35064",33.4808313,-33.4808313,
Miles Community College,"2715 Dickinson Street,Miles City,MT,59301",46.4056589,-46.4056589,
Millersville University of Pennsylvania,"1 South George Street, Lyle Hall,Millersville,PA,17551",39.99705,-39.99705,
Milligan College,"1 Blowers Blvd.,Milligan College,TN,37682",36.3011675,-36.3011675,
Millikin University,"1184 W Main St,Decatur,IL,62522",39.8433566,-39.8433566,
Millsaps College,"1701 N State St,Jackson,MS,39210",32.3226511,-32.3226511,
Milwaukee Area Technical College,"700 W State St,Milwaukee,WI,53233",43.0433865,-43.0433865,
Milwaukee School of Engineering,"1025 N Broadway,Milwaukee,WI,53202",43.0440305,-43.0440305,
Mineral Area College,"5270 Flat River Road,Park Hills,MO,63601",37.844032,-37.844032,
Minnesota State Community and Technical College,"1414 College Way,Fergus Falls,MN,56537",46.2891665,-46.2891665,
Minnesota State University Moorhead,"1104 Seventh Avenue South,Moorhead,MN,56563",46.8671306,-46.8671306,
Minnesota State University-Mankato,"South Rd and Ellis Ave,Mankato,MN,56001",44.1462142,-44.1462142,
Minnesota West Community and Technical College,"1593 11th Ave,Granite Falls,MN,56241",44.8079963,-44.8079963,
Minot State University,"500 University Ave W,Minot,ND,58707",48.2465875,-48.2465875,
MiraCosta College,"One Barnard Drive,Oceanside,CA,92056",33.191206,-33.191206,
Misericordia University,"301 Lake St,Dallas,PA,18612",41.3443717,-41.3443717,
Mission College,"3000 Mission College Blvd,Santa Clara,CA,95054",37.3912164,-37.3912164,
Mississippi College,"200 South Capitol Street,Clinton,MS,39058",32.3359652,-32.3359652,
Mississippi Delta Community College,"Hwy 3 and Cherry St,Moorhead,MS,38761",33.4457044,-33.4457044,
Mississippi Gulf Coast Community College,"51 Main Street,Perkinston,MS,39573",30.780579,-30.780579,
Mississippi State University,"Lee Boulevard,Mississippi State,MS,39762",33.455202,-33.455202,
Mississippi University for Women,"1100 College Street,Columbus,MS,39701",33.491089,-33.491089,
Mississippi Valley State University,"14000 Highway 82 West,Itta Bena,MS,38941",33.5126982,-33.5126982,
Missouri Baptist University,"One College Park Dr,Saint Louis,MO,63141",38.6428107,-38.6428107,
Missouri Southern State University,"3950 E. Newman Road,Joplin,MO,64801",37.0972414,-37.0972414,
Missouri State University-Springfield,"901 S National Avenue,Springfield,MO,65897",37.200566,-37.200566,
Missouri State University-West Plains,"128 Garfield Avenue,West Plains,MO,65775",36.7292266,-36.7292266,
Missouri University of Science and Technology,"1201 N. State St.,Rolla,MO,65409",37.9534444,-37.9534444,
Missouri Valley College,"500 E College St,Marshall,MO,65340",39.108868,-39.108868,
Missouri Western State University,"4525 Downs Dr,Saint Joseph,MO,64507",39.7570008,-39.7570008,
Mitchell College,"437 Pequot Avenue,New London,CT,6320",41.3286576,-41.3286576,
Moberly Area Community College,"101 College Ave,Moberly,MO,65270",39.4179392,-39.4179392,
Modesto Junior College,"435 College Ave,Modesto,CA,95350",37.6511684,-37.6511684,
Mohawk Valley Community College,"1101 Sherman Dr,Utica,NY,13501",43.077007,-43.077007,
Molloy College,"1000 Hempstead Ave,Rockville Centre,NY,11571",40.6849156,-40.6849156,
Monmouth College,"700 E Broadway,Monmouth,IL,61462",40.912214,-40.912214,
Monmouth University,"400 Cedar Ave,West Long Branch,NJ,7764",40.2800543,-40.2800543,
Monroe College,"2501 Jerome Avenue,Bronx,NY,10468",40.8644448,-40.8644448,
Monroe Community College,"1000 E Henrietta Rd,Rochester,NY,14623",43.1046748,-43.1046748,
Montana State University,"PO BOX 172420,Bozeman,MT,597172420",45.6674,-111.0546,
Montana State University-Billings,"1500 University Drive,Billings,MT,59101",45.7966938,-45.7966938,
Montana State University-Northern,"300 W 11th St,Havre,MT,59501",48.5411668,-48.5411668,
Montana Tech of the University of Montana,"1300 W Park St,Butte,MT,59701",46.0128511,-46.0128511,
Montclair State University,"1 Normal Avenue,Montclair,NJ,7043",40.8647437,-40.8647437,
Monterey Peninsula College,"980 Fremont St,Monterey,CA,93940",36.5893339,-36.5893339,
Montgomery College,"9221 Corporate Blvd,Rockville,MD,20850",39.1092607,-39.1092607,
Montgomery County Community College,"340 Dekalb Pike,Blue Bell,PA,19422",40.1767143,-40.1767143,
Montreat College,"PO Box 1267,Montreat,NC,28757",35.64959,-35.64959,
Moody Bible Institute,"820 N LaSalle Blvd,Chicago,IL,60610",41.8973002,-41.8973002,
Moorpark College,"7075 Campus Rd,Moorpark,CA,93021",34.2996142,-34.2996142,
Moraine Valley Community College,"9000 W. College Parkway,Palos Hills,IL,60465",41.6914849,-41.6914849,
Moravian College,"1200 Main St,Bethlehem,PA,18018",40.6310594,-40.6310594,
Morehead State University,"University Blvd,Morehead,KY,40351",38.1883028,-38.1883028,
Morgan State University,"1700 East Cold Spring Lane,Baltimore,MD,21251",39.3442922,-39.3442922,
Morningside College,"1501 Morningside Ave,Sioux City,IA,51106",42.4746152,-42.4746152,
Morris College,"100 West College Street,Sumter,SC,29150",33.9380183,-33.9380183,
Morrisville State College,"80 Eaton Street,Morrisville,NY,13408",42.8944699,-42.8944699,
Morton College,"3801 South Central Avenue,Cicero,IL,60804",41.8242401,-41.8242401,
Motlow State Community College,"6015 Ledford Mill Road,Tullahoma,TN,37388",35.3664331,-35.3664331,
Mott Community College,"1401 E Court St,Flint,MI,48503",43.0205111,-43.0205111,
Mount Aloysius College,"7373 Admiral Peary Hwy,Cresson,PA,16630",40.4605496,-40.4605496,
Mount Marty College,"1105 W. 8th Street,Yankton,SD,57078",42.8741668,-42.8741668,
Mount Mercy University,"1330 Elmhurst Dr NE,Cedar Rapids,IA,52402",42.0025313,-42.0025313,
Mount Saint Joseph University,"5701 Delhi Rd,Cincinnati,OH,45233",39.0930874,-39.0930874,
Mount Saint Mary College,"330 Powell Avenue,Newburgh,NY,12550",41.5108609,-41.5108609,
Mount St. Mary's University,"16300 Old Emmitsburg Road,Emmitsburg,MD,21727",39.683818,-39.683818,
Mount Vernon Nazarene University,"800 Martinsburg Rd,Mount Vernon,OH,43050",40.372867,-40.372867,
Mountain View College,"4849 West Illinois Ave.,Dallas,TX,75211",32.7269983,-32.7269983,
Mt Hood Community College,"26000 SE Stark St,Gresham,OR,97030",45.516477,-45.516477,
Mt San Antonio College,"1100 N Grand Ave,Walnut,CA,91789",34.0482035,-34.0482035,
Mt San Jacinto Community College District,"1499 N. State St.,San Jacinto,CA,92583",33.8066222,-33.8066222,
Muhlenberg College,"2400 Chew Street,Allentown,PA,18104",40.5955704,-40.5955704,
Multnomah University,"8435 NE Glisan St,Portland,OR,97220",45.5268724,-45.5268724,
Murray State College,"One Murray Campus,Tishomingo,OK,73460",34.2242914,-34.2242914,
Murray State University,"218 Wells Hall,Murray,KY,42071",36.6163842,-36.6163842,
Muskegon Community College,"221 S Quarterline Rd,Muskegon,MI,49442",43.2479391,-43.2479391,
Muskingum University,"163 Stormont Street,New Concord,OH,43762",39.9973291,-39.9973291,
Napa Valley College,"2277 Napa-Vallejo Hwy,Napa,CA,94558",38.2743057,-38.2743057,
Nassau Community College,"One Education Dr,Garden City,NY,11530",40.7290406,-40.7290406,
Navajo Technical University,"PO Box 849,Crownpoint,NM,87313",35.6874308,-35.6874308,
Navarro College,"3200 W 7th Avenue,Corsicana,TX,75110",32.0761398,-32.0761398,
Nazareth College,"4245 East Ave,Rochester,NY,14618",43.101447,-43.101447,
Nebraska Christian College of Hope International University,"12550 S. 114th St.,Papillion,NE,68046",41.121667,-41.121667,
Nebraska College of Technical Agriculture,"404 East 7th,Curtis,NE,69025",40.6354483,-40.6354483,
Nebraska Wesleyan University,"5000 St Paul Ave,Lincoln,NE,68504",40.8387836,-40.8387836,
Neosho County Community College,"800 W 14th St,Chanute,KS,66720",37.6674718,-37.6674718,
Neumann University,"One Neumann Drive,Aston,PA,19014",39.8753225,-39.8753225,
New England College,"98 Bridge St,Henniker,NH,3242",43.1798819,-43.1798819,
New Hope Christian College-Eugene,"2155 Bailey Hill Rd,Eugene,OR,97405",44.0329569,-44.0329569,
New Jersey City University,"2039 Kennedy Blvd,Jersey City,NJ,7305",40.709662,-40.709662,
New Jersey Institute of Technology,"University Heights,Newark,NJ,7102",40.7350747,-40.7350747,
New Mexico Highlands University,"University Ave,Las Vegas,NM,87701",35.5949351,-35.5949351,
New Mexico Junior College,"5317 Lovington Hwy,Hobbs,NM,88240",32.7578125,-32.7578125,
New Mexico Military Institute,"101 W.  College Blvd.,Roswell,NM,88201",33.409521,-33.409521,
New Mexico State University-Main Campus,"2850 Weddell Street,Las Cruces,NM,88003",32.2824831,-32.2824831,
New York Institute of Technology,"Northern Blvd,Old Westbury,NY,11568",40.8143914,-40.8143914,
New York University,"70 Washington Sq South,New York,NY,10012",40.7294556,-40.7294556,
Newberry College,"2100 College St,Newberry,SC,29108",34.2857182,-34.2857182,
Newman University,"3100 McCormick Ave,Wichita,KS,67213",37.6735241,-37.6735241,
NHTI-Concord's Community College,"31 College Drive,Concord,NH,3301",43.2226424,-43.2226424,
Niagara County Community College,"3111 Saunders Settlement Rd,Sanborn,NY,14132",43.1463793,-43.1463793,
Niagara University,"Lewiston Road,Niagara University,NY,14109",43.1369816,-43.1369816,
Nicholls State University,"University Station  La Hwy 1,Thibodaux,LA,70301",29.7907128,-29.7907128,
Nichols College,"Center Rd,Dudley,MA,1571",42.0381398,-42.0381398,
Norco College,"2001 Third St,Norco,CA,92860",33.916817,-33.916817,
Norfolk State University,"700 Park Avenue,Norfolk,VA,23504",36.8480161,-36.8480161,
North Arkansas College,"1515 Pioneer Drive,Harrison,AR,72601",36.2211118,-36.2211118,
North Carolina A & T State University,"1601 E Market  St,Greensboro,NC,27411",36.0723647,-36.0723647,
North Carolina Central University,"1801 Fayetteville Street,Durham,NC,27707",35.9747369,-35.9747369,
North Carolina State University at Raleigh,"2101 Hillsborough Street,Raleigh,NC,27695",35.7863971,-35.7863971,
North Carolina Wesleyan College,"3400 N Wesleyan Blvd,Rocky Mount,NC,27804",36.018937,-36.018937,
North Central College,"30 North Brainard St,Naperville,IL,60540",41.7757515,-41.7757515,
North Central Missouri College,"1301 Main St,Trenton,MO,64683",40.078383,-40.078383,
North Central Texas College,"1525 W California Street,Gainesville,TX,76240",33.6187918,-33.6187918,
North Central University,"910 Elliot Ave,Minneapolis,MN,55404",44.9690031,-44.9690031,
North Country Community College,"23 Santanoni Avenue,Saranac Lake,NY,12983",44.3186802,-44.3186802,
North Dakota State College of Science,"800 N 6th St,Wahpeton,ND,58076",46.2715363,-46.2715363,
North Dakota State University-Main Campus,"1301  12th Avenue North,Fargo,ND,58108",46.8903848,-46.8903848,
North Greenville University,"7801 N. Tigerville Road,Tigerville,SC,29688",35.0688319,-35.0688319,
North Idaho College,"1000 West Garden Avenue,Coeur d'Alene,ID,83814",47.6765034,-47.6765034,
North Iowa Area Community College,"500 College Dr,Mason City,IA,50401",43.1567371,-43.1567371,
North Lake College,"5001 North MacArthur Blvd.,Irving,TX,75038",32.8752069,-32.8752069,
North Park University,"3225 W Foster Ave,Chicago,IL,60625",41.975649,-41.975649,
Northampton County Area Community College,"3835 Green Pond Rd,Bethlehem,PA,18020",40.6730296,-40.6730296,
Northeast Alabama Community College,"138 AL Highway 35 W,Rainsville,AL,35986",34.5448368,-34.5448368,
Northeast Community College,"801 E Benjamin,Norfolk,NE,68702",42.0495426,-42.0495426,
Northeast Mississippi Community College,"101 Cunningham Blvd,Booneville,MS,38829",34.6675368,-34.6675368,
Northeast Texas Community College,"2886 FM 1735,Mount Pleasant,TX,75455",33.1039783,-33.1039783,
Northeastern Junior College,"100 College Avenue,Sterling,CO,80751",40.6345731,-40.6345731,
Northeastern Oklahoma A&M College,"200 I St NE,Miami,OK,74354",36.8795784,-36.8795784,
Northeastern State University,"600 N Grand,Tahlequah,OK,74464",35.920645,-35.920645,
Northeastern University,"360 Huntington Ave,Boston,MA,2115",42.3403745,-42.3403745,
Northern Arizona University,"1900 S. Knoles Dr., Babbitt Administrative Center, Room 200,Flagstaff,AZ,86011",35.1804402,-35.1804402,
Northern Essex Community College,"100 Elliott Street,Haverhill,MA,1830",42.7958343,-42.7958343,
Northern Illinois University,"1425 W. Lincoln Hwy.,Dekalb,IL,60115",41.9339755,-41.9339755,
Northern Kentucky University,"Nunn Drive,Highland Heights,KY,41099",39.0334704,-39.0334704,
Northern Michigan University,"1401 Presque Isle Avenue,Marquette,MI,49855",46.5573421,-46.5573421,
Northern New Mexico College,"921 Paseo de Onate,Espanola,NM,87532",36.0037499,-36.0037499,
Northern Oklahoma College,"1220 E Grand Ave,Tonkawa,OK,74653",36.678641,-36.678641,
Northern State University,"1200 S Jay St,Aberdeen,SD,57401",45.4527992,-45.4527992,
Northern Virginia Community College,"4001 Wakefield Chapel Rd,Annandale,VA,22003",38.8363305,-38.8363305,
Northland College,"1411 Ellis Avenue,Ashland,WI,54806",46.5802698,-46.5802698,
Northland Community and Technical College,"1101 Hwy One East,Thief River Falls,MN,56701",48.1252563,-48.1252563,
Northwest Christian University,"828 E. 11th Ave.,Eugene,OR,97401",44.047441,-44.047441,
Northwest College,"231 W 6th St,Powell,WY,82435",44.7592091,-44.7592091,
Northwest Florida State College,"100 College Boulevard,Niceville,FL,32578",30.5348147,-30.5348147,
Northwest Indian College,"2522 Kwina Rd,Bellingham,WA,98226",48.79461,-48.79461,
Northwest Kansas Technical College,"1209 Harrison St,Goodland,KS,67735",39.346341,-39.346341,
Northwest Mississippi Community College,"4975 Hwy 51 N,Senatobia,MS,38668",34.625492,-34.625492,
Northwest Missouri State University,"800 University Drive,Maryville,MO,64468",40.3563259,-40.3563259,
Northwest Nazarene University,"623 S. University Blvd.,Nampa,ID,83686",43.5631616,-43.5631616,
Northwest University,"P.O. Box 579,Kirkland,WA,98083",47.7933719,-47.7933719,
Northwestern College,"101 Seventh St SW,Orange City,IA,51041",42.9962057,-42.9962057,
Northwestern Oklahoma State University,"709 Oklahoma Blvd,Alva,OK,73717",36.7967815,-36.7967815,
Northwestern State University of Louisiana,"175 Sam Sibley Drive,Natchitoches,LA,71497",31.75041,-31.75041,
Northwestern University,"633 Clark St,Evanston,IL,60208",42.0506265,-42.0506265,
Northwood University,"4000 Whiting Dr,Midland,MI,48640",43.6298818,-43.6298818,
Norwich University,"158 Harmon Drive,Northfield,VT,5663",44.1383439,-44.1383439,
Notre Dame College,"4545 College Rd,Cleveland,OH,44121",41.5075825,-41.5075825,
Notre Dame de Namur University,"1500 Ralston Ave,Belmont,CA,94002",37.5173394,-37.5173394,
Notre Dame of Maryland University,"4701 N Charles St,Baltimore,MD,21210",39.3519363,-39.3519363,
Nova Southeastern University,"3301 College Ave,Fort Lauderdale,FL,33314",26.0788141,-26.0788141,
Nunez Community College,"3710 Paris Road,United States,LA,70043",29.955098,-29.955098,
Nyack College,"1 South Blvd,Nyack,NY,10960",41.0863519,-41.0863519,
Oak Hills Christian College,"1600 Oak Hills Rd SW,Bemidji,MN,56601",47.4241899,-47.4241899,
Oakland City University,"138 N Lucretia St,Oakland City,IN,47660",38.3395434,-38.3395434,
Oakland Community College,"2480 Opdyke Rd,Bloomfield Hills,MI,48304",42.5954493,-42.5954493,
Oakland University,"201 Meadow Brook Rd,Rochester,MI,483094451",42.671408,-42.671408,
Oakton Community College,"1600 E Golf Rd.,Des Plaines,IL,60016",42.0545834,-42.0545834,
Oakwood University,"7000 Adventist Blvd NW,Huntsville,AL,35896",34.7529622,-34.7529622,
Oberlin College,"173 West Lorain Street,Oberlin,OH,44074",41.2935549,-41.2935549,
Occidental College,"1600 Campus Rd,Los Angeles,CA,90041",34.1273185,-34.1273185,
Ocean County College,"College Drive,Toms River,NJ,8754",40.0070826,-40.0070826,
Odessa College,"201 W University Blvd,Odessa,TX,79764",31.8676128,-31.8676128,
Oglala Lakota College,"490 Piya Wiconi Road,Kyle,SD,57752",43.4239256,-43.4239256,
Oglethorpe University,"4484 Peachtree Road, NE,Atlanta,GA,30319",33.8761916,-33.8761916,
Ohio Christian University,"1476 Lancaster Pike,Circleville,OH,43113",39.6118969,-39.6118969,
Ohio Dominican University,"1216 Sunbury Road,Columbus,OH,43219",39.9920005,-39.9920005,
Ohio Northern University,"525 S. Main St,Ada,OH,45810",40.7655097,-40.7655097,
Ohio State University-Main Campus,"190 N. Oval Mall,Columbus,OH,43210",40.0007775,-40.0007775,
Ohio University-Main Campus,"020 Chubb Hall,Athens,OH,45701",39.3267795,-39.3267795,
Ohio Valley University,"1 Campus View Drive,Vienna,WV,26105",39.3071375,-39.3071375,
Ohio Wesleyan University,"61 S Sandusky Street,Delaware,OH,43015",40.2934076,-40.2934076,
Ohlone College,"43600 Mission Blvd,Fremont,CA,94539",37.5316572,-37.5316572,
Oklahoma Baptist University,"500 W University,Shawnee,OK,74804",35.3604545,-35.3604545,
Oklahoma Christian University,"2501 E Memorial Rd,Edmond,OK,73013",35.6127474,-35.6127474,
Oklahoma City University,"2501 N Blackwelder,Oklahoma City,OK,73106",35.495481,-35.495481,
Oklahoma Panhandle State University,"323 Eagle Ave,Goodwell,OK,73939",36.595016,-36.595016,
Oklahoma State University-Main Campus,"107 Whitehurst,Stillwater,OK,74078",36.1219844,-36.1219844,
Oklahoma Wesleyan University,"2201 Silver Lake Rd,Bartlesville,OK,74006",36.7181532,-36.7181532,
Old Dominion University,"5115 Hampton Blvd,Norfolk,VA,23529",36.8839664,-36.8839664,
Olivet College,"320 South Main Street,Olivet,MI,49076",42.4433728,-42.4433728,
Olivet Nazarene University,"One University Avenue,Bourbonnais,IL,60914",41.1549071,-41.1549071,
Olney Central College,"305 N West Street,Olney,IL,62450",38.7361594,-38.7361594,
Olympic College,"1600 Chester Ave,Bremerton,WA,98337",47.575258,-47.575258,
Onondaga Community College,"4585 West Seneca Turnpike,Syracuse,NY,13215",43.0040883,-43.0040883,
Oral Roberts University,"7777 S Lewis Ave.,Tulsa,OK,74171",36.0480386,-36.0480386,
Orange Coast College,"2701 Fairview Road,Costa Mesa,CA,92626",33.6711258,-33.6711258,
Orange County Community College,"115 South St,Middletown,NY,10940",41.4386164,-41.4386164,
Oregon Institute of Technology,"3201 Campus Drive,Klamath Falls,OR,97601",42.2539585,-42.2539585,
Oregon State University,"1500 SW Jefferson Avenue,Corvallis,OR,97331",44.5639127,-44.5639127,
Otero Junior College,"1802 Colorado Ave,La Junta,CO,81050",37.968363,-37.968363,
Ottawa University-Ottawa,"1001 South Cedar,Ottawa,KS,66067",38.6029423,-38.6029423,
Ottawa University-Surprise,"15950 N. Civic Center Plaza,Surprise,AZ,85374",33.6288291,-33.6288291,
Otterbein University,"1 South Grove Street,Westerville,OH,43081",40.1253397,-40.1253397,
Ouachita Baptist University,"410 Ouachita St,Arkadelphia,AR,71998",34.124339,-34.124339,
Our Lady of the Lake University,"411 SW 24th St.,San Antonio,TX,78207",29.4269288,-29.4269288,
Owens Community College,"30335 Oregon Rd,Perrysburg,OH,43551",41.587956,-41.587956,
Oxnard College,"4000 S Rose Ave,Oxnard,CA,93033",34.1651566,-34.1651566,
Ozark Christian College,"1111 N Main St,Joplin,MO,64801",37.1033135,-37.1033135,
Pace University-New York,"1 Pace Plaza,New York,NY,10038",40.710974,-40.710974,
Pacific Lutheran University,"12180 Park Ave South,Tacoma,WA,98447",47.1451931,-47.1451931,
Pacific Union College,"One Angwin Ave,Angwin,CA,94508",38.5698777,-38.5698777,
Pacific University,"2043 College Way,Forest Grove,OR,97116",45.5209573,-45.5209573,
Paine College,"1235 15th Street,Augusta,GA,30901",33.4682106,-33.4682106,
Palm Beach Atlantic University,"901 S. Flagler Drive,West Palm Beach,FL,33401",26.7047472,-26.7047472,
Palm Beach State College,"4200 Congress Ave,Lake Worth,FL,33461",26.6119841,-26.6119841,
Palomar College,"1140 W. Mission,San Marcos,CA,92069",33.1512336,-33.1512336,
Panola College,"1109 W Panola Street,Carthage,TX,75633",32.1568728,-32.1568728,
Paradise Valley Community College,"18401 N 32nd St,Phoenix,AZ,85032",33.6515443,-33.6515443,
Paris Junior College,"2400 Clarksville St,Paris,TX,75460",33.6486992,-33.6486992,
Park University,"8700 NW River Park Dr,Parkville,MO,64152",39.1895409,-39.1895409,
Parkland College,"2400 W Bradley Ave,Champaign,IL,61821",40.1327671,-40.1327671,
Pasadena City College,"1570 E Colorado Blvd.,Pasadena,CA,91106",34.1440134,-34.1440134,
Pasco-Hernando State College,"10230 Ridge Road,New Port Richey,FL,34654",28.275714,-28.275714,
Passaic County Community College,"One College Blvd,Paterson,NJ,75051179",40.9184697,-40.9184697,
Patrick Henry Community College,"645 Patriot Avenue,Martinsville,VA,24112",36.7405668,-36.7405668,
Paul D Camp Community College,"100 N College Dr,Franklin,VA,23851",36.6744182,-36.6744182,
Paul Quinn College,"3837 Simpson Stuart Rd,Dallas,TX,75241",32.6789702,-32.6789702,
Paul Smiths College of Arts and Science,"7777 State Route 30,Paul Smiths,NY,12970",44.4393179,-44.4393179,
Pearl River Community College,"101 Hwy 11 North,Poplarville,MS,39470",30.8443542,-30.8443542,
Peninsula College,"1502 E Lauridsen Blvd,Port Angeles,WA,98362",48.1018573,-48.1018573,
Pennsylvania College of Technology,"One College Ave,Williamsport,PA,17701",41.234716,-41.234716,
Pennsylvania Highlands Community College,"101 Community College Way,Johnstown,PA,15904",40.2641463,-40.2641463,
Pennsylvania State University-Main Campus,"201 Old Main,University Park,PA,16802",40.7964727,-40.7964727,
Pennsylvania State University-Penn State Abington,"1600 Woodland Road,Abington,PA,19001",40.1152666,-40.1152666,
Pennsylvania State University-Penn State Altoona,"3000 Ivyside Park,Altoona,PA,16601",40.5418014,-40.5418014,
Pennsylvania State University-Penn State Beaver,"100 University Drive,Monaca,PA,15061",40.6781827,-40.6781827,
Pennsylvania State University-Penn State Berks,"P.O. Box 7009,Reading,PA,196106009",40.358819,-40.358819,
Pennsylvania State University-Penn State Brandywine,"25 Yearsley Mill Road,Media,PA,19063",39.9271084,-39.9271084,
Pennsylvania State University-Penn State DuBois,"1 College Place,DuBois,PA,15801",41.126886,-41.126886,
Pennsylvania State University-Penn State Erie-Behrend College,"5103 Station Road,Erie,PA,16563",42.123143,-42.123143,
Pennsylvania State University-Penn State Fayette- Eberly,"2201 University Drive,Lemont Furnace,PA,15456",39.9464376,-39.9464376,
Pennsylvania State University-Penn State Greater Allegheny,"4000 University Drive,McKeesport,PA,15132",40.3448411,-40.3448411,
Pennsylvania State University-Penn State Harrisburg,"777 West Harrisburg Pike,Middletown,PA,17057",40.1971999,-40.1971999,
Pennsylvania State University-Penn State Hazleton,"76 University Drive,Hazleton,PA,18202",40.9837226,-40.9837226,
Pennsylvania State University-Penn State Lehigh Valley,"2809 Saucon Valley Road,Center Valley,PA,18034",40.5591506,-40.5591506,
Pennsylvania State University-Penn State Mont Alto,"1 Campus Drive,Mont Alto,PA,17237",39.8407473,-39.8407473,
Pennsylvania State University-Penn State New Kensington,"3550 Seventh Street Road, Route 780,New Kensington,PA,15068",40.5502322,-40.5502322,
Pennsylvania State University-Penn State Schuylkill,"200 University Drive,Schuylkill Haven,PA,17972",40.6393157,-40.6393157,
Pennsylvania State University-Penn State Shenango,"147 Shenango Avenue,Sharon,PA,161461537",41.2352108,-41.2352108,
Pennsylvania State University-Penn State Wilkes-Barre,"44 University Drive,Dallas,PA,18612",41.3066138,-41.3066138,
Pennsylvania State University-Penn State Worthington Scranton,"120 Ridge View Drive,Dunmore,PA,18512",41.4401197,-41.4401197,
Pennsylvania State University-Penn State York,"1031 Edgecomb Avenue,York,PA,17403",39.9510771,-39.9510771,
Pensacola State College,"1000 College Blvd,Pensacola,FL,32504",30.4783322,-30.4783322,
Pepperdine University,"24255 Pacific Coast Hwy,Malibu,CA,90263",34.0390661,-34.0390661,
Peru State College,"600 Hoyt Street,Peru,NE,68421",40.475025,-40.475025,
Pfeiffer University,"48380 US Hwy 52N,Misenheimer,NC,28109",35.4842942,-35.4842942,
Philander Smith College,"900 W. Daisy Bates Drive,Little Rock,AR,72202",34.7380987,-34.7380987,
Phoenix College,"1202 W Thomas Rd,Phoenix,AZ,85013",33.4814939,-33.4814939,
Piedmont College,"1021 Central Ave,Demorest,GA,30535",34.5662172,-34.5662172,
Piedmont International University,"420 S. Broad St.,Winston-Salem,NC,27101",36.0878249,-36.0878249,
Pierce College-Fort Steilacoom,"9401 Farwest Dr SW,Lakewood,WA,98498",47.1714295,-47.1714295,
Pima Community College,"4905C East  Broadway Blvd.,Tucson,AZ,857091275",32.2221098,-32.2221098,
Pine Manor College,"400 Heath St,Chestnut Hill,MA,2467",42.3207628,-42.3207628,
Pitt Community College,"1986 Pitt Tech Road,Winterville,NC,28590",35.5495861,-35.5495861,
Pittsburg State University,"1701 S Broadway,Pittsburg,KS,66762",37.3913218,-37.3913218,
Plymouth State University,"17 High Street,Plymouth,NH,3264",43.759527,-43.759527,
Point Loma Nazarene University,"3900 Lomaland Dr,San Diego,CA,92106",32.7183123,-32.7183123,
Point Park University,"201 Wood St,Pittsburgh,PA,15222",40.4383106,-40.4383106,
Point University,"507 West 10th Street,West Point,GA,31833",32.8791226,-32.8791226,
Polk State College,"999 Avenue H NE,Winter Haven,FL,33881",28.0324218,-28.0324218,
Pomona College,"550 N College Ave,Claremont,CA,91711",34.099078,-34.099078,
Pontifical Catholic University of Puerto Rico-Ponce,"2250 Boulevard Luis A. Ferre Aguayo Suite 608,Ponce,PR,717",18.0033854,-18.0033854,
Porterville College,"100 E College Ave,Porterville,CA,93257",36.0489004,-36.0489004,
Portland Community College,"12000 SW 49th Avenue,Portland,OR,97219",45.4380653,-45.4380653,
Portland State University,"724 SW Harrison,Portland,OR,97201",45.5111227,-45.5111227,
Post University,"800 Country Club Rd,Waterbury,CT,6708",41.535424,-41.535424,
Potomac State College of West Virginia University,"101 Fort Ave,Keyser,WV,26726",39.4386592,-39.4386592,
Prairie State College,"202 South Halsted Street,Chicago Heights,IL,60411",41.5255653,-41.5255653,
Prairie View A & M University,"FM 1098 Road & University Drive,Prairie View,TX,77446",30.0879218,-30.0879218,
Pratt Community College,"348 NE SR 61,Pratt,KS,67124",37.6557822,-37.6557822,
Pratt Institute-Main,"200 Willoughby Ave,Brooklyn,NY,11205",40.6914694,-40.6914694,
Presbyterian College,"503 South Broad Street,Clinton,SC,29325",34.4669734,-34.4669734,
Prescott College,"220 Grove Ave,Prescott,AZ,86301",34.5448304,-34.5448304,
Presentation College,"1500 N Main,Aberdeen,SD,57401",45.4839399,-45.4839399,
Prince George's Community College,"301 Largo Rd,Largo,MD,20774",38.8867498,-38.8867498,
Princeton University,"1 Nassau Hall,Princeton,NJ,8544",40.3486278,-40.3486278,
Providence Christian College,"464 E. Walnut St.,Pasadena,CA,91101",34.1493046,-34.1493046,
Providence College,"1 Cunningham Square,Providence,RI,2918",41.8441035,-41.8441035,
Purdue University Northwest,"2200 169th Street,Hammond,IN,46323",41.5879387,-41.5879387,
Purdue University-Main Campus,"Hovde Hall of Administration,West Lafayette,IN,47907",40.4282112,-40.4282112,
Queens University of Charlotte,"1900 Selwyn Ave,Charlotte,NC,28274",35.1887678,-35.1887678,
Quincy College,"1250 Hancock Street,Quincy,MA,2169",42.2519026,-42.2519026,
Quincy University,"1800 College Ave,Quincy,IL,62301",39.9405616,-39.9405616,
Quinnipiac University,"Mt Carmel Ave,Hamden,CT,6518",41.4239112,-41.4239112,
Quinsigamond Community College,"670 West Boylston Street,Worcester,MA,1606",42.3146459,-42.3146459,
Radford University,"801 East Main St.,Radford,VA,24142",37.1398766,-37.1398766,
Rainy River Community College,"1501 Hwy 71,International Falls,MN,56649",49.1280704,-49.1280704,
Ramapo College of New Jersey,"505 Ramapo Valley Rd,Mahwah,NJ,7430",41.081602,-41.081602,
Randall University,"3701 S I-35 Service Road,Moore,OK,73160",35.300747,-35.300747,
Randolph College,"2500 Rivermont Ave,Lynchburg,VA,24503",37.4382161,-37.4382161,
Randolph-Macon College,"204 Henry St,Ashland,VA,23005",37.7607275,-37.7607275,
Ranger College,"1100 College Circle,Ranger,TX,76470",32.4585435,-32.4585435,
Raritan Valley Community College,"118 Lamington Road,Branchburg,NJ,8876",40.61085,-40.61085,
Redlands Community College,"1300 S Country Club Rd,El Reno,OK,730365304",35.518597,-35.518597,
Reedley College,"995 N Reed Ave,Reedley,CA,93654",36.6053908,-36.6053908,
Regent University,"1000 Regent University Dr,Virginia Beach,VA,23464",36.8009596,-36.8009596,
Regis College,"235 Wellesley St,Weston,MA,2493",42.3502881,-42.3502881,
Regis University,"3333 Regis Blvd,Denver,CO,80221",39.7881508,-39.7881508,
Reinhardt University,"7300 Reinhardt Circle,Waleska,GA,30183",34.317812,-34.317812,
Rend Lake College,"468 N Ken Gray Pkwy,Ina,IL,62846",38.1305373,-38.1305373,
Rensselaer Polytechnic Institute,"110 8th St,Troy,NY,12180",42.729185,-42.729185,
Rhode Island College,"600 Mount Pleasant Ave,Providence,RI,2908",41.8446451,-41.8446451,
Rhodes College,"2000 North Parkway,Memphis,TN,38112",35.1528744,-35.1528744,
Rice University,"6100 S Main St,Houston,TX,77005",29.69102,-29.69102,
Richard Bland College of William and Mary,"11301 Johnson Rd.,South Prince George,VA,23805",37.1557326,-37.1557326,
Richland College,"12800 Abrams Rd.,Dallas,TX,75243",32.9198714,-32.9198714,
Rider University,"2083 Lawrence Road,Lawrenceville,NJ,8648",40.2660866,-40.2660866,
Ridgewater College,"2101 15th Ave NW,Willmar,MN,56201",45.1385756,-45.1385756,
Rio Hondo College,"3600 Workman Mill Rd,Whittier,CA,90601",34.0199534,-34.0199534,
Ripon College,"300 West Seward Street,Ripon,WI,54971",43.8432217,-43.8432217,
Riverland Community College,"1900 8th Ave NW,Austin,MN,55912",43.6760635,-43.6760635,
Riverside City College,"4800 Magnolia Avenue,Riverside,CA,92506",33.9714889,-33.9714889,
Rivier University,"420 South Main St,Nashua,NH,30605086",42.7393913,-42.7393913,
Roane State Community College,"276 Patton Lane,Harriman,TN,37748",35.8806173,-35.8806173,
Roanoke College,"221 College Lane,Salem,VA,24153",37.294248,-37.294248,
Robert Morris University,"6001 University Boulevard,Moon Township,PA,15108",40.5215511,-40.5215511,
Robert Morris University Illinois,"401 S State Street,Chicago,IL,60605",41.8763776,-41.8763776,
Roberts Wesleyan College,"2301 Westside Dr,Rochester,NY,14624",43.1255219,-43.1255219,
Rochester College,"800 West Avon Road,Rochester Hills,MI,48307",42.666778,-42.666778,
Rochester Community and Technical College,"851 30th Ave SE,Rochester,MN,55904",44.0139319,-44.0139319,
Rochester Institute of Technology,"1 Lomb Memorial Dr,Rochester,NY,14623",43.0839247,-43.0839247,
Rock Valley College,"3301 N Mulford Rd,Rockford,IL,61114",42.3095499,-42.3095499,
Rockford University,"5050 E State St,Rockford,IL,61108",42.269123,-42.269123,
Rockhurst University,"1100 Rockhurst Rd,Kansas City,MO,64110",39.0309284,-39.0309284,
Rockingham Community College,"215 Wrenn Memorial Road,Wentworth,NC,27375",36.387759,-36.387759,
Rockland Community College,"145 College Rd,Suffern,NY,10901",41.1341622,-41.1341622,
Rocky Mountain College,"1511 Poly Drive,Billings,MT,59102",45.7977348,-45.7977348,
Roger Williams University,"One Old Ferry Road,Bristol,RI,2809",41.6511285,-41.6511285,
Rogers State University,"1701 W Will Rogers Blvd,Claremore,OK,74017",36.3182518,-36.3182518,
Rogue Community College,"3345 Redwood Hwy,Grants Pass,OR,97527",42.41245,-42.41245,
Rollins College,"1000 Holt Avenue,Winter Park,FL,32789",28.5926825,-28.5926825,
Roosevelt University,"430 S Michigan Ave,Chicago,IL,60605",41.8759958,-41.8759958,
Rose State College,"6420 S E 15th,Midwest City,OK,73110",35.4497498,-35.4497498,
Rose-Hulman Institute of Technology,"5500 Wabash Avenue,Terre Haute,IN,47803",39.4836321,-39.4836321,
Rosemont College,"1400 Montgomery Ave,Rosemont,PA,190101499",40.0325184,-40.0325184,
Rowan College at Burlington County,"900 College Circle,Mount Laurel,NJ,8054",39.972204,-39.972204,
Rowan College at Gloucester County,"1400 Tanyard Road,Sewell,NJ,8080",39.7810635,-39.7810635,
Rowan University,"201 Mullica Hill Road,Glassboro,NJ,8028",39.7086852,-39.7086852,
Roxbury Community College,"1234 Columbus Ave,Roxbury Crossing,MA,2120",42.329242,-42.329242,
Rust College,"150 Rust Avenue,Holly Springs,MS,38635",34.774592,-34.774592,
Rutgers University-Camden,"406 Penn,Camden,NJ,8102",39.9478964,-39.9478964,
Rutgers University-New Brunswick,"7 College Avenue, 2nd Floor,New Brunswick,NJ,8901",40.4982079,-40.4982079,
Rutgers University-Newark,"249 University Avenue, Blumenthal Hall,Newark,NJ,7102",40.7390392,-40.7390392,
Sacramento City College,"3835 Freeport Blvd,Sacramento,CA,95822",38.5415791,-38.5415791,
Sacred Heart University,"5151 Park Ave,Fairfield,CT,6825",41.2212822,-41.2212822,
Saddleback College,"28000 Marguerite Pky,Mission Viejo,CA,92692",33.5540319,-33.5540319,
Saginaw Valley State University,"7400 Bay Rd,University Center,MI,48710",43.5142013,-43.5142013,
Saint Ambrose University,"518 W Locust St,Davenport,IA,52803",41.5406023,-41.5406023,
Saint Anselm College,"100 Saint Anselm Drive,Manchester,NH,3102",42.9868322,-42.9868322,
Saint Augustine's University,"1315 Oakwood Avenue,Raleigh,NC,27610",35.7861807,-35.7861807,
Saint Cloud State University,"720 Fourth Ave. South,Saint Cloud,MN,56301",45.5535198,-45.5535198,
Saint Edward's University,"3001 S Congress Ave,Austin,TX,78704",30.2315177,-30.2315177,
Saint Francis University,"117 Evergreen Dr,Loretto,PA,15940",40.5066666,-40.5066666,
Saint John Fisher College,"3690 East Ave,Rochester,NY,14618",43.1159106,-43.1159106,
Saint Johns River State College,"5001 Saint Johns Ave,Palatka,FL,32177",29.6458337,-29.6458337,
Saint Joseph's College of Maine,"278 Whites Bridge Rd,Standish,ME,4084",43.8270272,-43.8270272,
Saint Joseph's University,"5600 City Avenue,Philadelphia,PA,19131",39.995634,-39.995634,
Saint Leo University,"33701 State Road 52,Saint Leo,FL,33574",28.335714,-28.335714,
Saint Louis Community College,"3221 McKelvey Rd.,Bridgeton,MO,63044",38.7456585,-38.7456585,
Saint Louis University,"One North Grand Blvd,Saint Louis,MO,63103",38.6346955,-38.6346955,
Saint Martin's University,"5000 Abbey Way SE,Lacey,WA,98503",47.0405654,-47.0405654,
Saint Mary-of-the-Woods College,"1 St Mary of Woods Coll,Saint Mary of the Woods,IN,47876",39.5074094,-39.5074094,
Saint Mary's College of California,"1928 Saint Marys Road,Moraga,CA,94575",37.8414569,-37.8414569,
Saint Mary's University of Minnesota,"700 Terrace Heights,Winona,MN,55987",44.0457784,-44.0457784,
Saint Michael's College,"One Winooski Park,Colchester,VT,5439",44.49598,-44.49598,
Saint Norbert College,"100 Grant St,De Pere,WI,54115",44.4448752,-44.4448752,
Saint Peter's University,"2641 J. F. Kennedy Blvd,Jersey City,NJ,7306",40.7270586,-40.7270586,
Saint Vincent College,"300 Fraser Purchase Rd,Latrobe,PA,15650",40.2924241,-40.2924241,
Saint Xavier University,"3700 W 103rd St,Chicago,IL,60655",41.7069171,-41.7069171,
Salem College,"601 S Church St,Winston-Salem,NC,27101",36.0875173,-36.0875173,
Salem International University,"223 W Main St,Salem,WV,26426",39.2829927,-39.2829927,
Salem State University,"352 Lafayette St,Salem,MA,1970",42.5055,-42.5055,
Salisbury University,"1101 Camden Ave,Salisbury,MD,21801",38.3446815,-38.3446815,
Salish Kootenai College,"58138 US  Highway 93,Pablo,MT,59855",47.5980644,-47.5980644,
Salt Lake Community College,"4600 S Redwood Rd,Salt Lake City,UT,84123",40.6724474,-40.6724474,
Salve Regina University,"100 Ochre Point Avenue,Newport,RI,2840",41.4728136,-41.4728136,
Sam Houston State University,"1806 Ave J,Huntsville,TX,77340",30.7155156,-30.7155156,
Samford University,"800 Lakeshore Drive,Birmingham,AL,35229",33.4649218,-33.4649218,
San Bernardino Valley College,"701 South Mount Vernon Avenue,San Bernardino,CA,92410",34.088754,-34.088754,
San Diego Christian College,"200 Riverview Parkway,Santee,CA,92071",32.8424439,-32.8424439,
San Diego City College,"1313 Park Boulevard,San Diego,CA,92101",32.7186055,-32.7186055,
San Diego Mesa College,"7250 Mesa College Dr,San Diego,CA,92111",32.8047563,-32.8047563,
San Diego Miramar College,"10440 Black Mountain Rd,San Diego,CA,92126",32.9065169,-32.9065169,
San Diego State University,"5500 Campanile Dr,San Diego,CA,92182",32.7720012,-32.7720012,
San Francisco State University,"1600 Holloway Ave,San Francisco,CA,94132",37.7227669,-37.7227669,
San Jacinto Community College,"4624 Fairmont Parkway,Pasadena,TX,77505",29.6484169,-29.6484169,
San Joaquin Delta College,"5151 Pacific Ave,Stockton,CA,95207",37.9950829,-37.9950829,
San Jose City College,"2100 Moorpark Ave,San Jose,CA,95128",37.315671,-37.315671,
San Jose State University,"One Washington Square,San Jose,CA,95192",37.334157,-37.334157,
Sandhills Community College,"3395 Airport Rd,Pinehurst,NC,28374",35.220301,-35.220301,
Santa Ana College,"1530 W. 17th Street,Santa Ana,CA,92706",33.7579717,-33.7579717,
Santa Barbara City College,"721 Cliff Drive,Santa Barbara,CA,93109",34.4060713,-34.4060713,
Santa Clara University,"500 El Camino Real,Santa Clara,CA,95053",37.3499438,-37.3499438,
Santa Fe College,"3000 Northwest 83rd Street,Gainesville,FL,32606",29.6813724,-29.6813724,
Santa Monica College,"1900 Pico Blvd,Santa Monica,CA,90405",34.0178145,-34.0178145,
Santa Rosa Junior College,"1501 Mendocino Avenue,Santa Rosa,CA,95401",38.454581,-38.454581,
Santiago Canyon College,"8045 E Chapman,Orange,CA,92869",33.7954226,-33.7954226,
Sarah Lawrence College,"1 Mead Way,Bronxville,NY,10708",40.9342586,-40.9342586,
Sauk Valley Community College,"173 Illinois Rt 2,Dixon,IL,61021",41.8196091,-41.8196091,
Savannah College of Art and Design,"342 Bull St,Savannah,GA,31402",32.072944,-32.072944,
Savannah State University,"3219 College Street,Savannah,GA,31404",32.0252322,-32.0252322,
Schenectady County Community College,"78 Washington Avenue,Schenectady,NY,12305",42.8145482,-42.8145482,
Schoolcraft College,"18600 Haggerty Road,Livonia,MI,48152",42.4182614,-42.4182614,
Schreiner University,"2100 Memorial Blvd,Kerrville,TX,78028",30.0303241,-30.0303241,
Scottsdale Community College,"9000 E Chaparral Rd,Scottsdale,AZ,85256",33.512739,-33.512739,
Seattle Pacific University,"3307 3rd Ave W,Seattle,WA,98119",47.6491147,-47.6491147,
Seattle University,"900 Broadway,Seattle,WA,98122",47.6102654,-47.6102654,
Seminole State College,"2701 Boren Blvd,Seminole,OK,74868",35.2473029,-35.2473029,
Seminole State College of Florida,"100 Weldon Blvd,Sanford,FL,32773",28.7441889,-28.7441889,
Seton Hall University,"400 S Orange Ave,South Orange,NJ,7079",40.7421078,-40.7421078,
Seton Hill University,"1 Seton Hill Drive,Greensburg,PA,15601",40.3093459,-40.3093459,
Sewanee-The University of the South,"735 University Avenue,Sewanee,TN,37383",35.2025381,-35.2025381,
Seward County Community College,"1801 N. Kansas Ave.,Liberal,KS,67901",37.0602274,-37.0602274,
Shasta College,"11555 Old Oregon Trail,Redding,CA,96003",40.6255265,-40.6255265,
Shaw University,"118 East South Street,Raleigh,NC,27601",35.771133,-35.771133,
Shawnee Community College,"8364 Shawnee College Rd,Ullin,IL,62992",37.270476,-37.270476,
Shawnee State University,"940  Second  St,Portsmouth,OH,45662",38.7312312,-38.7312312,
Shelton State Community College,"9500 Old Greensboro Rd,Tuscaloosa,AL,35405",33.1210689,-33.1210689,
Shenandoah University,"1460 University Dr,Winchester,VA,22601",39.1660132,-39.1660132,
Shepherd University,"301 North King St,Shepherdstown,WV,25443",39.4362419,-39.4362419,
Sheridan College,"1 Whitney Way,Sheridan,WY,82801",44.7647058,-44.7647058,
Shippensburg University of Pennsylvania,"1871 Old Main Drive,Shippensburg,PA,172572299",40.0578944,-40.0578944,
Shoreline Community College,"16101 Greenwood Ave N,Shoreline,WA,98133",47.7486311,-47.7486311,
Shorter University,"315 Shorter Ave,Rome,GA,30165",34.2634127,-34.2634127,
Siena College,"515 Loudon Rd,Loudonville,NY,12211",42.716635,-42.716635,
Siena Heights University,"1247 E. Siena Heights Dr.,Adrian,MI,49221",41.9043078,-41.9043078,
Sierra College,"5100 Sierra College Blvd,Rocklin,CA,95677",38.794612,-38.794612,
Sierra Nevada College,"999 Tahoe Blvd.,Incline Village,NV,89451",39.2452176,-39.2452176,
Silver Lake College of the Holy Family,"2406 S Alverno Rd,Manitowoc,WI,54220",44.071439,-44.071439,
Simmons College of Kentucky,"1018 South 7th Street,Louisville,KY,40203",38.2395182,-38.2395182,
Simon Fraser University,"8888 University Drive,,None,None,None",49.2768,-122.918,
Simpson College,"701 North C St,Indianola,IA,50125",41.3648968,-41.3648968,
Simpson University,"2211 College View Drive,Redding,CA,96003",40.6144049,-40.6144049,
Sinclair Community College,"444 W. Third St.,Dayton,OH,45402",39.7572875,-39.7572875,
Sisseton Wahpeton College,"12572 BIA Rd 700,Sisseton,SD,57262",45.5627346,-45.5627346,
Skagit Valley College,"2405 E. College Way,Mount Vernon,WA,98273",48.4383268,-48.4383268,
Skidmore College,"815 N Broadway,Saratoga Springs,NY,12866",43.0970833,-43.0970833,
Skyline College,"3300 College Dr,San Bruno,CA,94066",37.6300571,-37.6300571,
Slippery Rock University of Pennsylvania,"1 Morrow Way,Slippery Rock,PA,16057",41.0630249,-41.0630249,
Snead State Community College,"102 Elder Street,Boaz,AL,35957",34.2015775,-34.2015775,
Snow College,"150 E College Ave,Ephraim,UT,84627",39.3611091,-39.3611091,
Soka University of America,"1 University Drive,Aliso Viejo,CA,92656",33.5547982,-33.5547982,
Solano Community College,"4000 Suisun Valley Rd,Fairfield,CA,94534",38.2348856,-38.2348856,
Sonoma State University,"1801 E Cotati Ave,Rohnert Park,CA,94928",38.3409331,-38.3409331,
South Carolina State University,"300 College St NE,Orangeburg,SC,29117",33.4983391,-33.4983391,
South Dakota School of Mines and Technology,"501 E Saint Joseph St,Rapid City,SD,57701",44.0730941,-44.0730941,
South Dakota State University,"1015 Campanile Avenue,Brookings,SD,57007",44.3165147,-44.3165147,
South Florida State College,"600 W College Dr,Avon Park,FL,33825",27.5690062,-27.5690062,
South Georgia State College,"100 W College Park Dr,Douglas,GA,31533",31.4976533,-31.4976533,
South Georgia Technical College,"900 South GA Tech Parkway,Americus,GA,31709",32.1135483,-32.1135483,
South Mountain Community College,"7050 S 24th St,Phoenix,AZ,85042",33.3832378,-33.3832378,
South Plains College,"1401 S. College Ave,Levelland,TX,79336",33.578406,-33.578406,
South Puget Sound Community College,"2011 Mottman Rd SW,Olympia,WA,98512",47.0237083,-47.0237083,
South Suburban College,"15800 South State Street,South Holland,IL,60473",41.6298989,-41.6298989,
Southeast Community College Area,"301 South 68th Street Place,Lincoln,NE,68510",40.810791,-40.810791,
Southeast Missouri State University,"One University Plaza, MS3200,Cape Girardeau,MO,63701",37.3148783,-37.3148783,
Southeastern Baptist College,"4229 Hwy 15 N,Laurel,MS,394409989",31.7484224,-31.7484224,
Southeastern Community College,"4564 Chadbourn Hwy,Whiteville,NC,28472",34.3318364,-34.3318364,
Southeastern Community College,"1500 West Agency Road,West Burlington,IA,52655",40.8119257,-40.8119257,
Southeastern Illinois College,"3575 College Road,Harrisburg,IL,62946",37.7515069,-37.7515069,
Southeastern Louisiana University,"548 Ned McGehee Ave.,Hammond,LA,70402",30.5134247,-30.5134247,
Southeastern Oklahoma State University,"425 W. University Blvd,Durant,OK,74701",34.0049685,-34.0049685,
Southeastern University,"1000 Longfellow Blvd,Lakeland,FL,33801",28.0301306,-28.0301306,
Southern Arkansas University Main Campus,"100 E. University,Magnolia,AR,71753",33.2910064,-33.2910064,
Southern Arkansas University Tech,"6415 Spellman Road,Camden,AR,717011906",33.6322452,-33.6322452,
Southern Connecticut State University,"501 Crescent Street,New Haven,CT,6515",41.3318269,-41.3318269,
Southern Crescent Technical College,"501 Varsity Rd,Griffin,GA,30223",33.255097,-33.255097,
Southern Illinois University-Carbondale,"1263 Lincoln Drive,Carbondale,IL,629016899",37.7100209,-37.7100209,
Southern Illinois University-Edwardsville,"Il State Rte 157,Edwardsville,IL,62026",38.7934381,-38.7934381,
Southern Maine Community College,"2 Fort Road,South Portland,ME,4106",43.6490443,-43.6490443,
Southern Methodist University,"6425 Boaz St,Dallas,TX,75275",32.8449511,-32.8449511,
Southern Nazarene University,"6729 NW 39th Expy,Bethany,OK,73008",35.5118819,-35.5118819,
Southern New Hampshire University,"2500 North River Road,Manchester,NH,3106",43.0413087,-43.0413087,
Southern Oregon University,"1250 Siskiyou Blvd,Ashland,OR,97520",42.1857969,-42.1857969,
Southern State Community College,"100 Hobart Drive,Hillsboro,OH,45133",39.2361391,-39.2361391,
Southern Union State Community College,"750 Roberts St,Wadley,AL,36276",33.1293106,-33.1293106,
Southern University and A & M College,"3rd Floor, J.S. Clark Adm. Building, P.O. Box 9374,Baton Rouge,LA,70813",30.5586838,-30.5586838,
Southern University at New Orleans,"6400 Press Drive,New Orleans,LA,70126",30.0235606,-30.0235606,
Southern University at Shreveport,"3050 Martin Luther King Dr,Shreveport,LA,71107",32.5447613,-32.5447613,
Southern Utah University,"351 West University Blvd,Cedar City,UT,84720",37.6755016,-37.6755016,
Southern Virginia University,"1 University Hill Drive,Buena Vista,VA,24416",37.7412142,-37.7412142,
Southern Wesleyan University,"907 Wesleyan Drive,Central,SC,29630",34.7283676,-34.7283676,
Southwest Baptist University,"1600 University Ave,Bolivar,MO,65613",37.6015836,-37.6015836,
Southwest Minnesota State University,"1501 State St,Marshall,MN,56258",44.4541149,-44.4541149,
Southwest Mississippi Community College,"1156 College Dr,Summit,MS,39666",31.29293,-31.29293,
Southwest Tennessee Community College,"737 Union Avenue,Memphis,TN,38103",35.1384753,-35.1384753,
Southwest Texas Junior College,"2401 Garner Field Rd,Uvalde,TX,78801",29.2195791,-29.2195791,
Southwest Wisconsin Technical College,"1800 Bronson Blvd,Fennimore,WI,53809",42.9761517,-42.9761517,
Southwestern Adventist University,"100 W Hillcrest,Keene,TX,76059",32.3970475,-32.3970475,
Southwestern Assemblies of God University,"1200 Sycamore St.,Waxahachie,TX,75165",32.4042402,-32.4042402,
Southwestern Christian College,"200 Bowser Circle,Terrell,TX,75160",32.7360116,-32.7360116,
Southwestern Christian University,"7210 NW 39th Expressway,Bethany,OK,73008",35.5133242,-35.5133242,
Southwestern College,"900 Otay Lakes Rd,Chula Vista,CA,91910",32.6407136,-32.6407136,
Southwestern College,"100 College Street,Winfield,KS,67156",37.2500656,-37.2500656,
Southwestern Community College,"1501 West Townline Street,Creston,IA,50801",41.0732022,-41.0732022,
Southwestern Illinois College,"2500 Carlyle Ave,Belleville,IL,62221",38.5178935,-38.5178935,
Southwestern Oklahoma State University,"100 Campus Dr,Weatherford,OK,73096",35.5354936,-35.5354936,
Southwestern Oregon Community College,"1988 Newmark Ave,Coos Bay,OR,97420",43.3917455,-43.3917455,
Southwestern University,"1001 E. University Avenue,Georgetown,TX,78626",30.6368922,-30.6368922,
Spalding University,"845 South 3rd Street,Louisville,KY,40203",38.2423593,-38.2423593,
Spartanburg Methodist College,"1000 Powell Mill Road,Spartanburg,SC,29301",34.9551165,-34.9551165,
Spokane Falls Community College,"3410 W Fort George Wright Dr,Spokane,WA,99224",47.675728,-47.675728,
Spoon River College,"23235 North County 22,Canton,IL,61520",40.5530809,-40.5530809,
Spring Arbor University,"106 E. Main St,Spring Arbor,MI,49283",42.2064518,-42.2064518,
Spring Hill College,"4000 Dauphin St,Mobile,AL,36608",30.6915278,-30.6915278,
Springfield College,"263 Alden St,Springfield,MA,1109",42.1021856,-42.1021856,
Springfield Technical Community College,"1 Armory Sq,Springfield,MA,1102",42.1088724,-42.1088724,
St Bonaventure University,"3261 W. State Road,Saint Bonaventure,NY,14778",42.0799022,-42.0799022,
St Catherine University,"2004 Randolph Ave,Saint Paul,MN,55105",44.9247103,-44.9247103,
St Charles Community College,"4601 Mid Rivers Mall Dr,Cottleville,MO,63376",38.7590918,-38.7590918,
St Clair County Community College,"323 Erie Street,Port Huron,MI,48061",42.9781738,-42.9781738,
St Cloud Technical and Community College,"1540 Northway Drive,Saint Cloud,MN,56303",45.5789674,-45.5789674,
St Francis College,"180 Remsen Street,Brooklyn Heights,NY,11201",40.6932296,-40.6932296,
St John's University-New York,"8000 Utopia Pky,Queens,NY,11439",40.7247555,-40.7247555,
St Lawrence University,"23 Romoda Drive,Canton,NY,13617",44.5918928,-44.5918928,
St Mary's College of Maryland,"18952 East Fisher Road,St. Mary's City,MD,20686",38.1880114,-38.1880114,
St Olaf College,"1520 St Olaf Ave,Northfield,MN,55057",44.4611523,-44.4611523,
St Petersburg College,"6021 142nd  Ave N,Clearwater,FL,33760",27.9025272,-27.9025272,
St Thomas University,"16401 NW 37th Ave,Miami Gardens,FL,33054",25.9237724,-25.9237724,
St. Andrews University,"1700 Dogwood Mile,Laurinburg,NC,28352",34.7447182,-34.7447182,
St. John's College,"60 College Ave,Annapolis,MD,21401",38.9815431,-38.9815431,
St. Joseph's College-Long Island,"155 W Roe Blvd,Patchogue,NY,11772",40.7759025,-40.7759025,
St. Joseph's College-New York,"245 Clinton Ave,Brooklyn,NY,11205",40.690509,-40.690509,
St. Louis College of Pharmacy,"4588 Parkview Pl,Saint Louis,MO,63110",38.6366208,-38.6366208,
St. Mary's University,"One Camino Santa Maria,San Antonio,TX,78228",29.452695,-29.452695,
St. Thomas Aquinas College,"125 Rte 340,Sparkill,NY,10976",41.042084,-41.042084,
Stanford University,"450 Serra Mall,Stanford,CA,94305",37.4274745,-37.4274745,
State College of Florida-Manatee-Sarasota,"5840 26th St W,Bradenton,FL,34207",27.4369786,-27.4369786,
State Fair Community College,"3201 W 16th Street,Sedalia,MO,65301",38.6964547,-38.6964547,
State University of New York at New Paltz,"1 Hawk Drive,New Paltz,NY,12561",41.7390054,-41.7390054,
Stephen F Austin State University,"1936 North Street,Nacogdoches,TX,75962",31.6188766,-31.6188766,
Sterling College,"125 W. Cooper,Sterling,KS,67579",38.2201653,-38.2201653,
Stetson University,"421 N Woodland Blvd,DeLand,FL,32723",29.0347047,-29.0347047,
Stevens Institute of Technology,"Castle Point On Hudson,Hoboken,NJ,7030",40.7469277,-40.7469277,
Stevenson University,"1525 Greenspring Valley Rd,Stevenson,MD,21153",39.4213621,-39.4213621,
Stillman College,"3601 Stillman Boulevard,Tuscaloosa,AL,35401",33.200526,-33.200526,
Stockton University,"101 Vera King Farris Drive,Galloway,NJ,8205",39.4914249,-39.4914249,
Stonehill College,"320 Washington Street,Easton,MA,2357",42.0590153,-42.0590153,
Stony Brook University,"310 Administration Building,Stony Brook,NY,11794",40.9147317,-40.9147317,
Suffolk County Community College,"533 College Rd,Selden,NY,11784",40.8470236,-40.8470236,
Suffolk University,"8 Ashburton Place,Boston,MA,2108",42.358981,-42.358981,
Sul Ross State University,"E. Hwy 90,Alpine,TX,79832",30.3615773,-30.3615773,
Sullivan County Community College,"112 College Road,Loch Sheldrake,NY,12759",41.7727955,-41.7727955,
SUNY at Albany,"1400 Washington Avenue,Albany,NY,12222",42.6895995,-42.6895995,
SUNY at Fredonia,"280 Central Ave,Fredonia,NY,14063",42.4531174,-42.4531174,
SUNY at Purchase College,"735 Anderson Hill Rd,Purchase,NY,10577",41.0388731,-41.0388731,
SUNY Broome Community College,"907 Upper Front St,Binghamton,NY,13905",42.1348317,-42.1348317,
SUNY Buffalo State,"1300 Elmwood Ave,Buffalo,NY,14222",42.9336263,-42.9336263,
SUNY College at Brockport,"350 New Campus Dr,Brockport,NY,14420",43.2127878,-43.2127878,
SUNY College at Geneseo,"1 College Circle,Geneseo,NY,14454",42.7960069,-42.7960069,
SUNY College at Old Westbury,"223 Store Hill Rd,Old Westbury,NY,11568",40.7803282,-40.7803282,
SUNY College at Oswego,"7060 State Route 104,Oswego,NY,13126",43.4542181,-43.4542181,
SUNY College at Plattsburgh,"101 Broad Street,Plattsburgh,NY,12901",44.6930943,-44.6930943,
SUNY College at Potsdam,"44 Pierrepont Ave,Potsdam,NY,13676",44.6617901,-44.6617901,
SUNY College of Agriculture and Technology at Cobleskill,"State Route 7,Cobleskill,NY,12043",42.6778477,-42.6778477,
SUNY College of Environmental Science and Forestry,"One Forestry Dr.,Syracuse,NY,13210",43.0345102,-43.0345102,
SUNY College of Technology at Alfred,"10 Upper College Drive,Alfred,NY,14802",42.2552377,-42.2552377,
SUNY College of Technology at Canton,"34 Cornell Drive,Canton,NY,13617",44.6013495,-44.6013495,
SUNY College of Technology at Delhi,"2 Main Street,Delhi,NY,13753",42.272466,-42.272466,
SUNY Cortland,"Miller Building,Cortland,NY,13045",42.5990088,-42.5990088,
SUNY Maritime College,"6 Pennyfield Avenue,Throggs Neck,NY,10465",40.8092024,-40.8092024,
SUNY Oneonta,"108 Ravine Parkway,Oneonta,NY,13820",42.4716666,-42.4716666,
SUNY Polytechnic Institute,"100 Seymour Rd,Utica,NY,13502",43.1352919,-43.1352919,
SUNY Westchester Community College,"75 Grasslands Road,Valhalla,NY,10595",41.0686223,-41.0686223,
Surry Community College,"630 S. Main Street,Dobson,NC,27017",36.385371,-36.385371,
Susquehanna University,"514 University Ave,Selinsgrove,PA,17870",40.799708,-40.799708,
Sussex County Community College,"One College Hill Road,Newton,NJ,7860",41.0682488,-41.0682488,
Swarthmore College,"500 College Ave,Swarthmore,PA,19081",39.906932,-39.906932,
Syracuse University,"900 South Crouse Ave.,Syracuse,NY,13244",43.049345,-43.049345,
Tabor College,"400 S Jefferson,Hillsboro,KS,67063",38.3499975,-38.3499975,
Tacoma Community College,"6501 S 19th St,Tacoma,WA,98466",47.2458032,-47.2458032,
Taft College,"29 Cougar Court,Taft,CA,93268",35.1492183,-35.1492183,
Talladega College,"627 W Battle St,Talladega,AL,35160",33.4327519,-33.4327519,
Tallahassee Community College,"444 Appleyard Dr,Tallahassee,FL,32304",30.4434759,-30.4434759,
Tarleton State University,"1333 W. Washington,Stephenville,TX,76401",32.2160426,-32.2160426,
Taylor University,"236 W Reade Ave,Upland,IN,46989",40.4571778,-40.4571778,
Temple College,"2600 S 1st St,Temple,TX,76504",31.072684,-31.072684,
Temple University,"1801 North Broad Street,Philadelphia,PA,19122",39.9803512,-39.9803512,
Tennessee State University,"3500 John A. Merritt Blvd,Nashville,TN,37209",36.1682397,-36.1682397,
Tennessee Technological University,"1 William L. Jones Drive,Cookeville,TN,38505",36.1745935,-36.1745935,
Tennessee Wesleyan University,"204 East College Street,Athens,TN,37303",35.445114,-35.445114,
Texas A & M International University,"5201 University Blvd,Laredo,TX,78041",27.5734867,-27.5734867,
Texas A & M University-College Station,"JKW Administration Building, Suite 200,College Station,TX,77843",30.6187558,-30.6187558,
Texas A & M University-Commerce,"2600 South Neal,Commerce,TX,75429",33.23814,-33.23814,
Texas A & M University-Corpus Christi,"6300 Ocean Dr.,Corpus Christi,TX,78412",27.712792,-27.712792,
Texas A & M University-Kingsville,"700 University Blvd,Kingsville,TX,78363",27.5166951,-27.5166951,
Texas A&M University-Texarkana,"7101 University Avenue,Texarkana,TX,75503",33.4898106,-33.4898106,
Texas Christian University,"2800 S University Dr,Fort Worth,TX,76129",32.709151,-32.709151,
Texas College,"2404 N. Grand Avenue,Tyler,TX,75702",32.3746216,-32.3746216,
Texas Lutheran University,"1000 W. Court St,Seguin,TX,78155",29.5720802,-29.5720802,
Texas Southern University,"3100 Cleburne St,Houston,TX,77004",29.7214214,-29.7214214,
Texas State University,"601 University Dr,San Marcos,TX,78666",29.8888838,-29.8888838,
Texas Tech University,"Broadway and University Avenue,Lubbock,TX,79409",33.5842591,-33.5842591,
Texas Wesleyan University,"1201 Wesleyan St,Fort Worth,TX,76105",32.7331261,-32.7331261,
Texas Woman's University,"304 Administration Dr,Denton,TX,76204",33.2262575,-33.2262575,
Thaddeus Stevens College of Technology,"750 E King St,Lancaster,PA,17602",40.0382795,-40.0382795,
The College of Idaho,"2112 Cleveland Blvd,Caldwell,ID,83605",43.6536737,-43.6536737,
The College of New Jersey,"2000 Pennington Road,Ewing,NJ,8628",40.2686403,-40.2686403,
The College of Saint Rose,"432 Western Ave,Albany,NY,12203",42.6640071,-42.6640071,
The College of Saint Scholastica,"1200 Kenwood Ave,Duluth,MN,55811",46.8160713,-46.8160713,
The College of Wooster,"1189 Beall Avenue,Wooster,OH,44691",40.8101944,-40.8101944,
The Evergreen State College,"2700 Evergreen Pkwy NW,Olympia,WA,98505",47.073705,-47.073705,
The King's College,"56 Broadway,New York,NY,10004",40.7066799,-40.7066799,
The Master's University and Seminary,"21726 Placerita Canyon Road,Santa Clarita,CA,91321",34.3817734,-34.3817734,
The Sage Colleges,"65 1st Street,Troy,NY,12180",42.7272267,-42.7272267,
The University of Alabama,"739 University Blvd,Tuscaloosa,AL,35487",33.2096093,-33.2096093,
The University of Findlay,"1000 North Main Street,Findlay,OH,45840",41.0537667,-41.0537667,
The University of Montana,"Missoula, Montana,Missoula,MT,59812",46.861557,-46.861557,
The University of Montana-Western,"710 S Atlantic,Dillon,MT,59725",45.208228,-45.208228,
The University of Tampa,"401 W Kennedy Blvd,Tampa,FL,33606",27.9479478,-27.9479478,
The University of Tennessee-Chattanooga,"615 McCallie Ave,Chattanooga,TN,37403",35.047943,-35.047943,
The University of Tennessee-Knoxville,"527 Andy Holt Tower,Knoxville,TN,37996",35.9520732,-35.9520732,
The University of Tennessee-Martin,"554 University Street,Martin,TN,38238",36.342753,-36.342753,
The University of Texas at Arlington,"701 S. Nedderman Dr.,Arlington,TX,76013",32.7292117,-32.7292117,
The University of Texas at Austin,"110 Inner Campus Drive,Austin,TX,78712",30.2861062,-30.2861062,
The University of Texas at Dallas,"800 West Campbell  Road,Richardson,TX,75080",32.9816479,-32.9816479,
The University of Texas at El Paso,"500 W. University Ave,El Paso,TX,79968",31.7698629,-31.7698629,
The University of Texas at San Antonio,"One UTSA Circle,San Antonio,TX,78249",29.5845786,-29.5845786,
The University of Texas at Tyler,"3900 University Blvd,Tyler,TX,75799",32.3151773,-32.3151773,
The University of Texas of the Permian Basin,"4901 E University,Odessa,TX,79762",31.8876067,-31.8876067,
The University of Texas Rio Grande Valley,"1201 W University Dr,Edinburg,TX,78539",26.3081983,-26.3081983,
The University of Virginia's College at Wise,"1 College Avenue,Wise,VA,24293",36.9707461,-36.9707461,
The University of West Florida,"11000 University Parkway,Pensacola,FL,32514",30.5491387,-30.5491387,
Thiel College,"75 College Ave,Greenville,PA,16125",41.4119742,-41.4119742,
Thomas College,"180 W River Rd,Waterville,ME,4901",44.5248738,-44.5248738,
Thomas Jefferson University,"1020 Walnut Street,Philadelphia,PA,19107",39.9482624,-39.9482624,
Thomas More College,"333 Thomas More Parkway,Crestview Hills,KY,41017",39.0216667,-39.0216667,
Thomas Nelson Community College,"99 Thomas Nelson Drive,Hampton,VA,23666",37.0634225,-37.0634225,
Thomas University,"1501 Millpond Rd,Thomasville,GA,31792",30.8150654,-30.8150654,
Three Rivers College,"2080 Three Rivers Blvd,Poplar Bluff,MO,63901",36.7764609,-36.7764609,
Tiffin University,"155 Miami Street,Tiffin,OH,44883",41.1184446,-41.1184446,
Toccoa Falls College,"107 Kincaid Drive,Toccoa Falls,GA,30598",34.5962723,-34.5962723,
Tohono O'Odham Community College,"Highway 86, Mile Post 125.5,Sells,AZ,856343129",31.9183549,-31.9183549,
Tompkins Cortland Community College,"170 North St,Dryden,NY,13053",42.5026424,-42.5026424,
Tougaloo College,"500 W County Line Rd,Tougaloo,MS,39174",32.4006802,-32.4006802,
Touro College,"500 7th Avenue,New York,NY,10018",40.7532218,-40.7532218,
Towson University,"8000 York Rd,Towson,MD,21252",39.3936139,-39.3936139,
Transylvania University,"300 N Broadway,Lexington,KY,40508",38.0528459,-38.0528459,
Treasure Valley Community College,"650 College Blvd,Ontario,OR,97914",44.0177762,-44.0177762,
Trevecca Nazarene University,"333 Murfreesboro Rd,Nashville,TN,37210",36.0149584,-36.0149584,
Trine University,"1 University Ave,Angola,IN,46703",41.633333,-41.633333,
Trinidad State Junior College,"600 Prospect Street,Trinidad,CO,81082",37.1732795,-37.1732795,
Trinity Baptist College,"800 Hammond Blvd,Jacksonville,FL,32221",30.3093671,-30.3093671,
Trinity Bible College and Graduate School,"50 6th Ave S,Ellendale,ND,584367150",46.0005465,-46.0005465,
Trinity Christian College,"6601 W College Dr,Palos Heights,IL,60463",41.6677877,-41.6677877,
Trinity College,"300 Summit St,Hartford,CT,6106",41.7473639,-41.7473639,
Trinity College of Florida,"2430 Welbilt Boulevard,Trinity,FL,34655",28.194591,-28.194591,
Trinity International University-Illinois,"2065 Half Day Rd,Deerfield,IL,60015",42.1979075,-42.1979075,
Trinity University,"One Trinity Place,San Antonio,TX,78212",29.4642886,-29.4642886,
Trinity Valley Community College,"100 Cardinal Drive,Athens,TX,75751",32.1963422,-32.1963422,
Trinity Washington University,"125 Michigan Ave NE,Washington,DC,20017",38.9275319,-38.9275319,
Triton College,"2000 5th Ave,River Grove,IL,60171",41.9150378,-41.9150378,
Troy University,"University Avenue,Troy,AL,36082",31.7984183,-31.7984183,
Truett McConnell University,"100 Alumni Dr,Cleveland,GA,30528",34.5948888,-34.5948888,
Truman State University,"100 E Normal Avenue,Kirksville,MO,63501",40.1885977,-40.1885977,
Tufts University,"161 College Ave.,Medford,MA,2155",42.4096872,-42.4096872,
Tulane University of Louisiana,"6823 St. Charles Avenue,New Orleans,LA,70118",29.9354099,-29.9354099,
Turtle Mountain Community College,"10145 BIA #7 North,Belcourt,ND,58316",48.8165127,-48.8165127,
Tusculum College,"60 Shiloh Road,Greeneville,TN,37743",36.1740586,-36.1740586,
Tuskegee University,"Kresge Center, 3rd Floor,Tuskegee,AL,36088",32.4309166,-32.4309166,
Tyler Junior College,"1400 East Fifth Street,Tyler,TX,75701",32.3329038,-32.3329038,
Ulster County Community College,"491 Cottekill Rd,Stone Ridge,NY,12484",41.8508952,-41.8508952,
Umpqua Community College,"1140 Umpqua College Rd.,Roseburg,OR,97470",43.2910295,-43.2910295,
Union College,"310 College St,Barbourville,KY,40906",36.8712468,-36.8712468,
Union College,"3800 S 48th Street,Lincoln,NE,68506",40.7745521,-40.7745521,
Union College,"807 Union St,Schenectady,NY,12308",42.8155649,-42.8155649,
Union County College,"1033 Springfield Ave.,Cranford,NJ,7016",40.6677,-40.6677,
Union University,"1050 Union University Dr,Jackson,TN,38305",35.6770261,-35.6770261,
United States Merchant Marine Academy,"300 Steamboat Rd,Kings Point,NY,11024",40.8127699,-40.8127699,
United Tribes Technical College,"3315 University Dr,Bismarck,ND,58504",46.7688374,-46.7688374,
Unity College,"90 Quaker Hill Road,Unity,ME,4988",44.6033491,-44.6033491,
Universidad Central de Bayamon,"Avenida Zaya Verde La Milagrosa Barrio Hato Tejas,Bayamn,PR,960",18.3983485,-18.3983485,
Universidad del Este,"Carretera 190 Km 1.8 Esquina Calle 220,Carolina,PR,983",18.411038,-18.411038,
Universidad del Sagrado Corazon,"Calle Rosales Esq San Antonio Pda 26 1/2,Santurce,PR,907",29.4241219,-29.4241219,
Universidad del Turabo,"Carr. # 189 Km 3.3,Gurabo,PR,778",18.244559,-18.244559,
Universidad Metropolitana,"1399 Ave. Ana G. Mndez,San Juan,PR,926",18.3870373,-18.3870373,
Universidad Politecnica de Puerto Rico,"377 Ponce de Leon Ave,Hato Rey,PR,919",18.4225853,-18.4225853,
University at Buffalo,"12 Capen Hall,Buffalo,NY,14260",43.00095,-43.00095,
University of Akron Main Campus,"302 Buchtel Common,Akron,OH,44325",41.0754323,-41.0754323,
University of Alabama at Birmingham,"Administration Bldg Suite 1070,Birmingham,AL,35294",33.5058651,-33.5058651,
University of Alabama in Huntsville,"301 Sparkman Dr,Huntsville,AL,35899",34.7251471,-34.7251471,
University of Alaska Anchorage,"3211 Providence Drive,Anchorage,AK,99508",61.1907878,-61.1907878,
University of Alaska Fairbanks,"1810 Salcha Street,Fairbanks,AK,99775",64.8562245,-64.8562245,
University of Antelope Valley,"44055 Sierra Highway,Lancaster,CA,93534",34.6835278,-34.6835278,
University of Arizona,"1401 E University,Tucson,AZ,85721",32.2327247,-32.2327247,
University of Arkansas,"Administration Bldg 425,Fayetteville,AR,72701",36.0699572,-36.0699572,
University of Arkansas at Little Rock,"2801 S University Ave,Little Rock,AR,72204",34.7257004,-34.7257004,
University of Arkansas at Monticello,"Highway 425 South,Monticello,AR,71656",33.6235915,-33.6235915,
University of Arkansas at Pine Bluff,"1200 N University Mail Slot 4789,Pine Bluff,AR,71601",34.2262213,-34.2262213,
University of Arkansas Community College Rich Mountain,"1100 College Dr,Mena,AR,71953",34.591978,-34.591978,
University of Arkansas-Fort Smith,"5210 Grand Ave,Fort Smith,AR,72913",35.3848407,-35.3848407,
University of Bridgeport,"126 Park Avenue,Bridgeport,CT,6604",41.164718,-41.164718,
University of California-Berkeley,"200 California Hall,Berkeley,CA,94720",37.8718399,-37.8718399,
University of California-Davis,"One Shields Avenue,Davis,CA,95616",38.5409093,-38.5409093,
University of California-Irvine,"501 Aldrich Hall,Irvine,CA,92697",33.6485178,-33.6485178,
University of California-Los Angeles,"405 Hilgard Ave,Los Angeles,CA,90095",34.0725988,-34.0725988,
University of California-Merced,"5200 North Lake Road,Merced,CA,95343",37.3637343,-37.3637343,
University of California-Riverside,"900 University Ave,Riverside,CA,92521",33.9754243,-33.9754243,
University of California-San Diego,"9500 Gilman Dr,La Jolla,CA,92093",32.8824069,-32.8824069,
University of California-Santa Barbara,"5221 Cheadle Hall,Santa Barbara,CA,93106",34.4139629,-34.4139629,
University of California-Santa Cruz,"1156 High St,Santa Cruz,CA,95064",36.9834126,-36.9834126,
University of Central Arkansas,"201 Donaghey Ave,Conway,AR,72035",35.0773132,-35.0773132,
University of Central Florida,"4465 Knights Victory Way,Orlando,FL,32816",28.6082727,-28.6082727,
University of Central Missouri,"108 W South Street,Warrensburg,MO,64093",38.7581171,-38.7581171,
University of Central Oklahoma,"100 N University Dr,Edmond,OK,73034",35.6551099,-35.6551099,
University of Charleston,"2300 MacCorkle Avenue,  SE,Charleston,WV,25304",38.332982,-38.332982,
University of Chicago,"5801 S Ellis Ave,Chicago,IL,60637",41.7895805,-41.7895805,
University of Cincinnati-Clermont College,"4200 Clermont College Dr,Batavia,OH,45103",39.0797116,-39.0797116,
University of Cincinnati-Main Campus,"2624 Clifton Avenue,Cincinnati,OH,45221",39.1343961,-39.1343961,
University of Colorado Boulder,"Regent Drive at Broadway,Boulder,CO,80309",40.0034965,-40.0034965,
University of Colorado Colorado Springs,"1420 Austin Bluffs Parkway,Colorado Springs,CO,80918",38.8958038,-38.8958038,
University of Connecticut,"352 Mansfield Road,Storrs,CT,6269",41.8088143,-41.8088143,
University of Connecticut-Avery Point,"1084 Shennecossett Rd,Groton,CT,6340",41.3167794,-41.3167794,
University of Dallas,"1845 E Northgate Drive,Irving,TX,75062",32.8462097,-32.8462097,
University of Dayton,"300 College Park,Dayton,OH,45469",39.7394599,-39.7394599,
University of Delaware,"104 Hullihen Hall,Newark,DE,19716",39.6795367,-39.6795367,
University of Denver,"2199 S. University Blvd,Denver,CO,80208",39.6766368,-39.6766368,
University of Detroit Mercy,"4001 W McNichols Rd,Detroit,MI,48221",42.4155262,-42.4155262,
University of Dubuque,"2000 University Ave,Dubuque,IA,52001",42.4977869,-42.4977869,
University of Evansville,"1800 Lincoln Avenue,Evansville,IN,47722",37.9734067,-37.9734067,
University of Florida,"Tigert Hall,Gainesville,FL,32611",29.6494246,-29.6494246,
University of Georgia,"Administration Building,Athens,GA,30602",33.9562553,-33.9562553,
University of Hartford,"200 Bloomfield Ave,West Hartford,CT,6117",41.7984508,-41.7984508,
University of Hawaii at Hilo,"200 W Kawili St,Hilo,HI,96720",19.7018462,-19.7018462,
University of Hawaii at Manoa,"2500 Campus Road,Honolulu,HI,96822",21.300702,-21.300702,
University of Houston,"212 E. Cullen Building,Houston,TX,77204",29.7203176,-29.7203176,
University of Houston-Victoria,"3007 N. Ben Wilson,Victoria,TX,77901",28.816247,-28.816247,
University of Idaho,"875 Perimeter Drive MS 2282,Moscow,ID,83844",46.7288124,-46.7288124,
University of Illinois at Chicago,"601 S Morgan,Chicago,IL,60607",41.8737632,-41.8737632,
University of Illinois at Springfield,"One University Plaza,Springfield,IL,62703",39.729518,-39.729518,
University of Illinois at Urbana-Champaign,"601 E John Street,Champaign,IL,61820",40.1088318,-40.1088318,
University of Indianapolis,"1400 E Hanna Ave,Indianapolis,IN,46227",39.709623,-39.709623,
University of Iowa,"101 Jessup Hall,Iowa City,IA,52242",41.661897,-41.661897,
University of Jamestown,"608 6th St NE,Jamestown,ND,58405",46.9139031,-46.9139031,
University of Kansas,"Strong Hall, 1450 Jayhawk Blvd, Room 230,Lawrence,KS,66045",38.958542,-38.958542,
University of Kentucky,"South Limestone,Lexington,KY,40506",38.0380607,-38.0380607,
University of La Verne,"1950 Third St,La Verne,CA,91750",34.1008542,-34.1008542,
University of Louisiana at Lafayette,"104 University Circle,Lafayette,LA,70503",30.2324598,-30.2324598,
University of Louisiana at Monroe,"700 University Avenue,Monroe,LA,71209",32.5306007,-32.5306007,
University of Louisville,"2301 S 3rd St,Louisville,KY,40292",38.2157954,-38.2157954,
University of Lynchburg,"1501 Lakeside Dr,Lynchburg,VA,24501",37.4006002,-37.4006002,
University of Maine,"168 College Avenue,Orono,ME,4469",44.8955674,-44.8955674,
University of Maine at Augusta,"46 University Dr,Augusta,ME,4330",44.3422294,-44.3422294,
University of Maine at Farmington,"224 Main St.,Farmington,ME,4938",44.6691179,-44.6691179,
University of Maine at Fort Kent,"23 University Drive,Fort Kent,ME,4743",47.2503875,-47.2503875,
University of Maine at Machias,"116 O'Brien Ave,Machias,ME,4654",44.7078391,-44.7078391,
University of Maine at Presque Isle,"181 Main St,Presque Isle,ME,4769",46.6722917,-46.6722917,
University of Mary,"7500 University Dr,Bismarck,ND,58504",46.721353,-46.721353,
University of Mary Hardin-Baylor,"900 College St,Belton,TX,76513",31.0708561,-31.0708561,
University of Mary Washington,"1301 College Ave,Fredericksburg,VA,22401",38.2996039,-38.2996039,
University of Maryland Eastern Shore,"J.T. Williams Hall,Princess Anne,MD,21853",38.2102166,-38.2102166,
University of Maryland-Baltimore County,"1000 Hilltop Circle, UMBC Event Center,Baltimore,MD,21250",39.2523419,-39.2523419,
University of Maryland-College Park,"Main Administration Building,College Park,MD,20742",38.9859963,-38.9859963,
University of Massachusetts-Amherst,"374 Whitmore Building 181 Presidents Drive,Amherst,MA,1003",42.3861771,-42.3861771,
University of Massachusetts-Boston,"100 Morrissey Boulevard,Boston,MA,2125",42.312004,-42.312004,
University of Massachusetts-Dartmouth,"285 Old Westport Rd,North Dartmouth,MA,2747",41.6241106,-41.6241106,
University of Massachusetts-Lowell,"1 University Ave,Lowell,MA,1854",42.6539217,-42.6539217,
University of Memphis,"Southern Avenue,Memphis,TN,38152",35.1158539,-35.1158539,
University of Miami,"University of Miami,Coral Gables,FL,33146",25.7178924,-25.7178924,
University of Michigan-Ann Arbor,"503 Thompson Street,Ann Arbor,MI,48109",42.2758739,-42.2758739,
University of Michigan-Dearborn,"4901 Evergreen Rd,Dearborn,MI,48128",42.3184187,-42.3184187,
University of Minnesota-Crookston,"2900 University Ave,Crookston,MN,56716",47.8020868,-47.8020868,
University of Minnesota-Duluth,"515 Darland Administration Bldg,Duluth,MN,55812",46.8170318,-46.8170318,
University of Minnesota-Morris,"309 Behmler Hall,Morris,MN,56267",45.5890317,-45.5890317,
University of Minnesota-Twin Cities,"100 Church Street SE,Minneapolis,MN,55455",44.9758602,-44.9758602,
University of Mississippi,"Oxford, Mississippi,University,MS,38677",34.3662913,-34.3662913,
University of Missouri-Columbia,"105 Jesse Hall,Columbia,MO,65211",38.9453385,-38.9453385,
University of Missouri-Kansas City,"5100 Rockhill Rd.,Kansas City,MO,64110",39.0336695,-39.0336695,
University of Missouri-St Louis,"One University Boulevard,Saint Louis,MO,63121",38.7096291,-38.7096291,
University of Mobile,"5735 College Parkway Drive,Mobile,AL,36613",30.7946459,-30.7946459,
University of Montevallo,"Station 6001,Montevallo,AL,35115",33.10917,-33.10917,
University of Mount Olive,"634 Henderson St,Mount Olive,NC,28365",35.20782,-35.20782,
University of Mount Union,"1972 Clark Ave.,Alliance,OH,44601",40.9022553,-40.9022553,
University of Nebraska at Kearney,"905 W 25th St,Kearney,NE,68849",40.7006228,-40.7006228,
University of Nebraska at Omaha,"6001 Dodge St,Omaha,NE,68182",41.2582497,-41.2582497,
University of Nebraska-Lincoln,"14th and R St,Lincoln,NE,68588",40.8175693,-40.8175693,
University of Nevada-Las Vegas,"4505 S Maryland Pky,Las Vegas,NV,89154",36.1065217,-36.1065217,
University of Nevada-Reno,"North Virginia Street,Reno,NV,89557",39.5438691,-39.5438691,
University of New England,"11 Hills Beach Rd,Biddeford,ME,4005",43.4580557,-43.4580557,
University of New Hampshire-Main Campus,"105 Main St., Thompson Hall,Durham,NH,3824",43.1359259,-43.1359259,
University of New Haven,"300 Boston Post Road,West Haven,CT,6516",41.2922972,-41.2922972,
University of New Mexico-Main Campus,"1700 Lomas Blvd NE,Albuquerque,NM,87106",35.0893968,-35.0893968,
University of New Orleans,"2000 Lakeshore Drive,New Orleans,LA,70148",30.0292776,-30.0292776,
University of North Alabama,"One Harrison Plaza,Florence,AL,35632",34.8074555,-34.8074555,
University of North Carolina at Asheville,"One University Heights,Asheville,NC,28804",35.6163781,-35.6163781,
University of North Carolina at Chapel Hill,"103 South Bldg Cb 9100,Chapel Hill,NC,27599",35.9132961,-35.9132961,
University of North Carolina at Charlotte,"9201 University City Blvd,Charlotte,NC,28223",35.3058818,-35.3058818,
University of North Carolina at Greensboro,"1400 Spring Garden St,Greensboro,NC,27402",36.0655864,-36.0655864,
University of North Carolina at Pembroke,"One University Drive,Pembroke,NC,28372",34.6899339,-34.6899339,
University of North Carolina Wilmington,"601 South College Road,Wilmington,NC,28403",34.2277698,-34.2277698,
University of North Dakota,"264 Centennial Drive, Stop 8193,Grand Forks,ND,58202",47.922891,-47.922891,
University of North Florida,"1 UNF Drive,Jacksonville,FL,32224",30.2729275,-30.2729275,
University of North Georgia,"82 College Circle,Dahlonega,GA,30597",34.5302747,-34.5302747,
University of North Texas,"1501 W.Chestnut Ave.,Denton,TX,76203",33.2112391,-33.2112391,
University of Northern Colorado,"Carter Hall - Rm 4000,Greeley,CO,80639",40.4109302,-40.4109302,
University of Northern Iowa,"1227 W 27th St,Cedar Falls,IA,50614",42.514711,-42.514711,
University of Northwestern Ohio,"1441 N Cable Rd,Lima,OH,45805",40.7591151,-40.7591151,
University of Northwestern-St Paul,"3003 Snelling Ave N,Saint Paul,MN,55113",45.0337612,-45.0337612,
University of Notre Dame,"400 Main Building,Notre Dame,IN,46556",41.703084,-41.703084,
University of Oklahoma-Norman Campus,"660 Parrington Oval,Norman,OK,73019",35.2085041,-35.2085041,
University of Oregon,"110 Johnson Hall,Eugene,OR,97403",44.0637862,-44.0637862,
University of Pennsylvania,"34th & Spruce Street,Philadelphia,PA,19104",39.9504425,-39.9504425,
University of Pikeville,"147 Sycamore St,Pikeville,KY,41501",37.4811243,-37.4811243,
University of Pittsburgh-Bradford,"300 Campus Drive,Bradford,PA,16701",41.9453234,-41.9453234,
University of Pittsburgh-Greensburg,"150 Finoli Drive,Greensburg,PA,15601",40.2763342,-40.2763342,
University of Pittsburgh-Johnstown,"450 Schoolhouse Road,Johnstown,PA,15904",40.2675162,-40.2675162,
University of Pittsburgh-Pittsburgh Campus,"4200 Fifth Avenue,Pittsburgh,PA,15260",40.44439,-40.44439,
University of Pittsburgh-Titusville,"504 East Main Street,Titusville,PA,16354",41.6287085,-41.6287085,
University of Portland,"5000 N Willamette Blvd,Portland,OR,97203",45.5735801,-45.5735801,
University of Providence,"1301 Twentieth St S,Great Falls,MT,59405",47.4913797,-47.4913797,
University of Puerto Rico-Aguadilla,"Belt St. Ramey Base,Aguadilla,PR,604",18.4953957,-18.4953957,
University of Puerto Rico-Arecibo,"Finca las Dunas Carr 653 Ruta 129 Km 8,Arecibo,PR,614",18.4652704,-18.4652704,
University of Puerto Rico-Bayamon,"Road 174 #170 Minillas Industrial Park,Bayamon,PR,959",18.3718284,-18.3718284,
University of Puerto Rico-Carolina,"Carretera 887 Bo San Anton,Carolina,PR,984",18.3910677,-18.3910677,
University of Puerto Rico-Cayey,"205 Antonio R. Barcelo Ave.,Cayey,PR,737",18.1176554,-18.1176554,
University of Puerto Rico-Humacao,"Call Box 860,Humacao,PR,792",18.1551337,-18.1551337,
University of Puerto Rico-Mayaguez,"259 Boulevard Alfonso Valdez,Mayaguez,PR,681",18.2086365,-18.2086365,
University of Puerto Rico-Ponce,"2151 Santiago de los Caballeros Avenue,Ponce,PR,716",17.9706117,-17.9706117,
University of Puerto Rico-Rio Piedras,"Rectoria,San Juan,PR,9252526",18.4655394,-18.4655394,
University of Puerto Rico-Utuado,"Carr. # 10 Km. 52.2,Utuado,PR,641",18.1785473,-18.1785473,
University of Puget Sound,"1500 N. Warner Street,Tacoma,WA,98416",47.2639174,-47.2639174,
University of Redlands,"1200 E. Colton Ave,Redlands,CA,92373",34.0623061,-34.0623061,
University of Rhode Island,"Green Hall, 35 Campus Avenue,Kingston,RI,2881",41.4846985,-41.4846985,
University of Richmond,"410 Westhampton Way,University of Richmond,VA,23173",37.5751669,-37.5751669,
University of Rio Grande,"218 N College Ave,Rio Grande,OH,45674",38.8827991,-38.8827991,
University of Rochester,"Wilson Blvd. - Wallis Hall,Rochester,NY,14627",43.1263958,-43.1263958,
University of Saint Francis-Fort Wayne,"2701 Spring St,Fort Wayne,IN,46808",41.0877695,-41.0877695,
University of Saint Joseph,"1678 Asylum Avenue,West Hartford,CT,6117",41.780976,-41.780976,
University of Saint Katherine,"1637 Capalina Road,San Marcos,CA,92069",33.1512468,-33.1512468,
University of Saint Mary,"4100 S 4th St Trafficway,Leavenworth,KS,66048",39.2783084,-39.2783084,
University of San Diego,"5998 Alcala Park,San Diego,CA,92110",32.7716583,-32.7716583,
University of San Francisco,"2130 Fulton St,San Francisco,CA,94117",37.7752654,-37.7752654,
University of Science and Arts of Oklahoma,"17th Street and Grand Avenue,Chickasha,OK,73018",35.0295652,-35.0295652,
University of Scranton,"800 Linden Street,Scranton,PA,18510",41.4067597,-41.4067597,
University of Sioux Falls,"1101 W 22nd St,Sioux Falls,SD,57105",43.5327632,-43.5327632,
University of South Alabama,"307 N University Blvd,Mobile,AL,36688",30.6954258,-30.6954258,
University of South Carolina-Aiken,"471 University Pkwy,Aiken,SC,29801",33.5898667,-33.5898667,
University of South Carolina-Beaufort,"1 University Boulevard,Bluffton,SC,29909",32.3032014,-32.3032014,
University of South Carolina-Columbia,"Columbia-Campus,Columbia,SC,29208",33.9937575,-33.9937575,
University of South Carolina-Lancaster,"476 Hubbard Drive,Lancaster,SC,29720",34.7360763,-34.7360763,
University of South Carolina-Salkehatchie,"465 James Brandt Blvd,Allendale,SC,29810",33.0131258,-33.0131258,
University of South Carolina-Sumter,"200 Miller Rd,Sumter,SC,29150",33.9324793,-33.9324793,
University of South Carolina-Union,"309 East Academy St,Union,SC,29379",34.7178593,-34.7178593,
University of South Carolina-Upstate,"800 University Way,Spartanburg,SC,29303",35.003074,-35.003074,
University of South Dakota,"414 E Clark St,Vermillion,SD,57069",42.7872223,-42.7872223,
University of South Florida-Main Campus,"4202 East Fowler Ave,Tampa,FL,33620",28.0583276,-28.0583276,
University of Southern California,"University Park,Los Angeles,CA,90089",34.0309703,-34.0309703,
University of Southern Indiana,"8600 University Blvd,Evansville,IN,47712",37.9649225,-37.9649225,
University of Southern Maine,"96 Falmouth St,Portland,ME,4103",43.6621143,-43.6621143,
University of Southern Mississippi,"118 College Drive # 0001,Hattiesburg,MS,39406",31.3300116,-31.3300116,
University of St Francis,"500 North Wilcox Street,Joliet,IL,60435",41.5333799,-41.5333799,
University of St Thomas,"3800 Montrose Blvd,Houston,TX,77006",29.7385517,-29.7385517,
University of St Thomas,"2115 Summit Ave,Saint Paul,MN,55105",44.9443261,-44.9443261,
University of the Cumberlands,"6191 College Station Drive,Williamsburg,KY,40769",36.7371496,-36.7371496,
University of the District of Columbia,"4200 Connecticut Ave NW,Washington,DC,20008",38.9444929,-38.9444929,
University of the Incarnate Word,"4301 Broadway,San Antonio,TX,78209",29.4678446,-29.4678446,
University of the Ozarks,"415 N College Ave,Clarksville,AR,72830",35.4785772,-35.4785772,
University of the Pacific,"3601 Pacific Ave,Stockton,CA,95211",37.9774118,-37.9774118,
University of the Sciences,"600 South 43rd Street,Philadelphia,PA,19104",39.9468299,-39.9468299,
University of the Southwest,"6610 North Lovington Hwy,Hobbs,NM,88240",32.7750423,-32.7750423,
University of the Virgin Islands,"2 John Brewers Bay,Charlotte Amalie,VI,802",18.343413,-18.343413,
University of Toledo,"2801 W Bancroft,Toledo,OH,43606",41.6557154,-41.6557154,
University of Tulsa,"800 South Tucker Drive,Tulsa,OK,74104",36.1492597,-36.1492597,
University of Utah,"201 Presidents Circle, ROOM 201,Salt Lake City,UT,84112",40.7650458,-40.7650458,
University of Valley Forge,"1401 Charlestown Road,Phoenixville,PA,19460",40.1190754,-40.1190754,
University of Vermont,"85 S Prospect St,Burlington,VT,5405",44.4782586,-44.4782586,
University of Virginia-Main Campus,"1827 University Avenue,Charlottesville,VA,22903",38.0370443,-38.0370443,
University of Washington-Seattle Campus,"1400 NE Campus Parkway,Seattle,WA,98195",47.6565538,-47.6565538,
University of West Alabama,"100 North Washington Street - Hwy11,Livingston,AL,35470",32.5849811,-32.5849811,
University of West Georgia,"1601 Maple St,Carrollton,GA,30118",33.5735847,-33.5735847,
University of Wisconsin-Eau Claire,"105 Garfield Ave,Eau Claire,WI,54701",44.7985131,-44.7985131,
University of Wisconsin-Green Bay,"2420 Nicolet Dr,Green Bay,WI,54311",44.532204,-44.532204,
University of Wisconsin-La Crosse,"1725 State St,La Crosse,WI,54601",43.8136889,-43.8136889,
University of Wisconsin-Madison,"500 Lincoln Dr,Madison,WI,53706",43.075486,-43.075486,
University of Wisconsin-Milwaukee,"2200 E Kenwood Blvd,Milwaukee,WI,53211",43.0752308,-43.0752308,
University of Wisconsin-Oshkosh,"800 Algoma Blvd,Oshkosh,WI,54901",44.0265059,-44.0265059,
University of Wisconsin-Parkside,"900 Wood Rd,Kenosha,WI,53144",42.6450231,-42.6450231,
University of Wisconsin-Platteville,"1 University Plaza,Platteville,WI,53818",42.7322351,-42.7322351,
University of Wisconsin-River Falls,"410 S 3rd St,River Falls,WI,54022",44.8534105,-44.8534105,
University of Wisconsin-Stevens Point,"2100 Main St,Stevens Point,WI,54481",44.5243265,-44.5243265,
University of Wisconsin-Stout,"712 S. Broadway St.,Menomonie,WI,54751",44.875987,-44.875987,
University of Wisconsin-Superior,"1605 Catlin Ave,Superior,WI,54880",46.7188135,-46.7188135,
University of Wisconsin-Whitewater,"800 W Main St,Whitewater,WI,53190",42.8360981,-42.8360981,
University of Wyoming,"1000 E University Ave.,Laramie,WY,82071",41.3139433,-41.3139433,
Upper Iowa University,"605 Washington St,Fayette,IA,52142",42.8385298,-42.8385298,
Urbana University,"579 College Way,Urbana,OH,430782091",40.1017974,-40.1017974,
Ursinus College,"601 E. Main St,Collegeville,PA,19426",40.1939705,-40.1939705,
Ursuline College,"2550 Lander Rd,Pepper Pike,OH,44124",41.4947679,-41.4947679,
Utah State University,"Old Main Hill,Logan,UT,84322",41.7429398,-41.7429398,
Utah Valley University,"800 W University Parkway,Orem,UT,84058",40.278957,-40.278957,
Utica College,"1600 Burrstone Rd,Utica,NY,13502",43.0967844,-43.0967844,
Valdosta State University,"1500 N Patterson St,Valdosta,GA,31698",30.8465653,-30.8465653,
Valley City State University,"101 College St SW,Valley City,ND,58072",46.9184614,-46.9184614,
Valley Forge Military College,"1001 Eagle Rd,Wayne,PA,19087",40.0533971,-40.0533971,
Valparaiso University,"US Highway 30 and Sturdy Road,Valparaiso,IN,46383",41.4602103,-41.4602103,
Vance-Granville Community College,"200 Community College Road,Henderson,NC,27537",36.3243991,-36.3243991,
Vanderbilt University,"2101 West End Avenue,Nashville,TN,37240",36.1490297,-36.1490297,
Vanguard University of Southern California,"55 Fair Dr,Costa Mesa,CA,92626",33.6632391,-33.6632391,
Vassar College,"124 Raymond Ave,Poughkeepsie,NY,12604",41.6867948,-41.6867948,
Vaughn College of Aeronautics and Technology,"86-01 23rd Avenue,Flushing,NY,11369",40.7679103,-40.7679103,
Ventura College,"4667 Telegraph Rd,Ventura,CA,93003",34.2773843,-34.2773843,
Vermilion Community College,"1900 East Camp Street,Ely,MN,55731",47.9041671,-47.9041671,
Vermont Technical College,"124 Admin Drive,Randolph Center,VT,5061",43.938717,-43.938717,
Vernon College,"4400 College Dr.,Vernon,TX,76384",34.1599813,-34.1599813,
Victor Valley College,"18422 Bear Valley Rd,Victorville,CA,92395",34.473543,-34.473543,
Villa Maria College,"240 Pine Ridge Rd,Buffalo,NY,14225",42.9117779,-42.9117779,
Villanova University,"800 Lancaster Avenue,Villanova,PA,19085",40.0369846,-40.0369846,
Vincennes University,"1002 N First St,Vincennes,IN,47591",38.6878205,-38.6878205,
Virginia Commonwealth University,"910 W Franklin St,Richmond,VA,23284",37.5496312,-37.5496312,
Virginia Military Institute,"VMI Parade,Lexington,VA,24450",37.7913335,-37.7913335,
Virginia Polytechnic Institute and State University,"210 Burruss Hall, 800 Drillfield Dr.,Blacksburg,VA,24061",37.2290053,-37.2290053,
Virginia State University,"1 Hayden Drive,Petersburg,VA,23806",37.2364644,-37.2364644,
Virginia Union University,"1500 N Lombardy St,Richmond,VA,23220",37.5599032,-37.5599032,
Virginia University of Lynchburg,"2058 Garfield Ave,Lynchburg,VA,24501",37.3951947,-37.3951947,
Virginia Wesleyan University,"5817 Wesleyan Drive,Virginia Beach,VA,23455",36.873669,-36.873669,
Viterbo University,"900 Viterbo Drive,La Crosse,WI,54601",43.8022454,-43.8022454,
Volunteer State Community College,"1480 Nashville Pike,Gallatin,TN,37066",36.3660451,-36.3660451,
Voorhees College,"481 Porter Drive,Denmark,SC,29042",33.3072977,-33.3072977,
Wabash Valley College,"2200 College Drive,Mount Carmel,IL,62863",38.4279603,-38.4279603,
Wagner College,"One Campus Rd,Staten Island,NY,10301",40.6149557,-40.6149557,
Wake Forest University,"1834 Wake Forest Road,Winston-Salem,NC,27106",36.1348359,-36.1348359,
Wake Technical Community College,"9101 Fayetteville Road,Raleigh,NC,27603",35.6509206,-35.6509206,
Waldorf University,"106 S Sixth St,Forest City,IA,50436",43.262914,-43.262914,
Walla Walla Community College,"500 Tausick Way,Walla Walla,WA,99362",46.0790886,-46.0790886,
Walla Walla University,"204 S College Ave,College Place,WA,99324",46.0475193,-46.0475193,
Walsh University,"2020 East Maple St,North Canton,OH,44720",40.873658,-40.873658,
Walters State Community College,"500 South Davy Crockett Parkway,Morristown,TN,37813",36.2158742,-36.2158742,
Warner Pacific College,"2219 SE 68th Ave,Portland,OR,97215",45.5070194,-45.5070194,
Warner University,"13895 Hwy 27,Lake Wales,FL,33859",27.8242899,-27.8242899,
Warren Wilson College,"701 Warren Wilson Rd,Swannanoa,NC,28778",35.6114087,-35.6114087,
Wartburg College,"100 Wartburg Blvd.,Waverly,IA,50677",42.7286543,-42.7286543,
Washburn University,"1700 SW College Avenue,Topeka,KS,66621",39.03334,-39.03334,
Washington & Jefferson College,"60 South Lincoln St,Washington,PA,15301",40.1705192,-40.1705192,
Washington Adventist University,"7600 Flower Ave,Takoma Park,MD,20912",38.9868441,-38.9868441,
Washington and Lee University,"204 West Washington Street,Lexington,VA,24450",37.7862788,-37.7862788,
Washington College,"300 Washington Ave,Chestertown,MD,21620",39.2192271,-39.2192271,
Washington State University,"French Administration Building,Pullman,WA,99164",46.7304151,-46.7304151,
Washington University in St Louis,"One Brookings Drive,Saint Louis,MO,63130",38.6487895,-38.6487895,
Waubonsee Community College,"Rte 47 at Waubonsee Drive,Sugar Grove,IL,60554",41.7896779,-41.7896779,
Wayland Baptist University,"1900 W 7th St.,Plainview,TX,79072",34.1869437,-34.1869437,
Wayne County Community College District,"801 W. Fort Street,Detroit,MI,48226",42.327321,-42.327321,
Wayne State College,"1111 Main Street,Wayne,NE,68787",42.2397434,-42.2397434,
Wayne State University,"656 West Kirby Street,Detroit,MI,48202",42.3583263,-42.3583263,
Waynesburg University,"51 W College St,Waynesburg,PA,15370",39.8994825,-39.8994825,
Weatherford College,"225 College Park Drive,Weatherford,TX,76086",32.7412919,-32.7412919,
Webb Institute,"298 Crescent Beach Rd,Glen Cove,NY,11542",40.8831348,-40.8831348,
Webber International University,"1201 N Scenic Hwy,Babson Park,FL,33827",27.8377618,-27.8377618,
Weber State University,"3850 Dixon Parkway Dr. Dept. 1031,Ogden,UT,84408",41.1932522,-41.1932522,
Webster University,"470 E Lockwood Ave.,Saint Louis,MO,63119",38.590513,-38.590513,
Welch College,"1045 Bison Trail,Gallatin,TN,37066",36.365311,-36.365311,
Wells College,"170 Main Street,Aurora,NY,13026",42.7442687,-42.7442687,
Wenatchee Valley College,"1300 Fifth St,Wenatchee,WA,98801",47.4311604,-47.4311604,
Wentworth Institute of Technology,"550 Huntington Ave,Boston,MA,2115",42.3366871,-42.3366871,
Wesley College,"120 N State St,Dover,DE,19901",39.162968,-39.162968,
Wesleyan University,"45 Wyllys Avenue,Middletown,CT,6459",41.5567555,-41.5567555,
West Chester University of Pennsylvania,"University Avenue and High Street,West Chester,PA,19383",39.953788,-39.953788,
West Georgia Technical College,"176 Murphy Campus Blvd.,Waco,GA,30182",33.6909839,-33.6909839,
West Hills College-Coalinga,"300 Cherry Lane,Coalinga,CA,93210",36.1478043,-36.1478043,
West Hills College-Lemoore,"555 College Avenue,Lemoore,CA,93245",36.2926108,-36.2926108,
West Liberty University,"208 University Drive,West Liberty,WV,26074",40.1624403,-40.1624403,
West Los Angeles College,"9000 Overland Avenue,Culver City,CA,90230",34.0042282,-34.0042282,
West Texas A & M University,"2501 4th Ave,Canyon,TX,79016",34.9813968,-34.9813968,
West Valley College,"14000 Fruitvale Ave,Saratoga,CA,95070",37.2640661,-37.2640661,
West Virginia State University,"Rte 25,Institute,WV,25112",38.3862389,-38.3862389,
West Virginia University,"PO Box 6201,Morgantown,WV,26506",39.6480359,-39.6480359,
West Virginia University Institute of Technology,"410 Neville St,Beckley,WV,25801",37.7759524,-37.7759524,
West Virginia Wesleyan College,"59 College Ave,Buckhannon,WV,26201",38.990326,-38.990326,
Western Carolina University,"Highway 107,Cullowhee,NC,28723",35.3111601,-35.3111601,
Western Connecticut State University,"181 White Street,Danbury,CT,6810",41.400054,-41.400054,
Western Illinois University,"1 University Circle,Macomb,IL,61455",40.4766148,-40.4766148,
Western Kentucky University,"1906 College Heights Blvd,Bowling Green,KY,42101",36.9833474,-36.9833474,
Western Michigan University,"1903 W Michigan Ave,Kalamazoo,MI,49008",42.2837337,-42.2837337,
Western Nebraska Community College,"1601 East 27th Street,Scottsbluff,NE,69361",41.8754361,-41.8754361,
Western New England University,"1215 Wilbraham Rd,Springfield,MA,1119",42.1161879,-42.1161879,
Western New Mexico University,"1000 W. College Ave,Silver City,NM,88062",32.7770043,-32.7770043,
Western Oklahoma State College,"2801 N Main St,Altus,OK,73521",34.6689365,-34.6689365,
Western Oregon University,"345 North Monmouth Ave,Monmouth,OR,97361",44.8511456,-44.8511456,
Western State Colorado University,"1 Western Way,Gunnison,CO,81231",38.547862,-38.547862,
Western Technical College,"400 Seventh St. North,La Crosse,WI,54601",43.8153635,-43.8153635,
Western Texas College,"6200 College Ave,Snyder,TX,79549",32.6794057,-32.6794057,
Western Washington University,"516 High Street,Bellingham,WA,98225",48.7342883,-48.7342883,
Western Wyoming Community College,"2500 College Dr,Rock Springs,WY,82901",41.5911812,-41.5911812,
Westfield State University,"577 Western Ave,Westfield,MA,1086",42.1318254,-42.1318254,
Westminster College,"501 Westminster Ave,Fulton,MO,65251",38.8500391,-38.8500391,
Westminster College,"1840 South 1300 East,Salt Lake City,UT,84105",40.7307172,-40.7307172,
Westminster College,"319 South Market  Street,New Wilmington,PA,16172",41.1198678,-41.1198678,
Westmont College,"955 La Paz Rd,Santa Barbara,CA,93108",34.450362,-34.450362,
Westmoreland County Community College,"145 Pavilion Lane,Youngwood,PA,15697",40.2343645,-40.2343645,
Wharton County Junior College,"911 Boling Hwy,Wharton,TX,77488",29.323815,-29.323815,
Whatcom Community College,"237 W Kellogg Rd,Bellingham,WA,98226",48.7947551,-48.7947551,
Wheaton College,"501 College Ave,Wheaton,IL,601875593",41.868737,-41.868737,
Wheaton College,"26 E Main St,Norton,MA,2766",41.966371,-41.966371,
Wheeling Jesuit University,"316 Washington Ave,Wheeling,WV,26003",40.0679295,-40.0679295,
Whitman College,"345 Boyer Ave,Walla Walla,WA,99362",46.0709226,-46.0709226,
Whittier College,"13406 E Philadelphia Street,Whittier,CA,90601",33.9788103,-33.9788103,
Whitworth University,"300 W Hawthorne Rd,Spokane,WA,99251",47.7548497,-47.7548497,
Wichita State University,"1845 N. Fairmount,Wichita,KS,67260",37.716465,-37.716465,
Widener University,"One University Place,Chester,PA,19013",39.861684,-39.861684,
Wilberforce University,"1055 N Bickett Rd,Wilberforce,OH,45384",39.7102223,-39.7102223,
Wiley College,"711 Wiley Ave,Marshall,TX,75670",32.5384916,-32.5384916,
Wilkes University,"84 West South Street,Wilkes-Barre,PA,18766",41.2441949,-41.2441949,
Willamette University,"900 State St,Salem,OR,97301",44.9354439,-44.9354439,
William Carey University,"710 William Carey Parkway,Hattiesburg,MS,39401",31.3039598,-31.3039598,
William Jessup University,"2121 University Avenue,Rocklin,CA,95765",38.8194736,-38.8194736,
William Jewell College,"500 College Hill,Liberty,MO,64068",39.2476836,-39.2476836,
William Paterson University of New Jersey,"300 Pompton Rd,Wayne,NJ,7470",40.9426676,-40.9426676,
William Peace University,"15 E Peace St,Raleigh,NC,27604",35.7892776,-35.7892776,
William Penn University,"201 Trueblood Ave,Oskaloosa,IA,52577",41.3088225,-41.3088225,
William Rainey Harper College,"1200 W Algonquin Rd,Palatine,IL,60067",42.0814531,-42.0814531,
William Woods University,"One University Avenue,Fulton,MO,65251",38.8624839,-38.8624839,
Williams Baptist College,"60 W Fulbright Avenue,Walnut Ridge,AR,72476",36.1245861,-36.1245861,
Williams College,"880 Main St,Williamstown,MA,1267",42.7128303,-42.7128303,
Williston State College,"1410 University Ave,Williston,ND,58801",48.1583902,-48.1583902,
Wilmington College,"1870 Quaker Way,Wilmington,OH,45177",39.4442799,-39.4442799,
Wilmington University,"320 Dupont Hwy,New Castle,DE,19720",39.6818429,-39.6818429,
Wilson College,"1015 Philadelphia Ave,Chambersburg,PA,17201",39.9504106,-39.9504106,
Wingate University,"220 North Camden Road,Wingate,NC,28174",34.9858584,-34.9858584,
Winona State University,"175 West Mark Street,Winona,MN,55987",44.0465984,-44.0465984,
Winston-Salem State University,"601 Martin Luther King Jr Dr,Winston-Salem,NC,27110",36.0868936,-36.0868936,
Winthrop University,"701 Oakland Ave,Rock Hill,SC,29733",34.9397788,-34.9397788,
Wisconsin Lutheran College,"8800 W Bluemound Rd,Milwaukee,WI,53226",43.0379137,-43.0379137,
Wittenberg University,"Ward St at N Wittenberg Ave,Springfield,OH,45504",39.9330898,-39.9330898,
Wofford College,"429 N Church St,Spartanburg,SC,29303",34.9619233,-34.9619233,
Worcester Polytechnic Institute,"100 Institute Road,Worcester,MA,1609",42.274229,-42.274229,
Worcester State University,"486 Chandler St,Worcester,MA,1602",42.2680657,-42.2680657,
Wright State University-Lake Campus,"7600 Lake Campus Drive,Celina,OH,45822",40.5471918,-40.5471918,
Wright State University-Main Campus,"3640 Colonel Glenn Highway,Dayton,OH,45435",39.7765217,-39.7765217,
Xavier University,"3800 Victory Parkway,Cincinnati,OH,45207",39.148913,-39.148913,
Xavier University of Louisiana,"1 Drexel Drive,New Orleans,LA,70125",29.9654259,-29.9654259,
Yakima Valley College,"South 16th Ave. & Nob Hill Blvd.,Yakima,WA,98907",46.5852395,-46.5852395,
Yale University,"2 Whitney Ave.,New Haven,CT,6520",41.3108107,-41.3108107,
Yavapai College,"1100 E Sheldon St,Prescott,AZ,86301",34.5480888,-34.5480888,
Yeshiva University,"500 W 185th St,New York,NY,10033",40.8516512,-40.8516512,
York College,"1125 E 8th St,York,NE,68467",40.86909,-40.86909,
York College of Pennsylvania,"441 Country Club Rd,York,PA,17403",39.9467464,-39.9467464,
Young Harris College,"1 College Street,Young Harris,GA,30582",34.93306,-34.93306,
Youngstown State University,"One University Plaza,Youngstown,OH,44555",41.1066413,-41.1066413,
Yuba College,"2088 N Beale Rd,Marysville,CA,95901",39.1250852,-39.1250852,