Name,Address,Latitude,Longitude
Montana State University,PO BOX 172420 Bozeman MT 597172420,45.6674,-111.0546
Simon Fraser University,8888 University Drive  None None None,49.2768,-122.918
University of the Virgin Islands,2 John Brewers Bay Charlotte Amalie VI 802,18.343413,-64.968532
University of Puerto Rico-Humacao,Call Box 860 Humacao PR 792,18.1551337,-65.8203943
Universidad del Este,Carretera 190 Km 1.8 Esquina Calle 220 Carolina PR 983,18.411038,-65.9820226
University of Puerto Rico-Carolina,Carretera 887 Bo San Anton Carolina PR 984,18.3910677,-65.9898533
Universidad del Turabo,Carr. # 189 Km 3.3 Gurabo PR 778,18.244559,-66.006685
Universidad Politecnica de Puerto Rico,377 Ponce de Leon Ave Hato Rey PR 919,18.4225853,-66.0570192
Universidad Metropolitana,1399 Ave. Ana G. Méndez San Juan PR 926,18.3870373,-66.0614433
University of Puerto Rico-Rio Piedras,Rectoria San Juan PR 9252526,18.4655394,-66.1057355
University of Puerto Rico-Bayamon,Road 174 #170 Minillas Industrial Park Bayamon PR 959,18.3718284,-66.1428143
University of Puerto Rico-Cayey,205 Antonio R. Barcelo Ave. Cayey PR 737,18.1176554,-66.1616042
Caribbean University-Bayamon,167 Ave.  Km 21.2 Bayamon PR 960,18.3870265,-66.1630173
Universidad Central de Bayamon,Avenida Zaya Verde La Milagrosa Barrio Hato Tejas Bayamón PR 960,18.3983485,-66.1830006
American University of Puerto Rico,Carr. #2  Km.14.4  Bo. Hato Tejas Bayamon PR 960,18.4067603,-66.1837486
University of Puerto Rico-Ponce,2151 Santiago de los Caballeros Avenue Ponce PR 716,17.9706117,-66.611796
Pontifical Catholic University of Puerto Rico-Ponce,2250 Boulevard Luis A. Ferre Aguayo Suite 608 Ponce PR 717,18.0033854,-66.6213663
University of Puerto Rico-Utuado,Carr. # 10 Km. 52.2 Utuado PR 641,18.1785473,-66.7343051
University of Puerto Rico-Arecibo,Finca las Dunas Carr 653 Ruta 129 Km 8 Arecibo PR 614,18.4652704,-66.7347812
Inter American University of Puerto Rico-San German,Rd. 102 Km. 30.6 San German PR 683,18.0807082,-67.0411096
University of Puerto Rico-Aguadilla,Belt St. Ramey Base Aguadilla PR 604,18.4953957,-67.1355779
University of Puerto Rico-Mayaguez,259 Boulevard Alfonso Valdez Mayaguez PR 681,18.2086365,-67.1399321
University of Maine at Machias,116 O'Brien Ave Machias ME 4654,44.7078391,-67.4559947
University of Maine at Presque Isle,181 Main St Presque Isle ME 4769,46.6722917,-68.0162995
University of Maine at Fort Kent,23 University Drive Fort Kent ME 4743,47.2503875,-68.5893628
University of Maine,168 College Avenue Orono ME 4469,44.8955674,-68.6735534
Husson University,1 College Circle Bangor ME 4401,44.8288028,-68.7941454
Maine Maritime Academy,1 Pleasant Street Castine ME 4420,44.3870428,-68.7983686
Unity College,90 Quaker Hill Road Unity ME 4988,44.6033491,-69.3308352
Colby College,4000 Mayflower Hill Drive Waterville ME 4901,44.5626829,-69.6600894
Thomas College,180 W River Rd Waterville ME 4901,44.5248738,-69.6639823
University of Maine at Augusta,46 University Dr Augusta ME 4330,44.3422294,-69.7944639
Bowdoin College,255 Maine Street Brunswick ME 4011,43.9068757,-69.9656665
University of Maine at Farmington,224 Main St. Farmington ME 4938,44.6691179,-70.1489877
Bates College,2 Andrews Road Lewiston ME 4240,44.1068479,-70.2041643
Central Maine Community College,1250 Turner Street Auburn ME 4210,44.1333377,-70.2285582
Southern Maine Community College,2 Fort Road South Portland ME 4106,43.6490443,-70.2286139
University of Southern Maine,96 Falmouth St Portland ME 4103,43.6621143,-70.2777677
University of New England,11 Hills Beach Rd Biddeford ME 4005,43.4580557,-70.3884228
Saint Joseph's College of Maine,278 Whites Bridge Rd Standish ME 4084,43.8270272,-70.484296
Massachusetts Maritime Academy,101 Academy Drive Buzzards Bay MA 25321803,41.7408213,-70.6222566
Great Bay Community College,320 Corporate Drive Portsmouth NH 3801,43.0720351,-70.7989879
Gordon College,255 Grapevine Rd Wenham MA 1984,42.5893751,-70.8209286
Endicott College,376 Hale Street Beverly MA 1915,42.5535537,-70.8432115
Salem State University,352 Lafayette St Salem MA 1970,42.5055,-70.890697
University of New Hampshire-Main Campus,105 Main St.  Thompson Hall Durham NH 3824,43.1359259,-70.9324341
Bridgewater State University,131 Summer Street Bridgewater MA 2325,41.987662,-70.9665499
Massasoit Community College,One Massasoit Boulevard Brockton MA 2302,42.0758677,-70.9900209
Quincy College,1250 Hancock Street Quincy MA 2169,42.2519026,-71.0030292
University of Massachusetts-Dartmouth,285 Old Westport Rd North Dartmouth MA 2747,41.6241106,-71.0061107
Eastern Nazarene College,23 E Elm Ave Quincy MA 2170,42.271675,-71.0109838
University of Massachusetts-Boston,100 Morrissey Boulevard Boston MA 2125,42.312004,-71.038475
Northern Essex Community College,100 Elliott Street Haverhill MA 1830,42.7958343,-71.0475482
Suffolk University,8 Ashburton Place Boston MA 2108,42.358981,-71.0618016
Emerson College,120 Boylston Street Boston MA 2116,42.3522392,-71.0657944
Bunker Hill Community College,250 New Rutherford Ave Boston MA 2129,42.3749673,-71.0695871
Benjamin Franklin Institute of Technology,41 Berkeley St Boston MA 2116,42.3460977,-71.070242
Fisher College,118 Beacon Street Boston MA 2116,42.35531,-71.07417
Stonehill College,320 Washington Street Easton MA 2357,42.0590153,-71.0806276
Northeastern University,360 Huntington Ave Boston MA 2115,42.3403745,-71.0893904
Massachusetts Institute of Technology,77 Massachusetts Avenue Cambridge MA 2139,42.3592444,-71.0931389
Roxbury Community College,1234 Columbus Ave Roxbury Crossing MA 2120,42.329242,-71.095479
Wentworth Institute of Technology,550 Huntington Ave Boston MA 2115,42.3366871,-71.0957617
Boston University,One Silber Way Boston MA 2215,42.349583,-71.099535
Emmanuel College,400 The Fenway Boston MA 2115,42.3402743,-71.1025164
Curry College,1071 Blue Hill Ave Milton MA 2186,42.2369018,-71.1136576
Tufts University,161 College Ave. Medford MA 2155,42.4096872,-71.1151849
Lesley University,29 Everett St Cambridge MA 2138,42.3800709,-71.1169071
Harvard University,Massachusetts Hall Cambridge MA 2138,42.3748649,-71.1181752
Bristol Community College,777 Elsbree St Fall River MA 2720,41.7221259,-71.1191353
Merrimack College,315 Turnpike St North Andover MA 1845,42.6714055,-71.1253231
Pine Manor College,400 Heath St Chestnut Hill MA 2467,42.3207628,-71.1565951
Boston College,140 Commonwealth Avenue Chestnut Hill MA 2467,42.3355488,-71.1684945
Wheaton College,26 E Main St Norton MA 2766,41.966371,-71.1839566
Bentley University,175 Forest St Waltham MA 2452,42.3870692,-71.2205583
Lasell College,1844 Commonwealth Avenue Newton MA 2466,42.343169,-71.2443859
Brandeis University,415 South St Waltham MA 2454,42.3641909,-71.2596723
Roger Williams University,One Old Ferry Road Bristol RI 2809,41.6511285,-71.2598636
Babson College,231 Forest Street Wellesley MA 2457,42.2990302,-71.2623405
Massachusetts Bay Community College,50 Oakland St Wellesley Hills MA 2481,42.3116026,-71.2629206
Salve Regina University,100 Ochre Point Avenue Newport RI 2840,41.4728136,-71.2997299
Regis College,235 Wellesley St Weston MA 2493,42.3502881,-71.3089502
University of Massachusetts-Lowell,1 University Ave Lowell MA 1854,42.6539217,-71.3250036
Dean College,99 Main Street Franklin MA 2038,42.084841,-71.3980428
Brown University,One Prospect Street Providence RI 2912,41.8243851,-71.4049155
Johnson & Wales University-Providence,8 Abbott Park Place Providence RI 2903,41.819957,-71.412757
Framingham State University,100 State Street Framingham MA 1701,42.2981072,-71.436075
Providence College,1 Cunningham Square Providence RI 2918,41.8441035,-71.4379605
Southern New Hampshire University,2500 North River Road Manchester NH 3106,43.0413087,-71.4521994
Rhode Island College,600 Mount Pleasant Ave Providence RI 2908,41.8446451,-71.4575338
Rivier University,420 South Main St Nashua NH 30605086,42.7393913,-71.4581483
Community College of Rhode Island,400 East Ave Warwick RI 2886,41.7129353,-71.4816957
Saint Anselm College,100 Saint Anselm Drive Manchester NH 3102,42.9868322,-71.5037827
University of Rhode Island,Green Hall  35 Campus Avenue Kingston RI 2881,41.4846985,-71.5273731
NHTI-Concord's Community College,31 College Drive Concord NH 3301,43.2226424,-71.5313145
Bryant University,1150 Douglas Pike Smithfield RI 2917,41.924952,-71.532786
Plymouth State University,17 High Street Plymouth NH 3264,43.759527,-71.6881916
Fitchburg State University,160 Pearl St Fitchburg MA 1420,42.5881824,-71.7897714
Quinsigamond Community College,670 West Boylston Street Worcester MA 1606,42.3146459,-71.7936924
College of the Holy Cross,One College Street Worcester MA 1610,42.2392391,-71.8079608
Worcester Polytechnic Institute,100 Institute Road Worcester MA 1609,42.274229,-71.8106028
Becker College,61 Sever St Worcester MA 1609,42.2690259,-71.811912
New England College,98 Bridge St Henniker NH 3242,43.1798819,-71.8227956
Clark University,950 Main St Worcester MA 1610,42.2516001,-71.823404
Assumption College,500 Salisbury St Worcester MA 1609,42.2922426,-71.8291624
Worcester State University,486 Chandler St Worcester MA 1602,42.2680657,-71.8438086
Anna Maria College,50 Sunset Lane Paxton MA 1612,42.327075,-71.917944
Nichols College,Center Rd Dudley MA 1571,42.0381398,-71.9336697
Colby-Sawyer College,541 Main St New London NH 3257,43.4143404,-71.971789
Franklin Pierce University,40 University Drive Rindge NH 3461,42.7793667,-72.0560856
University of Connecticut-Avery Point,1084 Shennecossett Rd Groton CT 6340,41.3167794,-72.0647966
Mitchell College,437 Pequot Avenue New London CT 6320,41.3286576,-72.0933635
Connecticut College,270 Mohegan Avenue New London CT 6320,41.3786877,-72.1045869
Eastern Connecticut State University,83 Windham St Willimantic CT 6226,41.7188674,-72.2190755
University of Connecticut,352 Mansfield Road Storrs CT 6269,41.8088143,-72.2498767
Keene State College,229 Main Street Keene NH 3435,42.9255005,-72.280327
Dartmouth College,207 Parkhurst Hall Hanover NH 3755,43.704026,-72.289979
Amherst College,Boltwood Avenue Amherst MA 1002,42.3740663,-72.5189274
Western New England University,1215 Wilbraham Rd Springfield MA 1119,42.1161879,-72.5213374
University of Massachusetts-Amherst,374 Whitmore Building 181 Presidents Drive Amherst MA 1003,42.3861771,-72.5266757
Hampshire College,893 West St Amherst MA 1002,42.3267995,-72.5322876
Springfield College,263 Alden St Springfield MA 1109,42.1021856,-72.5566215
American International College,1000 State Street Springfield MA 1109,42.1131176,-72.5570836
Springfield Technical Community College,1 Armory Sq Springfield MA 1102,42.1088724,-72.5785599
College of Our Lady of the Elms,291 Springfield St Chicopee MA 1013,42.1418743,-72.6016552
Vermont Technical College,124 Admin Drive Randolph Center VT 5061,43.938717,-72.604721
Holyoke Community College,303 Homestead Ave Holyoke MA 1040,42.1955366,-72.6511552
Wesleyan University,45 Wyllys Avenue Middletown CT 6459,41.5567555,-72.6568342
Norwich University,158 Harmon Drive Northfield VT 5663,44.1383439,-72.659023
Johnson State College,337 College Hill Johnson VT 5656,44.641575,-72.671707
Trinity College,300 Summit St Hartford CT 6106,41.7473639,-72.6907806
University of Hartford,200 Bloomfield Ave West Hartford CT 6117,41.7984508,-72.7137664
University of Saint Joseph,1678 Asylum Avenue West Hartford CT 6117,41.780976,-72.7284655
Central Connecticut State University,1615 Stanley St New Britain CT 6050,41.6907573,-72.7709772
Westfield State University,577 Western Ave Westfield MA 1086,42.1318254,-72.7941529
Quinnipiac University,Mt Carmel Ave Hamden CT 6518,41.4239112,-72.8793835
Albertus Magnus College,700 Prospect St New Haven CT 6511,41.3315693,-72.9225714
Yale University,2 Whitney Ave. New Haven CT 6520,41.3108107,-72.9228177
Gateway Community College,20 Church Street New Haven CT 6510,41.3045457,-72.9272621
Southern Connecticut State University,501 Crescent Street New Haven CT 6515,41.3318269,-72.9452722
University of New Haven,300 Boston Post Road West Haven CT 6516,41.2922972,-72.9627347
St. Joseph's College-Long Island,155 W Roe Blvd Patchogue NY 11772,40.7759025,-73.0265071
Suffolk County Community College,533 College Rd Selden NY 11784,40.8470236,-73.0538558
Post University,800 Country Club Rd Waterbury CT 6708,41.535424,-73.081523
Massachusetts College of Liberal Arts,375 Church Street North Adams MA 1247,42.691554,-73.1033372
Stony Brook University,310 Administration Building Stony Brook NY 11794,40.9147317,-73.1203002
Saint Michael's College,One Winooski Park Colchester VT 5439,44.49598,-73.163743
Middlebury College,Old Chapel Middlebury VT 5753,44.0090461,-73.1759781
Castleton University,190 University Drive Castleton VT 5735,43.6072172,-73.1830313
University of Bridgeport,126 Park Avenue Bridgeport CT 6604,41.164718,-73.1903141
University of Vermont,85 S Prospect St Burlington VT 5405,44.4782586,-73.201147
Williams College,880 Main St Williamstown MA 1267,42.7128303,-73.2030404
Sacred Heart University,5151 Park Ave Fairfield CT 6825,41.2212822,-73.2413349
Fairfield University,1073 N Benson Rd Fairfield CT 6824,41.158843,-73.257385
Five Towns College,305 North Service Road Dix Hills NY 11746,40.7945036,-73.368475
Farmingdale State College,2350 Broadhollow Road Farmingdale NY 11735,40.7510877,-73.424351
Clinton Community College,136 Clinton Point Dr. Plattsburgh NY 12901,44.648192,-73.439933
Western Connecticut State University,181 White Street Danbury CT 6810,41.400054,-73.446533
SUNY College at Plattsburgh,101 Broad Street Plattsburgh NY 12901,44.6930943,-73.4666928
SUNY College at Old Westbury,223 Store Hill Rd Old Westbury NY 11568,40.7803282,-73.5780328
Nassau Community College,One Education Dr Garden City NY 11530,40.7290406,-73.5940133
Hofstra University,100 Hofstra University Hempstead NY 11549,40.7166872,-73.5993965
LIU Post,720 Northern Blvd Brookville NY 11548,40.8174969,-73.6052653
New York Institute of Technology,Northern Blvd Old Westbury NY 11568,40.8143914,-73.6118895
Molloy College,1000 Hempstead Ave Rockville Centre NY 11571,40.6849156,-73.6270373
Webb Institute,298 Crescent Beach Rd Glen Cove NY 11542,40.8831348,-73.6434523
Adelphi University,South Ave Garden City NY 11530,40.7227969,-73.6546849
Adirondack Community College,640 Bay Rd Queensbury NY 12804,43.354045,-73.655031
Rensselaer Polytechnic Institute,110 8th St Troy NY 12180,42.729185,-73.6790385
Hudson Valley Community College,80 Vandenburgh Ave Troy NY 12180,42.6958354,-73.6823164
The Sage Colleges,65 1st Street Troy NY 12180,42.7272267,-73.6942256
SUNY at Purchase College,735 Anderson Hill Rd Purchase NY 10577,41.0388731,-73.6963296
Manhattanville College,2900 Purchase St Purchase NY 10577,41.0334555,-73.7168927
Siena College,515 Loudon Rd Loudonville NY 12211,42.716635,-73.7523365
CUNY Queensborough Community College,222-05 56th Avenue Bayside NY 11364,40.7554985,-73.7565195
United States Merchant Marine Academy,300 Steamboat Rd Kings Point NY 11024,40.8127699,-73.7588596
Albany College of Pharmacy and Health Sciences,106 New Scotland Avenue Albany NY 12208,42.6519665,-73.778582
Skidmore College,815 N Broadway Saratoga Springs NY 12866,43.0970833,-73.7852912
The College of Saint Rose,432 Western Ave Albany NY 12203,42.6640071,-73.785568
Iona College,715 North Ave New Rochelle NY 10801,40.9271278,-73.7864435
SUNY Westchester Community College,75 Grasslands Road Valhalla NY 10595,41.0686223,-73.7905546
St John's University-New York,8000 Utopia Pky Queens NY 11439,40.7247555,-73.7923154
CUNY York College,94-20 Guy R. Brewer Blvd Jamaica NY 11451,40.7022966,-73.7960148
SUNY Maritime College,6 Pennyfield Avenue Throggs Neck NY 10465,40.8092024,-73.8010583
Bryant & Stratton College-Albany,1259 Central Ave Albany NY 12205,42.6982085,-73.8098331
Columbia-Greene Community College,4400 Route 23 Hudson NY 12534,42.2176687,-73.8176451
CUNY Queens College,65-30 Kissena Blvd Queens NY 11367,40.7382488,-73.8194845
Concordia College-New York,171 White Plains Rd Bronxville NY 10708,40.9437539,-73.8199427
SUNY at Albany,1400 Washington Avenue Albany NY 12222,42.6895995,-73.8203027
Sarah Lawrence College,1 Mead Way Bronxville NY 10708,40.9342586,-73.8468915
Mercy College,555 Broadway Dobbs Ferry NY 10522,41.0222142,-73.873515
Vaughn College of Aeronautics and Technology,86-01 23rd Avenue Flushing NY 11369,40.7679103,-73.8824069
Fordham University,441 E Fordham Rd Bronx NY 10458,40.8620281,-73.8854257
CUNY Lehman College,250 Bedford Park Blvd West Bronx NY 10468,40.8708651,-73.8867486
Vassar College,124 Raymond Ave Poughkeepsie NY 12604,41.6867948,-73.8952889
Monroe College,2501 Jerome Avenue Bronx NY 10468,40.8644448,-73.9002497
Manhattan College,4513 Manhattan College Parkway Riverdale NY 10471,40.8897823,-73.9027188
College of Mount Saint Vincent,6301 Riverdale Ave Bronx NY 10471,40.9124186,-73.9030114
Dutchess Community College,53 Pendell Rd Poughkeepsie NY 12601,41.7262267,-73.90485
Bard College,30 Campus Rd Annandale NY 12504,42.0193866,-73.9076429
CUNY Bronx Community College,2155 University Avenue Bronx NY 10453,40.8567706,-73.9105102
CUNY Hostos Community College,500 Grand Concourse Bronx NY 10451,40.8181423,-73.9269056
Union College,807 Union St Schenectady NY 12308,42.8155649,-73.9306221
Nyack College,1 South Blvd Nyack NY 10960,41.0863519,-73.9309763
Yeshiva University,500 W 185th St New York NY 10033,40.8516512,-73.9312468
Marist College,3399 North Rd Poughkeepsie NY 12601,41.7216281,-73.9345125
CUNY Kingsborough Community College,2001 Oriental Blvd Brooklyn NY 11235,40.5778144,-73.9355607
St. Thomas Aquinas College,125 Rte 340 Sparkill NY 10976,41.042084,-73.936432
CUNY City College,160 Convent Ave New York NY 10031,40.8216144,-73.9479427
Schenectady County Community College,78 Washington Avenue Schenectady NY 12305,42.8145482,-73.9511974
CUNY Brooklyn College,2900 Bedford Ave Brooklyn NY 11210,40.6308935,-73.951458
Dominican College of Blauvelt,470 Western Highway Orangeburg NY 10962,41.0513059,-73.952747
CUNY Medgar Evers College,1650 Bedford Ave Brooklyn NY 11225,40.6664923,-73.9579327
Pratt Institute-Main,200 Willoughby Ave Brooklyn NY 11205,40.6914694,-73.9628951
Columbia University in the City of New York,West 116 St and Broadway New York NY 10027,40.8079878,-73.9638163
CUNY Hunter College,695 Park Ave New York NY 10065,40.7685437,-73.9651879
St. Joseph's College-New York,245 Clinton Ave Brooklyn NY 11205,40.690509,-73.9677729
Berkeley College-New York,3 East 43 Street New York NY 10017,40.7539196,-73.9795019
CUNY Bernard M Baruch College,One Bernard Baruch Way New York NY 10010,40.7401991,-73.9833745
ASA College,81 Willoughby Street Brooklyn NY 11201,40.6924059,-73.9860842
Touro College,500 7th Avenue New York NY 10018,40.7532218,-73.9892771
CUNY John Jay College of Criminal Justice,524 W 59th St New York NY 10019,40.7711041,-73.9897134
St Francis College,180 Remsen Street Brooklyn Heights NY 11201,40.6932296,-73.9921647
Fashion Institute of Technology,227 W 27th St New York NY 10001,40.7472258,-73.9948612
New York University,70 Washington Sq South New York NY 10012,40.7294556,-73.9971753
Pace University-New York,1 Pace Plaza New York NY 10038,40.710974,-74.0047486
Monmouth University,400 Cedar Ave West Long Branch NJ 7764,40.2800543,-74.0054216
CUNY Borough of Manhattan Community College,199 Chambers St New York NY 10007,40.7174546,-74.0122469
The King's College,56 Broadway New York NY 10004,40.7066799,-74.01234
Mount Saint Mary College,330 Powell Avenue Newburgh NY 12550,41.5108609,-74.0131196
Stevens Institute of Technology,Castle Point On Hudson Hoboken NJ 7030,40.7469277,-74.0258209
Fairleigh Dickinson University-Metropolitan Campus,1000 River Rd Teaneck NJ 7666,40.8980254,-74.030675
Saint Peter's University,2641 J. F. Kennedy Blvd Jersey City NJ 7306,40.7270586,-74.0707688
Rockland Community College,145 College Rd Suffern NY 10901,41.1341622,-74.0848112
State University of New York at New Paltz,1 Hawk Drive New Paltz NY 12561,41.7390054,-74.0851655
New Jersey City University,2039 Kennedy Blvd Jersey City NJ 7305,40.709662,-74.0876563
Bergen Community College,400 Paramus Rd Paramus NJ 7652,40.9516735,-74.0939011
Wagner College,One Campus Rd Staten Island NY 10301,40.6149557,-74.0943823
Felician University,262 S Main St Lodi NJ 7644,40.8668874,-74.0949982
North Country Community College,23 Santanoni Avenue Saranac Lake NY 12983,44.3186802,-74.1204599
Ulster County Community College,491 Cottekill Rd Stone Ridge NY 12484,41.8508952,-74.1312548
Brookdale Community College,765 Newman Springs Rd Lincroft NJ 7738,40.3270495,-74.1339973
College of Staten Island CUNY,2800 Victory Blvd Staten Island NY 10314,40.6080147,-74.1533194
Ocean County College,College Drive Toms River NJ 8754,40.0070826,-74.1640752
Passaic County Community College,One College Blvd Paterson NJ 75051179,40.9184697,-74.1688204
New Jersey Institute of Technology,University Heights Newark NJ 7102,40.7350747,-74.1739057
Ramapo College of New Jersey,505 Ramapo Valley Rd Mahwah NJ 7430,41.081602,-74.1753734
Rutgers University-Newark,249 University Avenue  Blumenthal Hall Newark NJ 7102,40.7390392,-74.1753804
Essex County College,303 University Ave Newark NJ 7102,40.7383477,-74.1783959
Berkeley College-Woodland Park,44 Rifle Camp Rd Woodland Park NJ 7424,40.8986902,-74.1896832
Bloomfield College,467 Franklin St Bloomfield NJ 7003,40.7947084,-74.1964937
William Paterson University of New Jersey,300 Pompton Rd Wayne NJ 7470,40.9426676,-74.1973551
Montclair State University,1 Normal Avenue Montclair NJ 7043,40.8647437,-74.1985735
Georgian Court University,900 Lakewood Ave Lakewood NJ 8701,40.0997898,-74.2274498
Kean University,1000 Morris Avenue Union NJ 7083,40.6764579,-74.2284791
Seton Hall University,400 S Orange Ave South Orange NJ 7079,40.7421078,-74.2502202
Paul Smiths College of Arts and Science,7777 State Route 30 Paul Smiths NY 12970,44.4393179,-74.2563022
Caldwell University,120 Bloomfield Avenue Caldwell NJ 7006,40.8356398,-74.2697785
Fulton-Montgomery Community College,2805 State Hwy 67 Johnstown NY 12095,42.9830843,-74.2933756
Union County College,1033 Springfield Ave. Cranford NJ 7016,40.6677,-74.3202
Middlesex County College,2600 Woodbridge Avenue Edison NJ 8818,40.5082704,-74.371293
Drew University,36 Madison Ave Madison NJ 7940,40.7612505,-74.4252577
Orange County Community College,115 South St Middletown NY 10940,41.4386164,-74.4261043
Fairleigh Dickinson University-Florham Campus,285 Madison Ave Madison NJ 7940,40.7741362,-74.4382335
College of Saint Elizabeth,2 Convent Rd Morristown NJ 7960,40.7806132,-74.4393729
Rutgers University-New Brunswick,7 College Avenue  2nd Floor New Brunswick NJ 8901,40.4982079,-74.4467932
SUNY College of Agriculture and Technology at Cobleskill,State Route 7 Cobleskill NY 12043,42.6778477,-74.4854177
Stockton University,101 Vera King Farris Drive Galloway NJ 8205,39.4914249,-74.5309483
County College of Morris,214 Center Grove Rd Randolph NJ 7869,40.8600762,-74.5779078
Mercer County Community College,1200 Old Trenton Rd West Windsor NJ 8550,40.2546343,-74.6517922
Princeton University,1 Nassau Hall Princeton NJ 8544,40.3486278,-74.6593444
Sullivan County Community College,112 College Road Loch Sheldrake NY 12759,41.7727955,-74.6669741
Atlantic Cape Community College,5100 Black Horse Pike Mays Landing NJ 8330,39.4606358,-74.6796745
Raritan Valley Community College,118 Lamington Road Branchburg NJ 8876,40.61085,-74.6933756
Rider University,2083 Lawrence Road Lawrenceville NJ 8648,40.2660866,-74.7418715
Sussex County Community College,One College Hill Road Newton NJ 7860,41.0682488,-74.7579259
The College of New Jersey,2000 Pennington Road Ewing NJ 8628,40.2686403,-74.777411
Centenary University,400 Jefferson St Hackettstown NJ 7840,40.8474559,-74.8343839
Rowan College at Burlington County,900 College Circle Mount Laurel NJ 8054,39.972204,-74.894486
Cairn University-Langhorne,200 Manor Ave Langhorne PA 19047,40.1650923,-74.9087964
SUNY College of Technology at Delhi,2 Main Street Delhi NY 13753,42.272466,-74.9217814
Bucks County Community College,275 Swamp Rd Newtown PA 18940,40.2402579,-74.9661755
SUNY College at Potsdam,44 Pierrepont Ave Potsdam NY 13676,44.6617901,-74.9723275
Holy Family University,9801 Frankford Avenue Philadelphia PA 19114,40.0592303,-74.9886069
Clarkson University,8 Clarkson Ave Potsdam NY 13699,44.6650767,-74.9943713
Herkimer County Community College,100 Reservoir Rd Herkimer NY 13350,43.0322822,-75.006246
Camden County College,200 College Drive Blackwood NJ 8012,39.7855923,-75.0378157
Cumberland County College,3322 College Drive Vineland NJ 8362,39.4410843,-75.0561718
Bryn Athyn College of the New Church,801 Tomlinson Rd Bryn Athyn PA 19009,40.1320822,-75.0597001
SUNY Oneonta,108 Ravine Parkway Oneonta NY 13820,42.4716666,-75.061936
Hartwick College,One Hartwick Drive Oneonta NY 13820,42.4586674,-75.0718461
Manor College,700 Fox Chase Rd Jenkintown PA 19046,40.0871795,-75.1047498
Pennsylvania State University-Penn State Abington,1600 Woodland Road Abington PA 19001,40.1152666,-75.1106301
Rowan University,201 Mullica Hill Road Glassboro NJ 8028,39.7086852,-75.1177774
Rutgers University-Camden,406 Penn Camden NJ 8102,39.9478964,-75.1213581
Rowan College at Gloucester County,1400 Tanyard Road Sewell NJ 8080,39.7810635,-75.1230686
La Salle University,1900 W Olney Ave Philadelphia PA 19141,40.0377071,-75.1533282
Delaware Valley University,700 E Butler Ave Doylestown PA 18901,40.2991045,-75.1564069
Temple University,1801 North Broad Street Philadelphia PA 19122,39.9803512,-75.1570681
Thomas Jefferson University,1020 Walnut Street Philadelphia PA 19107,39.9482624,-75.1582775
St Lawrence University,23 Romoda Drive Canton NY 13617,44.5918928,-75.1613747
Arcadia University,450 S Easton Rd Glenside PA 19038,40.092564,-75.1638865
Community College of Philadelphia,1700 Spring Garden St Philadelphia PA 19130,39.9621811,-75.1656649
East Stroudsburg University of Pennsylvania,200 Prospect Street East Stroudsburg PA 18301,40.9974053,-75.1774259
SUNY College of Technology at Canton,34 Cornell Drive Canton NY 13617,44.6013495,-75.1831272
Drexel University,3141 Chestnut St Philadelphia PA 19104,39.9540928,-75.1868606
University of Pennsylvania,34th & Spruce Street Philadelphia PA 19104,39.9504425,-75.1925902
University of the Sciences,600 South 43rd Street Philadelphia PA 19104,39.9468299,-75.2070979
Lafayette College,730 High St Easton PA 18042,40.7002085,-75.2079306
Mohawk Valley Community College,1101 Sherman Dr Utica NY 13501,43.077007,-75.218217
Chestnut Hill College,9601 Germantown Ave Philadelphia PA 19118,40.0874677,-75.2281838
SUNY Polytechnic Institute,100 Seymour Rd Utica NY 13502,43.1352919,-75.2292116
Saint Joseph's University,5600 City Avenue Philadelphia PA 19131,39.995634,-75.2406137
Gwynedd Mercy University,1325 Sumneytown Pike Gwynedd Valley PA 19437,40.1937701,-75.2420808
Utica College,1600 Burrstone Rd Utica NY 13502,43.0967844,-75.2719684
Montgomery County Community College,340 Dekalb Pike Blue Bell PA 19422,40.1767143,-75.2772543
Haverford College,370  Lancaster Ave Haverford PA 19041,40.0119253,-75.2996179
Harcum College,750 Montgomery Ave Bryn Mawr PA 19010,40.0225303,-75.3147519
Northampton County Area Community College,3835 Green Pond Rd Bethlehem PA 18020,40.6730296,-75.3227965
Rosemont College,1400 Montgomery Ave Rosemont PA 190101499,40.0325184,-75.3284567
Villanova University,800 Lancaster Avenue Villanova PA 19085,40.0369846,-75.3444079
Swarthmore College,500 College Ave Swarthmore PA 19081,39.906932,-75.3514659
Widener University,One University Place Chester PA 19013,39.861684,-75.3577535
Cabrini University,610 King of Prussia Rd Radnor PA 19087,40.055158,-75.3673972
Eastern University,1300 Eagle Rd Saint Davids PA 19087,40.0533472,-75.3689757
DeSales University,2755 Station Avenue Center Valley PA 18034,40.5384792,-75.3776524
Lehigh University,27 Memorial Drive West Bethlehem PA 18015,40.6068348,-75.3801693
Moravian College,1200 Main St Bethlehem PA 18018,40.6310594,-75.3809254
Valley Forge Military College,1001 Eagle Rd Wayne PA 19087,40.0533971,-75.3821423
Delaware County Community College,901 S Media Line Rd Media PA 19063,39.9674581,-75.3928612
Pennsylvania State University-Penn State Lehigh Valley,2809 Saucon Valley Road Center Valley PA 18034,40.5591506,-75.4025594
Hamilton College,198 College Hill Rd Clinton NY 13323,43.0498348,-75.4060418
Neumann University,One Neumann Drive Aston PA 19014,39.8753225,-75.440805
Pennsylvania State University-Penn State Brandywine,25 Yearsley Mill Road Media PA 19063,39.9271084,-75.4496758
Ursinus College,601 E. Main St Collegeville PA 19426,40.1939705,-75.456321
Muhlenberg College,2400 Chew Street Allentown PA 18104,40.5955704,-75.5098359
Cedar Crest College,100 College Drive Allentown PA 18104,40.5860439,-75.5192347
Cheyney University of Pennsylvania,1837 University Circle Cheyney PA 19319,39.9350609,-75.5271118
Wesley College,120 N State St Dover DE 19901,39.162968,-75.5272569
Colgate University,13 Oak Drive Hamilton NY 13346,42.8183255,-75.5364956
Delaware State University,1200 N. Dupont Highway Dover DE 19901,39.1884429,-75.5395702
University of Valley Forge,1401 Charlestown Road Phoenixville PA 19460,40.1190754,-75.5488824
Delaware Technical Community College-Terry,100 Campus Drive Dover DE 19901,39.1980302,-75.5627461
Immaculata University,1145 King Rd Immaculata PA 19345,40.0279019,-75.5684709
Wilmington University,320 Dupont Hwy New Castle DE 19720,39.6818429,-75.5862524
West Chester University of Pennsylvania,University Avenue and High Street West Chester PA 19383,39.953788,-75.5980628
Salisbury University,1101 Camden Ave Salisbury MD 21801,38.3446815,-75.6051794
Lehigh Carbon Community College,4525 Education Park Dr Schnecksville PA 18078,40.6647699,-75.6135799
Pennsylvania State University-Penn State Worthington Scranton,120 Ridge View Drive Dunmore PA 18512,41.4401197,-75.6208369
Marywood University,2300 Adams Ave Scranton PA 18509,41.4337093,-75.6372183
Morrisville State College,80 Eaton Street Morrisville NY 13408,42.8944699,-75.6454025
University of Scranton,800 Linden Street Scranton PA 18510,41.4067597,-75.6587919
Lackawanna College,501 Vine St Scranton PA 18509,41.4115723,-75.6589023
University of Maryland Eastern Shore,J.T. Williams Hall Princess Anne MD 21853,38.2102166,-75.6848002
Clarks Summit University,538 Venard Rd South Abington Township PA 18411,41.4951198,-75.6854254
Goldey-Beacom College,4701 Limestone Rd Wilmington DE 19808,39.7415725,-75.6895335
University of Delaware,104 Hullihen Hall Newark DE 19716,39.6795367,-75.7530606
Keystone College,One College Green La Plume PA 18440,41.5590074,-75.7774047
Kutztown University of Pennsylvania,15200 Kutztown Rd Kutztown PA 19530,40.5080523,-75.7827961
Cazenovia College,22 Sullivan St Cazenovia NY 13035,42.9324543,-75.8550304
King's College,133 N River St Wilkes-Barre PA 18711,41.2499979,-75.8792655
Wilkes University,84 West South Street Wilkes-Barre PA 18766,41.2441949,-75.8902177
SUNY Broome Community College,907 Upper Front St Binghamton NY 13905,42.1348317,-75.9088227
Albright College,1621 N. 13th St. Reading PA 19612,40.3603494,-75.9105617
Lincoln University,1570 Baltimore Pike Lincoln University PA 19352,39.8070754,-75.928587
Jefferson Community College,1220 Coffeen St Watertown NY 13601,43.9924713,-75.9340762
Alvernia University,400 Saint Bernardine St Reading PA 19607,40.3108142,-75.9353044
Cecil College,One Seahawk Drive North East MD 21901,39.6410412,-75.9564579
Davis College,400 Riverside Drive Johnson City NY 13790,42.1007417,-75.9621312
Binghamton University,4400 Vestal Parkway East Vestal NY 13850,42.0934421,-75.9719572
Pennsylvania State University-Penn State Berks,P.O. Box 7009 Reading PA 196106009,40.358819,-75.973271
Misericordia University,301 Lake St Dallas PA 18612,41.3443717,-75.9733062
Luzerne County Community College,1333 South Prospect Street Nanticoke PA 18634,41.1962017,-75.9911844
Pennsylvania State University-Penn State Wilkes-Barre,44 University Drive Dallas PA 18612,41.3066138,-76.0139965
Pennsylvania State University-Penn State Hazleton,76 University Drive Hazleton PA 18202,40.9837226,-76.0297619
Washington College,300 Washington Ave Chestertown MD 21620,39.2192271,-76.0696493
Chesapeake College,1000 College Circle Wye Mills MD 21679,38.9532484,-76.0844681
Le Moyne College,1419 Salt Springs Rd Syracuse NY 13214,43.0496767,-76.0890901
SUNY College of Environmental Science and Forestry,One Forestry Dr. Syracuse NY 13210,43.0345102,-76.1366182
Bryant & Stratton College-Syracuse,953 James St Syracuse NY 13203,43.0589909,-76.1368423
Syracuse University,900 South Crouse Ave. Syracuse NY 13244,43.049345,-76.138055
Bryant & Stratton College-Virginia Beach,301 Centre Pointe Dr Virginia Beach VA 23462,36.8278959,-76.1381446
Pennsylvania State University-Penn State Schuylkill,200 University Drive Schuylkill Haven PA 17972,40.6393157,-76.167348
Virginia Wesleyan University,5817 Wesleyan Drive Virginia Beach VA 23455,36.873669,-76.187809
SUNY Cortland,Miller Building Cortland NY 13045,42.5990088,-76.1878379
Regent University,1000 Regent University Dr Virginia Beach VA 23464,36.8009596,-76.1937881
Onondaga Community College,4585 West Seneca Turnpike Syracuse NY 13215,43.0040883,-76.1972107
Elizabeth City State University,1704 Weeksville Rd Elizabeth City NC 27909,36.2747718,-76.2095787
Mid-Atlantic Christian University,715 N Poindexter St Elizabeth City NC 27909,36.3046,-76.2171
Bryant & Stratton College-Syracuse North,8687 Carling Rd Liverpool NY 13090,43.1896516,-76.240219
Norfolk State University,700 Park Avenue Norfolk VA 23504,36.8480161,-76.262085
Harford Community College,401 Thomas Run Rd Bel Air MD 21015,39.5587983,-76.2842133
Tompkins Cortland Community College,170 North St Dryden NY 13053,42.5026424,-76.2865588
Lancaster Bible College,901 Eden Rd Lancaster PA 17601,40.0736288,-76.2881167
Thaddeus Stevens College of Technology,750 E King St Lancaster PA 17602,40.0382795,-76.2888212
Old Dominion University,5115 Hampton Blvd Norfolk VA 23529,36.8839664,-76.3039779
Franklin and Marshall College,College Ave Lancaster PA 17604,40.0435373,-76.3196332
Hampton University,100 E. Queen Street Hampton VA 23668,37.0228029,-76.3343449
Millersville University of Pennsylvania,1 South George Street  Lyle Hall Millersville PA 17551,39.99705,-76.3543343
Thomas Nelson Community College,99 Thomas Nelson Drive Hampton VA 23666,37.0634225,-76.4186005
St Mary's College of Maryland,18952 East Fisher Road St. Mary's City MD 20686,38.1880114,-76.4238269
Bloomsburg University of Pennsylvania,400 E Second St Bloomsburg PA 17815,41.0079402,-76.4472892
Community College of Baltimore County,7201 Rossville Blvd. Baltimore MD 21237,39.3535763,-76.4823018
Cornell University,300 Day Hall Ithaca NY 14853,42.4472814,-76.4831835
Christopher Newport University,1 Avenue of the Arts Newport News VA 23606,37.0608093,-76.4899457
St. John's College,60 College Ave Annapolis MD 21401,38.9815431,-76.4913256
Ithaca College,953 Danby Road Ithaca NY 14850,42.4199351,-76.4969643
Lebanon Valley College,101 N College Ave Annville PA 17003,40.3312446,-76.514673
Anne Arundel Community College,101 College Pky Arnold MD 21012,39.0490696,-76.516773
SUNY College at Oswego,7060 State Route 104 Oswego NY 13126,43.4542181,-76.5408426
Cayuga County Community College,197 Franklin Street Auburn NY 13021,42.9439149,-76.5437655
Morgan State University,1700 East Cold Spring Lane Baltimore MD 21251,39.3442922,-76.5824211
Elizabethtown College,One Alpha Drive Elizabethtown PA 17022,40.1503251,-76.589792
Goucher College,1021 Dulaney Valley Rd Baltimore MD 21204,39.408765,-76.596545
Towson University,8000 York Rd Towson MD 21252,39.3936139,-76.6070574
Loyola University Maryland,4501 N Charles St Baltimore MD 21210,39.3476737,-76.6172375
Johns Hopkins University,3400 N Charles St Baltimore MD 21218,39.3304957,-76.6200464
Notre Dame of Maryland University,4701 N Charles St Baltimore MD 21210,39.3519363,-76.6218536
Coppin State University,2500 West North Avenue Baltimore MD 21216,39.3126114,-76.6579046
Baltimore City Community College,2901 Liberty Heights Avenue Baltimore MD 21215,39.3207741,-76.6619365
Wells College,170 Main Street Aurora NY 13026,42.7442687,-76.6965816
Stevenson University,1525 Greenspring Valley Rd Stevenson MD 21153,39.4213621,-76.7017879
Pennsylvania State University-Penn State York,1031 Edgecomb Avenue York PA 17403,39.9510771,-76.7043393
University of Maryland-Baltimore County,1000 Hilltop Circle  UMBC Event Center Baltimore MD 21250,39.2523419,-76.707431
College of William and Mary,200 Richmond Road Williamsburg VA 23187,37.271949,-76.709328
York College of Pennsylvania,441 Country Club Rd York PA 17403,39.9467464,-76.7281509
Pennsylvania State University-Penn State Harrisburg,777 West Harrisburg Pike Middletown PA 17057,40.1971999,-76.7456189
Bowie State University,14000 Jericho Park Rd Bowie MD 20715,39.0192914,-76.7594039
Elmira College,One Park Place Elmira NY 14901,42.0977801,-76.8154584
Prince George's Community College,301 Largo Rd Largo MD 20774,38.8867498,-76.826701
Susquehanna University,514 University Ave Selinsgrove PA 17870,40.799708,-76.8704196
Harrisburg University of Science and Technology,326 Market Street Harrisburg PA 171012208,40.2619027,-76.8804026
Harrisburg Area Community College,1 HACC Dr. Harrisburg PA 17110,40.2972076,-76.8850673
Bucknell University,One Dent Drive Lewisburg PA 17837,40.9547722,-76.8850759
Howard Community College,10901 Little Patuxent Pkwy Columbia MD 21044,39.2140416,-76.8889297
Central Penn College,600 Valley Road Summerdale PA 17093,40.3049419,-76.9343724
Paul D Camp Community College,100 N College Dr Franklin VA 23851,36.6744182,-76.9378049
University of Maryland-College Park,Main Administration Building College Park MD 20742,38.9859963,-76.9398645
Hobart William Smith Colleges,337 Pulteney Street Geneva NY 14456,42.858059,-76.9843327
Messiah College,One College Ave Mechanicsburg PA 17055,40.1579079,-76.9882272
Gallaudet University,800 Florida Ave  NE Washington DC 20002,38.9073649,-76.9937325
Catholic University of America,620 Michigan Avenue  NE Washington DC 20064,38.9326676,-76.9979452
Lycoming College,One College Place Williamsport PA 17701,41.2446263,-76.9982694
Washington Adventist University,7600 Flower Ave Takoma Park MD 20912,38.9868441,-77.0012376
McDaniel College,2 College Hill Westminster MD 21157,39.5817181,-77.0021763
Trinity Washington University,125 Michigan Ave NE Washington DC 20017,38.9275319,-77.0024664
College of Southern Maryland,8730 Mitchell Rd La Plata MD 20646,38.558853,-77.006125
Pennsylvania College of Technology,One College Ave Williamsport PA 17701,41.234716,-77.021041
Howard University,2400 Sixth St NW Washington DC 20059,38.9232583,-77.0215943
George Washington University,2121 I Street  NW Washington DC 20052,38.9009637,-77.0476606
University of the District of Columbia,4200 Connecticut Ave NW Washington DC 20008,38.9444929,-77.0653829
Georgetown University,37th and O St NW Washington DC 20057,38.9076192,-77.0716128
Corning Community College,1 Academic Dr Corning NY 14830,42.1167732,-77.0739717
Mansfield University of Pennsylvania,Academy Street Mansfield PA 16933,41.8105202,-77.0763329
American University,4400 Massachusetts Ave NW Washington DC 20016,38.9399652,-77.0880213
Keuka College,141 Central Avenue Keuka Park NY 14478,42.6153271,-77.0905313
Chowan University,One University Place Murfreesboro NC 27855,36.4354563,-77.0969759
Marymount University,2807 N Glebe Rd Arlington VA 22207,38.9053535,-77.1280225
Montgomery College,9221 Corporate Blvd Rockville MD 20850,39.1092607,-77.1905491
Dickinson College,College and Louther Streets Carlisle PA 17013,40.2044944,-77.2025574
Northern Virginia Community College,4001 Wakefield Chapel Rd Annandale VA 22003,38.8363305,-77.2380855
Gettysburg College,300 North Washington Street Gettysburg PA 17325,39.8355775,-77.2390784
Finger Lakes Community College,3325 Marvin Sands Drive Canandaigua NY 14424,42.8671852,-77.2410092
George Mason University,4400 University Dr Fairfax VA 22030,38.8336468,-77.3146731
Mount St. Mary's University,16300 Old Emmitsburg Road Emmitsburg MD 21727,39.683818,-77.3491773
East Carolina University,East 5th Street Greenville NC 27858,35.6066409,-77.3559964
Richard Bland College of William and Mary,11301 Johnson Rd. South Prince George VA 23805,37.1557326,-77.3999951
Pitt Community College,1986 Pitt Tech Road Winterville NC 28590,35.5495861,-77.4068109
Frederick Community College,7932 Opossumtown Pike Frederick MD 21702,39.451818,-77.4184975
Virginia State University,1 Hayden Drive Petersburg VA 23806,37.2364644,-77.4198758
Hood College,401 Rosemont Ave Frederick MD 21701,39.4213829,-77.4202024
Virginia Union University,1500 N Lombardy St Richmond VA 23220,37.5599032,-77.4518215
Virginia Commonwealth University,910 W Franklin St Richmond VA 23284,37.5496312,-77.4526597
Lock Haven University,401 North Fairview Street Lock Haven PA 17745,41.1421859,-77.4623094
University of Mary Washington,1301 College Ave Fredericksburg VA 22401,38.2996039,-77.4714072
Randolph-Macon College,204 Henry St Ashland VA 23005,37.7607275,-77.4771433
Saint John Fisher College,3690 East Ave Rochester NY 14618,43.1159106,-77.511753
Nazareth College,4245 East Ave Rochester NY 14618,43.101447,-77.5169235
Shippensburg University of Pennsylvania,1871 Old Main Drive Shippensburg PA 172572299,40.0578944,-77.5224378
University of Richmond,410 Westhampton Way University of Richmond VA 23173,37.5751669,-77.5407146
Pennsylvania State University-Penn State Mont Alto,1 Campus Drive Mont Alto PA 17237,39.8407473,-77.5433661
Lenoir Community College,231 Highway 58 South Kinston NC 28502,35.2338386,-77.5710846
Monroe Community College,1000 E Henrietta Rd Rochester NY 14623,43.1046748,-77.6133815
University of Rochester,Wilson Blvd. - Wallis Hall Rochester NY 14627,43.1263958,-77.6311747
Wilson College,1015 Philadelphia Ave Chambersburg PA 17201,39.9504106,-77.6489591
Hagerstown Community College,11400 Robinwood Dr Hagerstown MD 21742,39.630176,-77.667316
Rochester Institute of Technology,1 Lomb Memorial Dr Rochester NY 14623,43.0839247,-77.6746139
Bryant & Stratton College-Greece,854 Long Pond Road Rochester NY 14612,43.2405383,-77.6955733
North Carolina Wesleyan College,3400 N Wesleyan Blvd Rocky Mount NC 27804,36.018937,-77.7768554
Alfred University,One Saxon Drive Alfred NY 14802,42.253418,-77.7877052
SUNY College of Technology at Alfred,10 Upper College Drive Alfred NY 14802,42.2552377,-77.7946533
Roberts Wesleyan College,2301 Westside Dr Rochester NY 14624,43.1255219,-77.7965187
Shepherd University,301 North King St Shepherdstown WV 25443,39.4362419,-77.8088216
SUNY College at Geneseo,1 College Circle Geneseo NY 14454,42.7960069,-77.8238627
Pennsylvania State University-Main Campus,201 Old Main University Park PA 16802,40.7964727,-77.8628163
University of North Carolina Wilmington,601 South College Road Wilmington NC 28403,34.2277698,-77.8796689
Barton College,200 E. ACC Drive Wilson NC 27893,35.735325,-77.912724
SUNY College at Brockport,350 New Campus Dr Brockport NY 14420,43.2127878,-77.9471833
Cape Fear Community College,411 North Front Street Wilmington NC 28401,34.2400947,-77.9498267
Juniata College,1700 Moore St Huntingdon PA 16652,40.4989319,-78.0175377
University of Mount Olive,634 Henderson St Mount Olive NC 28365,35.20782,-78.0710887
Genesee Community College,One College Rd Batavia NY 14020,43.0169369,-78.1378683
Houghton College,1 Willard Ave Houghton NY 14744,42.4266355,-78.1567104
Shenandoah University,1460 University Dr Winchester VA 22601,39.1660132,-78.1583626
Brunswick Community College,50 College Rd Bolivia NC 28422,34.038474,-78.2290128
Louisburg College,501 N. Main St. Louisburg NC 27549,36.0967977,-78.3023105
Johnston Community College,245 College Road Smithfield NC 27577,35.5019508,-78.3309705
Longwood University,201 High St Farmville VA 23909,37.3011542,-78.3944433
Pennsylvania State University-Penn State Altoona,3000 Ivyside Park Altoona PA 16601,40.5418014,-78.4105275
Hampden-Sydney College,College Road Hampden-Sydney VA 23943,37.2390019,-78.4592625
St Bonaventure University,3261 W. State Road Saint Bonaventure NY 14778,42.0799022,-78.4845212
Vance-Granville Community College,200 Community College Road Henderson NC 27537,36.3243991,-78.4882843
University of Virginia-Main Campus,1827 University Avenue Charlottesville VA 22903,38.0370443,-78.5026341
Mount Aloysius College,7373 Admiral Peary Hwy Cresson PA 16630,40.4605496,-78.6015124
Saint Augustine's University,1315 Oakwood Avenue Raleigh NC 27610,35.7861807,-78.6217993
William Peace University,15 E Peace St Raleigh NC 27604,35.7892776,-78.6374522
Shaw University,118 East South Street Raleigh NC 27601,35.771133,-78.637922
Saint Francis University,117 Evergreen Dr Loretto PA 15940,40.5066666,-78.6390027
North Carolina State University at Raleigh,2101 Hillsborough Street Raleigh NC 27695,35.7863971,-78.6631364
University of Pittsburgh-Bradford,300 Campus Drive Bradford PA 16701,41.9453234,-78.6711081
Wake Technical Community College,9101 Fayetteville Road Raleigh NC 27603,35.6509206,-78.704019
Allegany College of Maryland,12401 Willowbrook Rd SE Cumberland MD 21502,39.6528705,-78.7296188
Campbell University,143 Main Street Buies Creek NC 27506,35.4091517,-78.7382773
Pennsylvania State University-Penn State DuBois,1 College Place DuBois PA 15801,41.126886,-78.7515173
Southeastern Community College,4564 Chadbourn Hwy Whiteville NC 28472,34.3318364,-78.7823082
University at Buffalo,12 Capen Hall Buffalo NY 14260,43.00095,-78.789729
Daemen College,4380 Main St Amherst NY 14226,42.9650703,-78.7897573
Villa Maria College,240 Pine Ridge Rd Buffalo NY 14225,42.9117779,-78.7964308
Hilbert College,5200 South Park Avenue Hamburg NY 14075,42.7543894,-78.8226909
University of Pittsburgh-Johnstown,450 Schoolhouse Road Johnstown PA 15904,40.2675162,-78.8356821
Pennsylvania Highlands Community College,101 Community College Way Johnstown PA 15904,40.2641463,-78.8373796
Canisius College,2001 Main St Buffalo NY 14208,42.9272065,-78.8528401
Medaille College,18 Agassiz Circle Buffalo NY 14214,42.9283234,-78.8556046
Methodist University,5400 Ramsey St Fayetteville NC 28311,35.1296003,-78.8671408
James Madison University,800 South Main Street Harrisonburg VA 22807,38.4400229,-78.8716115
Erie Community College,121 Ellicott St Buffalo NY 14203,42.8817115,-78.872411
Bryant & Stratton College-Buffalo,465 Main Street  Suite 400 Buffalo NY 14203,42.8864942,-78.8732513
Eastern Mennonite University,1200 Park Rd Harrisonburg VA 22802,38.4700518,-78.8776293
Niagara County Community College,3111 Saunders Settlement Rd Sanborn NY 14132,43.1463793,-78.8776835
SUNY Buffalo State,1300 Elmwood Ave Buffalo NY 14222,42.9336263,-78.8805479
D'Youville College,320 Porter Ave Buffalo NY 14201,42.9025892,-78.890939
Fayetteville State University,1200 Murchison Rd Fayetteville NC 28301,35.0742206,-78.8924896
North Carolina Central University,1801 Fayetteville Street Durham NC 27707,35.9747369,-78.8981013
Fayetteville Technical Community College,P.O. Box 35236 Fayetteville NC 28303,35.0666422,-78.9258784
Frostburg State University,101 Braddock Road Frostburg MD 21532,39.6498765,-78.9345627
Duke University,103 Allen Bldg Durham NC 27708,36.0014258,-78.9382286
Bridgewater College,402 E College St Bridgewater VA 22812,38.3789235,-78.9670039
Potomac State College of West Virginia University,101 Fort Ave Keyser WV 26726,39.4386592,-78.9828047
Coastal Carolina University,103 Tom Trout Drive Conway SC 29526,33.795026,-79.011802
Niagara University,Lewiston Road Niagara University NY 14109,43.1369816,-79.0349955
University of North Carolina at Chapel Hill,103 South Bldg Cb 9100 Chapel Hill NC 27599,35.9132961,-79.050072
Mary Baldwin University,318 Prospect Street Staunton VA 24401,38.1538783,-79.0692549
Central Carolina Community College,1105 Kelly Dr Sanford NC 27330,35.471033,-79.1452451
Virginia University of Lynchburg,2058 Garfield Ave Lynchburg VA 24501,37.3951947,-79.1515461
Indiana University of Pennsylvania-Main Campus,1011 South Dr 201 Sutton Hall Indiana PA 15705,40.6173325,-79.1582925
Randolph College,2500 Rivermont Ave Lynchburg VA 24503,37.4382161,-79.1711433
Liberty University,1971 University Blvd Lynchburg VA 24515,37.3530503,-79.1770145
University of Lynchburg,1501 Lakeside Dr Lynchburg VA 24501,37.4006002,-79.183153
University of North Carolina at Pembroke,One University Drive Pembroke NC 28372,34.6899339,-79.2005823
Jamestown Community College,525 Falconer St Jamestown NY 14701,42.115959,-79.2204426
SUNY at Fredonia,280 Central Ave Fredonia NY 14063,42.4531174,-79.3407522
Garrett College,687 Mosser Road McHenry MD 21541,39.5606927,-79.3427732
Southern Virginia University,1 University Hill Drive Buena Vista VA 24416,37.7412142,-79.351594
Clarion University of Pennsylvania,840 Wood Street Clarion PA 16214,41.2104564,-79.3802567
Saint Vincent College,300 Fraser Purchase Rd Latrobe PA 15650,40.2924241,-79.4056599
Sandhills Community College,3395 Airport Rd Pinehurst NC 28374,35.220301,-79.408025
Averett University,420 W Main St Danville VA 24541,36.577241,-79.4130591
Virginia Military Institute,VMI Parade Lexington VA 24450,37.7913335,-79.4378109
Washington and Lee University,204 West Washington Street Lexington VA 24450,37.7862788,-79.4440548
St. Andrews University,1700 Dogwood Mile Laurinburg NC 28352,34.7447182,-79.4797726
Elon University,100 Campus Drive Elon NC 27244,36.1048942,-79.5045112
University of Pittsburgh-Greensburg,150 Finoli Drive Greensburg PA 15601,40.2763342,-79.531353
Seton Hill University,1 Seton Hill Drive Greensburg PA 15601,40.3093459,-79.557385
Westmoreland County Community College,145 Pavilion Lane Youngwood PA 15697,40.2343645,-79.5647341
Francis Marion University,4822 East Palmetto Street Florence SC 29506,34.1959695,-79.6496086
Pennsylvania State University-Penn State Fayette- Eberly,2201 University Drive Lemont Furnace PA 15456,39.9464376,-79.6557889
University of Pittsburgh-Titusville,504 East Main Street Titusville PA 16354,41.6287085,-79.6641393
Pennsylvania State University-Penn State New Kensington,3550 Seventh Street Road  Route 780 New Kensington PA 15068,40.5502322,-79.6960747
Rockingham Community College,215 Wrenn Memorial Road Wentworth NC 27375,36.387759,-79.755614
North Carolina A & T State University,1601 E Market  St Greensboro NC 27411,36.0723647,-79.7721276
Greensboro College,815 W Market St Greensboro NC 27401,36.071019,-79.800028
University of North Carolina at Greensboro,1400 Spring Garden St Greensboro NC 27402,36.0655864,-79.8130382
Florence-Darlington Technical College,2715 W. Lucas Street Florence SC 29501,34.2449336,-79.8160169
Pennsylvania State University-Penn State Greater Allegheny,4000 University Drive McKeesport PA 15132,40.3448411,-79.8274638
Mercyhurst University-North East Campus,16 W Division St North East PA 16428,42.2196529,-79.8357581
Davis & Elkins College,100 Campus Dr Elkins WV 26241,38.9315561,-79.8457802
Patrick Henry Community College,645 Patriot Avenue Martinsville VA 24112,36.7405668,-79.8719025
California University of Pennsylvania,250 University Ave California PA 15419,40.0632191,-79.8842393
Guilford College,5800 W Friendly Avenue Greensboro NC 27410,36.0895288,-79.8894081
Butler County Community College,107 College Drive Butler PA 16002,40.8295624,-79.9126669
Guilford Technical Community College,601 E. Main Street Jamestown NC 27282,35.9986281,-79.9185706
Chatham University,Woodland Rd Pittsburgh PA 15232,40.4476155,-79.9234718
College of Charleston,66 George St Charleston SC 29424,32.7834631,-79.9372833
Carnegie Mellon University,5000 Forbes Avenue Pittsburgh PA 15213,40.4441647,-79.9433725
University of Pittsburgh-Pittsburgh Campus,4200 Fifth Avenue Pittsburgh PA 15260,40.44439,-79.9534133
Citadel Military College of South Carolina,171 Moultrie St Charleston SC 29409,32.7975896,-79.9589578
Carlow University,3333 Fifth Ave Pittsburgh PA 15213,40.4389338,-79.9631161
West Virginia University,PO Box 6201 Morgantown WV 26506,39.6480359,-79.9697147
Pennsylvania State University-Penn State Erie-Behrend College,5103 Station Road Erie PA 16563,42.123143,-79.9805656
Duquesne University,Administration Bldg 600 Forbes Ave Pittsburgh PA 15282,40.4367914,-79.989232
High Point University,One University Parkway High Point NC 27268,35.9721829,-79.99517
Point Park University,201 Wood St Pittsburgh PA 15222,40.4383106,-80.0016107
La Roche College,9000 Babcock Blvd Pittsburgh PA 15237,40.5684407,-80.014329
Community College of Allegheny County,800 Allegheny Ave Pittsburgh PA 15233,40.450889,-80.0184712
Ferrum College,215 Ferrum Mountain Road Ferrum VA 24088,36.9264771,-80.0206987
Slippery Rock University of Pennsylvania,1 Morrow Way Slippery Rock PA 16057,41.0630249,-80.0411691
Palm Beach Atlantic University,901 S. Flagler Drive West Palm Beach FL 33401,26.7047472,-80.0504326
Alderson Broaddus University,101 College Hill Drive Philippi WV 26416,39.1579337,-80.053085
Mercyhurst University,501 E 38th St Erie PA 16546,42.1050202,-80.0537305
Roanoke College,221 College Lane Salem VA 24153,37.294248,-80.054927
Coker College,300 E College Ave Hartsville SC 29550,34.3765863,-80.0704879
Charleston Southern University,9200 University Blvd Charleston SC 29406,32.9821829,-80.0706554
Palm Beach State College,4200 Congress Ave Lake Worth FL 33461,26.6119841,-80.0869018
Gannon University,109 W Sixth St Erie PA 16541,42.128853,-80.0869301
Florida Atlantic University,777 Glades Rd Boca Raton FL 33431,26.3693119,-80.1058477
Lynn University,3601 N. Military Trail Boca Raton FL 33431,26.3845609,-80.125528
Edinboro University of Pennsylvania,219 Meadville Street Edinboro PA 16444,41.8713002,-80.1283606
Broward College,111 East Las Olas Blvd Fort Lauderdale FL 33301,26.119446,-80.141768
Allegheny College,520 N Main St Meadville PA 16335,41.6482949,-80.1454261
Fairmont State University,1201 Locust Ave Fairmont WV 26554,39.4857867,-80.1630335
Keiser University-Ft Lauderdale,1500 NW 49th St. Fort Lauderdale FL 33309,26.1859033,-80.1640222
Johnson & Wales University-North Miami,1701 NE 127th St North Miami FL 33181,25.89405,-80.165215
Davidson County Community College,297 DCCC Road Thomasville NC 27360,35.866896,-80.18047
Waynesburg University,51 W College St Waynesburg PA 15370,39.8994825,-80.1876914
Miami Dade College,300 NE 2nd Avenue Miami FL 33132,25.7775568,-80.1910373
Barry University,11300 NE 2nd Ave Miami FL 33161,25.8791629,-80.1963767
Robert Morris University,6001 University Boulevard Moon Township PA 15108,40.5215511,-80.2119216
West Virginia Wesleyan College,59 College Ave Buckhannon WV 26201,38.990326,-80.2206477
Winston-Salem State University,601 Martin Luther King Jr Dr Winston-Salem NC 27110,36.0868936,-80.2248157
Nova Southeastern University,3301 College Ave Fort Lauderdale FL 33314,26.0788141,-80.240128
Washington & Jefferson College,60 South Lincoln St Washington PA 15301,40.1705192,-80.240583
Salem College,601 S Church St Winston-Salem NC 27101,36.0875173,-80.2412072
Piedmont International University,420 S. Broad St. Winston-Salem NC 27101,36.0878249,-80.2502847
Carolina Christian College,4209 Indiana Avenue Winston Salem NC 27105,36.1461702,-80.256222
St Thomas University,16401 NW 37th Ave Miami Gardens FL 33054,25.9237724,-80.258063
Florida Memorial University,15800 NW 42 Avenue Miami Gardens FL 33054,25.9182546,-80.27079
Wake Forest University,1834 Wake Forest Road Winston-Salem NC 27106,36.1348359,-80.2708623
University of Miami,University of Miami Coral Gables FL 33146,25.7178924,-80.2746368
Pfeiffer University,48380 US Hwy 52N Misenheimer NC 28109,35.4842942,-80.2833972
Pennsylvania State University-Penn State Beaver,100 University Drive Monaca PA 15061,40.6781827,-80.296282
Community College of Beaver County,1 Campus Drive Monaca PA 15061,40.6551335,-80.3050181
Florida National University-Main Campus,4425 West 20th Avenue Hialeah FL 33012,25.8617133,-80.3219199
Geneva College,3200 College Ave Beaver Falls PA 15010,40.7739825,-80.323008
Westminster College,319 South Market  Street New Wilmington PA 16172,41.1198678,-80.3322642
Morris College,100 West College Street Sumter SC 29150,33.9380183,-80.347028
Indian River State College,3209 Virginia Ave Fort Pierce FL 34981,27.4225457,-80.3582089
University of South Carolina-Sumter,200 Miller Rd Sumter SC 29150,33.9324793,-80.373
Florida International University,11200 S. W. 8 Street Miami FL 33199,25.7567674,-80.3820014
Thiel College,75 College Ave Greenville PA 16125,41.4119742,-80.3839179
Virginia Polytechnic Institute and State University,210 Burruss Hall  800 Drillfield Dr. Blacksburg VA 24061,37.2290053,-80.4236441
Wingate University,220 North Camden Road Wingate NC 28174,34.9858584,-80.4465673
Catawba College,2300 W Innes St Salisbury NC 28144,35.6915176,-80.4838367
Livingstone College,701 W Monroe St Salisbury NC 28144,35.6710363,-80.4847923
Pennsylvania State University-Penn State Shenango,147 Shenango Avenue Sharon PA 161461537,41.2352108,-80.5092001
Radford University,801 East Main St. Radford VA 24142,37.1398766,-80.5510635
Bethany College,31 E Campus Dr Bethany WV 26032,40.206055,-80.559834
Salem International University,223 W Main St Salem WV 26426,39.2829927,-80.5659428
West Liberty University,208 University Drive West Liberty WV 26074,40.1624403,-80.6041133
Florida Institute of Technology,150 West University Boulevard Melbourne FL 32901,28.0644994,-80.6231186
Franciscan University of Steubenville,1235 University Blvd Steubenville OH 43952,40.3772091,-80.6243999
Youngstown State University,One University Plaza Youngstown OH 44555,41.1066413,-80.6480952
Eastern Gateway Community College,4000 Sunset Blvd Steubenville OH 43952,40.3762371,-80.6723117
Wheeling Jesuit University,316 Washington Ave Wheeling WV 26003,40.0679295,-80.6912264
Surry Community College,630 S. Main Street Dobson NC 27017,36.385371,-80.7161576
University of North Carolina at Charlotte,9201 University City Blvd Charlotte NC 28223,35.3058818,-80.7353002
Eastern Florida State College,1519 Clearlake Rd Cocoa FL 32922,28.3837737,-80.7588541
University of South Carolina-Lancaster,476 Hubbard Drive Lancaster SC 29720,34.7360763,-80.78846
Queens University of Charlotte,1900 Selwyn Ave Charlotte NC 28274,35.1887678,-80.8329348
Glenville State College,200 High Street Glenville WV 26351,38.9348779,-80.833222
Davidson College,102 N. Main Street Davidson NC 28035,35.499519,-80.847593
South Carolina State University,300 College St NE Orangeburg SC 29117,33.4983391,-80.8478861
Johnson & Wales University-Charlotte,801 West Trade Street Charlotte NC 28202,35.2329541,-80.850839
Claflin University,400 Magnolia Street Orangeburg SC 29115,33.4990214,-80.854211
Johnson C Smith University,100 Beatties Ford Road Charlotte NC 28216,35.243588,-80.8569359
University of South Carolina-Beaufort,1 University Boulevard Bluffton SC 29909,32.3032014,-80.9735947
Concord University,1000 Vermillion Street Athens WV 24712,37.4226958,-81.007817
Benedict College,1600 Harden Street Columbia SC 29204,34.01302,-81.0195629
Allen University,1530 Harden Street Columbia SC 29204,34.0109162,-81.0209006
Winthrop University,701 Oakland Ave Rock Hill SC 29733,34.9397788,-81.0286239
University of South Carolina-Columbia,Columbia-Campus Columbia SC 29208,33.9937575,-81.0299186
Columbia College,1301 Columbia College Dr Columbia SC 29203,34.0455993,-81.0306086
Bethune-Cookman University,640 Dr Mary McLeod Bethune Blvd Daytona Beach FL 32114,29.2121248,-81.0322912
Belmont Abbey College,100 Belmont-Mt Holly Road Belmont NC 28012,35.2621669,-81.0431492
Clinton College,1029 Crawford Rd Rock Hill SC 29730,34.9134385,-81.0433782
Daytona State College,1200 W. International Speedway Blvd. Daytona Beach FL 32114,29.2029077,-81.0499348
Embry-Riddle Aeronautical University-Daytona Beach,600 S Clyde Morris Blvd Daytona Beach FL 32114,29.1916159,-81.0500189
Savannah State University,3219 College Street Savannah GA 31404,32.0252322,-81.0658063
Columbia International University,7435 Monticello Rd Columbia SC 29203,34.0753414,-81.0753481
Savannah College of Art and Design,342 Bull St Savannah GA 31402,32.072944,-81.093773
University of Mount Union,1972 Clark Ave. Alliance OH 44601,40.9022553,-81.1087684
Denmark Technical College,1126 Solomon Blatt Blvd Denmark SC 29042,33.311775,-81.1257727
Voorhees College,481 Porter Drive Denmark SC 29042,33.3072977,-81.1300088
Hiram College,PO Box 1808 Hiram OH 44234,41.3125552,-81.1437098
West Virginia University Institute of Technology,410 Neville St Beckley WV 25801,37.7759524,-81.1908928
University of Central Florida,4465 Knights Victory Way Orlando FL 32816,28.6082727,-81.1926631
Appalachian Bible College,161 College Drive Mount Hope WV 25880,37.853737,-81.2029951
Bluefield State College,219 Rock St Bluefield WV 24701,37.267207,-81.2374697
Bluefield College,3000 College Avenue Bluefield VA 24605,37.2460648,-81.2425273
Lake Erie College,391 W Washington St Painesville OH 44077,41.716033,-81.252144
Catawba Valley Community College,2550 Hwy 70 SE Hickory NC 28602,35.6998273,-81.2879271
University of South Carolina-Salkehatchie,465 James Brandt Blvd Allendale SC 29810,33.0131258,-81.2996407
Full Sail University,3300 University Boulevard Winter Park FL 327927429,28.5965556,-81.3013461
Stetson University,421 N Woodland Blvd DeLand FL 32723,29.0347047,-81.3032231
Seminole State College of Florida,100 Weldon Blvd Sanford FL 32773,28.7441889,-81.3032986
Flagler College-St Augustine,74 King Street Saint Augustine FL 32084,29.8930524,-81.3149756
Lenoir-Rhyne University,625 7th Avenue NE Hickory NC 28601,35.7414291,-81.3262171
Kent State University at Kent,Executive Office  2nd Floor Library Kent OH 44242,41.1467499,-81.343939
Rollins College,1000 Holt Avenue Winter Park FL 32789,28.5926825,-81.346687
Lakeland Community College,7700 Clocktower Drive Kirtland OH 44094,41.639741,-81.361688
Johnson University Florida,1011 Bill Beck Blvd Kissimmee FL 34744,28.301658,-81.362402
Walsh University,2020 East Maple St North Canton OH 44720,40.873658,-81.369656
Malone University,2600 Cleveland Avenue NW Canton OH 44709,40.826423,-81.3838467
Kent State University at Tuscarawas,330 University Dr N.E. New Philadelphia OH 446639403,40.4677399,-81.407199
Ave Maria University,5050 Ave Maria Blvd Ave Maria FL 34142,26.3366663,-81.4372098
Bryant & Stratton College-Solon,33001 Solon Rd. Solon OH 44139,41.3900122,-81.4458996
Marietta College,Irvine Bldg Marietta OH 45750,39.4166304,-81.4500664
Ursuline College,2550 Lander Rd Pepper Pike OH 44124,41.4947679,-81.4649747
Caldwell Community College and Technical Institute,2855 Hickory Boulevard Hudson NC 28638,35.8575917,-81.4867301
College of Coastal Georgia,One College Drive Brunswick GA 31520,31.1832649,-81.4867812
South Florida State College,600 W College Dr Avon Park FL 33825,27.5690062,-81.5082074
University of North Florida,1 UNF Drive Jacksonville FL 32224,30.2729275,-81.5092789
University of Akron Main Campus,302 Buchtel Common Akron OH 44325,41.0754323,-81.5123774
Notre Dame College,4545 College Rd Cleveland OH 44121,41.5075825,-81.5153247
John Carroll University,1 John Carroll Boulevard University Heights OH 44118,41.4905071,-81.5293129
Webber International University,1201 N Scenic Hwy Babson Park FL 33827,27.8377618,-81.5314696
Ohio Valley University,1 Campus View Drive Vienna WV 26105,39.3071375,-81.5399514
Warner University,13895 Hwy 27 Lake Wales FL 33859,27.8242899,-81.5928231
Jacksonville University,2800 University Blvd N Jacksonville FL 32211,30.3520387,-81.6041061
Case Western Reserve University,10900 Euclid Ave Cleveland OH 44106,41.50462,-81.609732
University of Charleston,2300 MacCorkle Avenue   SE Charleston WV 25304,38.332982,-81.6152387
Newberry College,2100 College St Newberry SC 29108,34.2857182,-81.620719
University of South Carolina-Union,309 East Academy St Union SC 29379,34.7178593,-81.6210187
Limestone College,1115 College Drive Gaffney SC 29340,35.056615,-81.6485209
Florida State College at Jacksonville,501 W State St Jacksonville FL 32202,30.3349528,-81.6623217
Gardner-Webb University,Main St Boiling Springs NC 28017,35.2428038,-81.6656819
Cleveland State University,2121 Euclid Avenue Cleveland OH 44115,41.5024973,-81.6747179
Appalachian State University,287 Rivers St Boone NC 28608,36.2109506,-81.6777048
Saint Johns River State College,5001 Saint Johns Ave Palatka FL 32177,29.6458337,-81.6815312
Cuyahoga Community College District,700 Carnegie Ave Cleveland OH 44115,41.4948675,-81.6835567
Edward Waters College,1658 Kings Rd Jacksonville FL 32209,30.3436937,-81.6836704
Polk State College,999 Avenue H NE Winter Haven FL 33881,28.0324218,-81.7145536
Muskingum University,163 Stormont Street New Concord OH 43762,39.9973291,-81.7365664
University of South Carolina-Aiken,471 University Pkwy Aiken SC 29801,33.5898667,-81.7476394
West Virginia State University,Rte 25 Institute WV 25112,38.3862389,-81.7712349
Florida Gulf Coast University,10501 Fgcu Blvd S Fort Myers FL 33965,26.4616473,-81.7715464
Georgia Southern University,Brannen Hall  Room 2015  2670 Southern Drive Statesboro GA 30460,32.4286684,-81.7822479
Trinity Baptist College,800 Hammond Blvd Jacksonville FL 32221,30.3093671,-81.7964722
Emory & Henry College,30461 Garnand Drive Emory VA 24327,36.7732717,-81.8298879
Baldwin Wallace University,275 Eastland Rd Berea OH 44017,41.3684663,-81.844763
Lees-McRae College,191 Main Street Banner Elk NC 28604,36.162553,-81.873382
Presbyterian College,503 South Broad Street Clinton SC 29325,34.4669734,-81.8798708
Florida SouthWestern State College,8099 College Parkway Fort Myers FL 33919,26.5568395,-81.8880531
Lake-Sumter State College,9501 US Hwy 441 Leesburg FL 34788,28.9016582,-81.9133714
Southeastern University,1000 Longfellow Blvd Lakeland FL 33801,28.0301306,-81.9179961
Wofford College,429 N Church St Spartanburg SC 29303,34.9619233,-81.9330213
The College of Wooster,1189 Beall Avenue Wooster OH 44691,40.8101944,-81.9346786
Florida Southern College,111 Lake Hollingsworth Dr Lakeland FL 33801,28.0296636,-81.94494
University of South Carolina-Upstate,800 University Way Spartanburg SC 29303,35.003074,-81.969488
Spartanburg Methodist College,1000 Powell Mill Road Spartanburg SC 29301,34.9551165,-81.9708637
Augusta University,1120 Fifteenth St Augusta GA 30912,33.4706236,-81.9899149
Paine College,1235 15th Street Augusta GA 30901,33.4682106,-81.993618
Lorain County Community College,1005 North Abbe Rd Elyria OH 44035,41.4128041,-82.0721412
Ohio University-Main Campus,020 Chubb Hall Athens OH 45701,39.3267795,-82.1010849
King University,1350 King College Rd Bristol TN 37620,36.585985,-82.1565326
Lander University,320 Stanley Avenue Greenwood SC 29649,34.2008662,-82.1666042
College of Central Florida,3001 SW College Rd Ocala FL 34474,29.1626611,-82.1729158
Hocking College,3301 Hocking Parkway Nelsonville OH 45764,39.4440015,-82.2212398
Oberlin College,173 West Lorain Street Oberlin OH 44074,41.2935549,-82.2236069
Saint Leo University,33701 State Road 52 Saint Leo FL 33574,28.335714,-82.257251
Milligan College,1 Blowers Blvd. Milligan College TN 37682,36.3011675,-82.2910856
Montreat College,PO Box 1267 Montreat NC 28757,35.64959,-82.2936293
East Georgia State College,131 College Cir Swainsboro GA 30401,32.5933275,-82.3065228
Ashland University,401 College Avenue Ashland OH 44805,40.8614368,-82.3228059
University of Florida,Tigert Hall Gainesville FL 32611,29.6494246,-82.3399209
Bob Jones University,1700 Wade Hampton Boulavard Greenville SC 29614,34.8750509,-82.3644856
East Tennessee State University,1276 Gilbreath Drive Johnson City TN 37614,36.3041643,-82.3668444
North Greenville University,7801 N. Tigerville Road Tigerville SC 29688,35.0688319,-82.3698592
University of Rio Grande,218 N College Ave Rio Grande OH 45674,38.8827991,-82.3790524
Florida College,119 N Glen Arven Ave Temple Terrace FL 33617,28.034409,-82.383043
Erskine College,P.O. Box 338 Due West SC 29639,34.3305278,-82.3905527
Kenyon College,Kenyon College Gambier OH 43022,40.3718965,-82.3983079
University of South Florida-Main Campus,4202 East Fowler Ave Tampa FL 33620,28.0583276,-82.4098765
St Clair County Community College,323 Erie Street Port Huron MI 48061,42.9781738,-82.4279188
Marshall University,1 John Marshall Dr Huntington WV 25755,38.4223904,-82.4289042
Furman,3300 Poinsett Highway Greenville SC 29613,34.9279032,-82.4314732
Santa Fe College,3000 Northwest 83rd Street Gainesville FL 32606,29.6813724,-82.4332952
Warren Wilson College,701 Warren Wilson Rd Swannanoa NC 28778,35.6114087,-82.4414224
Hillsborough Community College,39 Columbia Drive Tampa FL 33606,27.9348426,-82.4562776
The University of Tampa,401 W Kennedy Blvd Tampa FL 33606,27.9479478,-82.464656
Mount Vernon Nazarene University,800 Martinsburg Rd Mount Vernon OH 43050,40.372867,-82.4711181
University of Pikeville,147 Sycamore St Pikeville KY 41501,37.4811243,-82.5206131
Denison University,100 West College Street Granville OH 43023,40.0711678,-82.5238552
Mars Hill University,100 Athletic St Mars Hill NC 28754,35.8274056,-82.5523992
The University of Virginia's College at Wise,1 College Avenue Wise VA 24293,36.9707461,-82.5604501
University of North Carolina at Asheville,One University Heights Asheville NC 28804,35.6163781,-82.5672238
Florida Gateway College,149 SE College Pl Lake City FL 32025,30.176324,-82.5707793
Brewton-Parker College,201 David-Eliza Fountain Circle Mount Vernon GA 30445,32.1858028,-82.5847651
State College of Florida-Manatee-Sarasota,5840 26th St W Bradenton FL 34207,27.4369786,-82.5877361
Anderson University,316 Boulevard Anderson SC 29621,34.5143475,-82.6382155
Pasco-Hernando State College,10230 Ridge Road New Port Richey FL 34654,28.275714,-82.646333
Trinity College of Florida,2430 Welbilt Boulevard Trinity FL 34655,28.194591,-82.6783348
Eckerd College,4200 54th Ave S Saint Petersburg FL 33711,27.7181319,-82.6870725
St Petersburg College,6021 142nd  Ave N Clearwater FL 33760,27.9025272,-82.7173478
Brevard College,One Brevard College Drive Brevard NC 28712,35.2367409,-82.7294959
Tusculum College,60 Shiloh Road Greeneville TN 37743,36.1740586,-82.7608345
Southern Wesleyan University,907 Wesleyan Drive Central SC 29630,34.7283676,-82.7626067
Clemson University,201 Sikes Hall Clemson SC 29634,34.679339,-82.835136
South Georgia State College,100 W College Park Dr Douglas GA 31533,31.4976533,-82.854555
Alice Lloyd College,100 Purpose Rd Pippa Passes KY 41844,37.3344951,-82.8770547
Ohio Christian University,1476 Lancaster Pike Circleville OH 43113,39.6118969,-82.9057777
Otterbein University,1 South Grove Street Westerville OH 43081,40.1253397,-82.9363279
Capital University,1 College and Main Columbus OH 43209,39.9571011,-82.9398718
Ohio Dominican University,1216 Sunbury Road Columbus OH 43219,39.9920005,-82.9416691
Kentucky Christian University,100 Academic Pkwy Grayson KY 41143,38.3391318,-82.946694
Macomb Community College,14500 E Twelve Mile Rd Warren MI 48088,42.5028411,-82.9703145
Columbus State Community College,550 E Spring St Columbus OH 43215,39.9692367,-82.9872695
Shawnee State University,940  Second  St Portsmouth OH 45662,38.7312312,-82.9946411
Ohio State University-Main Campus,190 N. Oval Mall Columbus OH 43210,40.0007775,-83.0132446
Wayne County Community College District,801 W. Fort Street Detroit MI 48226,42.327321,-83.0544561
Ohio Wesleyan University,61 S Sandusky Street Delaware OH 43015,40.2934076,-83.0655841
Wayne State University,656 West Kirby Street Detroit MI 48202,42.3583263,-83.0721008
University of Detroit Mercy,4001 W McNichols Rd Detroit MI 48221,42.4155262,-83.1367549
Rochester College,800 West Avon Road Rochester Hills MI 48307,42.666778,-83.14539
Emmanuel College,181 Springs St Franklin Springs GA 30639,34.2821297,-83.1475551
Heidelberg University,310 E Market St Tiffin OH 44883,41.1163289,-83.1680644
Tiffin University,155 Miami Street Tiffin OH 44883,41.1184446,-83.1845635
Western Carolina University,Highway 107 Cullowhee NC 28723,35.3111601,-83.1881927
Oakland University,201 Meadow Brook Rd Rochester MI 483094451,42.671408,-83.218935
Georgia Military College,201 E Greene St Milledgeville GA 31061,33.0786691,-83.2245845
University of Michigan-Dearborn,4901 Evergreen Rd Dearborn MI 48128,42.3184187,-83.2310262
Georgia College & State University,231 W Hancock Street Milledgeville GA 31061,33.0828388,-83.2316715
Henry Ford College,5101 Evergreen Rd Dearborn MI 48128,42.3239417,-83.2341422
Oakland Community College,2480 Opdyke Rd Bloomfield Hills MI 48304,42.5954493,-83.2448295
Lawrence Technological University,21000 West Ten Mile Road Southfield MI 48075,42.4737249,-83.2519389
Walters State Community College,500 South Davy Crockett Parkway Morristown TN 37813,36.2158742,-83.2626361
Valdosta State University,1500 N Patterson St Valdosta GA 31698,30.8465653,-83.2900234
Toccoa Falls College,107 Kincaid Drive Toccoa Falls GA 30598,34.5962723,-83.3598841
University of Georgia,Administration Building Athens GA 30602,33.9562553,-83.3740399
Madonna University,36600 Schoolcraft Rd Livonia MI 48150,42.3842285,-83.404726
Schoolcraft College,18600 Haggerty Road Livonia MI 48152,42.4182614,-83.4258319
Morehead State University,University Blvd Morehead KY 40351,38.1883028,-83.4327032
Alpena Community College,665 Johnson St Alpena MI 49707,45.079889,-83.4448232
Carson-Newman University,1646 S Russell Ave Jefferson City TN 37760,36.1223377,-83.4908561
Abraham Baldwin Agricultural College,2802 Moore Hwy Tifton GA 31793,31.4819694,-83.5282588
Owens Community College,30335 Oregon Rd Perrysburg OH 43551,41.587956,-83.5387205
Piedmont College,1021 Central Ave Demorest GA 30535,34.5662172,-83.544516
Southern State Community College,100 Hobart Drive Hillsboro OH 45133,39.2361391,-83.6151996
University of Toledo,2801 W Bancroft Toledo OH 43606,41.6557154,-83.6162183
Eastern Michigan University,401 Pierce Hall Ypsilanti MI 48197,42.2466866,-83.6225079
Bowling Green State University-Main Campus,220 McFall Ctr Bowling Green OH 43403,41.3754425,-83.640953
The University of Findlay,1000 North Main Street Findlay OH 45840,41.0537667,-83.6534018
Mercer University,1501 Mercer University Drive Macon GA 31207,32.8260317,-83.6542377
Lincoln Memorial University,6965 Cumberland Gap Pkwy Harrogate TN 37752,36.5773983,-83.6611266
Central Georgia Technical College,80 Cohen Walker Drive Warner Robins GA 31088,32.5454972,-83.6674227
Mott Community College,1401 E Court St Flint MI 48503,43.0205111,-83.672834
Concordia University-Ann Arbor,4090 Geddes Road Ann Arbor MI 48105,42.274529,-83.6823524
Lourdes University,6832 Convent Blvd Sylvania OH 43560,41.7109153,-83.7050927
Middle Georgia State University,100 University Parkway Macon GA 31206,32.808039,-83.7320401
University of Michigan-Ann Arbor,503 Thompson Street Ann Arbor MI 48109,42.2758739,-83.7427632
Truett McConnell University,100 Alumni Dr Cleveland GA 30528,34.5948888,-83.7482585
Johnson University,7900 Johnson Dr Knoxville TN 37998,35.9386221,-83.7501287
Urbana University,579 College Way Urbana OH 430782091,40.1017974,-83.7622053
Clark State Community College,570 E Leffel Ln Springfield OH 45505,39.8945469,-83.7992442
Cedarville University,251 N. Main Street Cedarville OH 45314,39.7468502,-83.8109844
Wittenberg University,Ward St at N Wittenberg Ave Springfield OH 45504,39.9330898,-83.813736
Wilmington College,1870 Quaker Way Wilmington OH 45177,39.4442799,-83.8184217
Brenau University,500 Washington Street SE Gainesville GA 30501,34.3018881,-83.8220415
Ohio Northern University,525 S. Main St Ada OH 45810,40.7655097,-83.8238966
Young Harris College,1 College Street Young Harris GA 30582,34.93306,-83.846565
Emory University-Oxford College,801 Emory Street Oxford GA 30054,33.6211771,-83.8675109
Central State University,1400 Brush Row Rd Wilberforce OH 45384,39.714915,-83.8771617
Wilberforce University,1055 N Bickett Rd Wilberforce OH 45384,39.7102223,-83.8795395
Cleary University,3750 Cleary Drive Howell MI 48843,42.5866341,-83.8800182
Union College,310 College St Barbourville KY 40906,36.8712468,-83.8904221
Fort Valley State University,1005 State University Dr Fort Valley GA 31030,32.5370907,-83.8982327
Bluffton University,1 University Drive Bluffton OH 45817,40.8969477,-83.8993188
The University of Tennessee-Knoxville,527 Andy Holt Tower Knoxville TN 37996,35.9520732,-83.9258338
Saginaw Valley State University,7400 Bay Rd University Center MI 48710,43.5142013,-83.9625431
Thomas University,1501 Millpond Rd Thomasville GA 31792,30.8150654,-83.9645041
Maryville College,502 E Lamar Alexander Pky Maryville TN 37804,35.7539654,-83.965028
University of North Georgia,82 College Circle Dahlonega GA 30597,34.5302747,-83.9857476
Delta College,1961 Delta Road University Center MI 48710,43.5575386,-83.9863306
Georgia Gwinnett College,1000 University Center Lane Lawrenceville GA 30043,33.9803214,-84.005505
Siena Heights University,1247 E. Siena Heights Dr. Adrian MI 49221,41.9043078,-84.0160139
Adrian College,110 S Madison St Adrian MI 49221,41.8965125,-84.0629919
Wright State University-Main Campus,3640 Colonel Glenn Highway Dayton OH 45435,39.7765217,-84.0694155
Albany State University,504 College Drive Albany GA 31705,31.5734365,-84.1425655
University of Northwestern Ohio,1441 N Cable Rd Lima OH 45805,40.7591151,-84.1488968
Gordon State College,419 College Dr Barnesville GA 30204,33.0481964,-84.1537774
University of the Cumberlands,6191 College Station Drive Williamsburg KY 40769,36.7371496,-84.1638243
Albany Technical College,1704 South Slappey Boulevard Albany GA 31701,31.554176,-84.174344
University of Dayton,300 College Park Dayton OH 45469,39.7394599,-84.1799547
University of Cincinnati-Clermont College,4200 Clermont College Dr Batavia OH 45103,39.0797116,-84.1955973
Sinclair Community College,444 W. Third St. Dayton OH 45402,39.7572875,-84.1998806
Edison State Community College,1973 Edison Dr Piqua OH 45356,40.1583581,-84.2117513
Georgia Southwestern State University,800 Georgia Southwestern State University Dr. Americus GA 31709,32.0560379,-84.2175081
South Georgia Technical College,900 South GA Tech Parkway Americus GA 31709,32.1135483,-84.2468831
Northwood University,4000 Whiting Dr Midland MI 48640,43.6298818,-84.2765993
Florida Agricultural and Mechanical University,1500 S Martin Luther King Jr Blvd Tallahassee FL 32307,30.4286389,-84.285619
Berea College,101 Chestnut Street Berea KY 40404,37.5717311,-84.2897389
Southern Crescent Technical College,501 Varsity Rd Griffin GA 30223,33.255097,-84.2900478
Florida State University,222 S. Copeland Street Tallahassee FL 32306,30.4404775,-84.2908283
Eastern Kentucky University,521 Lancaster Ave Richmond KY 40475,37.7382655,-84.2983539
Emory University,408 Administration Building  201 Dowman Drive Atlanta GA 30322,33.7971368,-84.32224
Clayton  State University,2000 Clayton State Boulevard Morrow GA 30260,33.5946104,-84.3286808
Oglethorpe University,4484 Peachtree Road  NE Atlanta GA 30319,33.8761916,-84.3347128
Tallahassee Community College,444 Appleyard Dr Tallahassee FL 32304,30.4434759,-84.3410157
Defiance College,701 N Clinton Defiance OH 43512,41.2960849,-84.360202
Lake Superior State University,650 W Easterday Ave Sault Ste Marie MI 49783,46.4935563,-84.3645595
Georgia State University,33 gilmer st Atlanta GA 30303,33.7534327,-84.3859072
Georgia Institute of Technology-Main Campus,225 North Ave Atlanta GA 30332,33.7724173,-84.3947916
Jackson College,2111 Emmons Rd Jackson MI 49201,42.1652785,-84.4028209
Clark Atlanta University,223 James P Brawley Drive  SW Atlanta GA 30314,33.7482561,-84.4130399
Northern Kentucky University,Nunn Drive Highland Heights KY 41099,39.0334704,-84.4592685
Xavier University,3800 Victory Parkway Cincinnati OH 45207,39.148913,-84.4795628
Michigan State University,426 Auditorium Road East Lansing MI 48824,42.7296495,-84.4815268
Transylvania University,300 N Broadway Lexington KY 40508,38.0528459,-84.4922693
University of Kentucky,South Limestone Lexington KY 40506,38.0380607,-84.5071374
Wright State University-Lake Campus,7600 Lake Campus Drive Celina OH 45822,40.5471918,-84.5086591
Life University,1269 Barclay Circle Marietta GA 30060,33.93127,-84.5174264
University of Cincinnati-Main Campus,2624 Clifton Avenue Cincinnati OH 45221,39.1343961,-84.5184317
Cincinnati State Technical and Community College,3520 Central Parkway Cincinnati OH 45223,39.1495094,-84.5361437
Lansing Community College,419 N Capitol Ave Lansing MI 48901,42.7374805,-84.5538432
Georgetown College,400 East College Street Georgetown KY 40324,38.207738,-84.553858
Reinhardt University,7300 Reinhardt Circle Waleska GA 30183,34.317812,-84.5542058
Spring Arbor University,106 E. Main St Spring Arbor MI 49283,42.2064518,-84.5549522
Cincinnati Christian University,2700 Glenway Ave Cincinnati OH 45204,39.1123835,-84.556547
Thomas More College,333 Thomas More Parkway Crestview Hills KY 41017,39.0216667,-84.5680762
Mount Saint Joseph University,5701 Delhi Rd Cincinnati OH 45233,39.0930874,-84.572936
Kennesaw State University,1000 Chastain Rd Kennesaw GA 30144,34.038296,-84.5830609
Tennessee Wesleyan University,204 East College Street Athens TN 37303,35.445114,-84.592713
Roane State Community College,276 Patton Lane Harriman TN 37748,35.8806173,-84.619945
Great Lakes Christian College,6211 W Willow Hwy Lansing MI 489171299,42.754214,-84.6382659
Asbury University,1 Macklem Dr Wilmore KY 40390,37.8632671,-84.6618887
Alma College,614 W Superior Alma MI 48801,43.3789707,-84.6698629
Midway University,512 E. Stephens St Midway KY 40347,38.1445932,-84.6772506
Kirtland Community College,4800 W. 4 Mile Rd Grayling MI 48738,44.6016664,-84.7062978
Miami University-Oxford,501 East High St Oxford OH 45056,39.5092997,-84.7344846
Albion College,611 E Porter St Albion MI 49224,42.2439655,-84.7441658
Mid Michigan Community College,1375 S Clare Ave Harrison MI 48625,43.9691945,-84.76473
Central Michigan University,106 Warriner Hall Mount Pleasant MI 48859,43.5911786,-84.7753308
Centre College,600 W Walnut St Danville KY 40422,37.6457777,-84.77903
Andrew College,501College St Cuthbert GA 39840,31.772328,-84.7950894
Kentucky State University,400 East Main Street Frankfort KY 40601,38.2011552,-84.8546219
Lee University,1120 N Ocoee St Cleveland TN 37311,35.1659969,-84.8714106
Cleveland State Community College,3535 Adkisson Drive Cleveland TN 37312,35.2005694,-84.8786934
Indiana University-East,2325 Chester Blvd Richmond IN 47374,39.866598,-84.8883743
Earlham College,801 National Rd West Richmond IN 47374,39.8259613,-84.9132834
Olivet College,320 South Main Street Olivet MI 49076,42.4433728,-84.9248802
Columbus State University,4225 University Ave Columbus GA 31907,32.5023087,-84.9414487
Bryan College-Dayton,721 Bryan Drive Dayton TN 37321,35.4983997,-84.9987946
Dalton State College,650 College Drive Dalton GA 30720,34.7732488,-85.0032037
Trine University,1 University Ave Angola IN 46703,41.633333,-85.0058802
Chattahoochee Valley Community College,2602 College Drive Phenix City AL 36869,32.4244948,-85.0322391
LaGrange College,601 Broad Street Lagrange GA 30240,33.038947,-85.0432469
University of West Georgia,1601 Maple St Carrollton GA 30118,33.5735847,-85.097716
Indiana University-Purdue University-Fort Wayne,2101 E Coliseum Blvd Fort Wayne IN 46805,41.1157605,-85.1117714
Indiana Institute of Technology,1600 E Washington Blvd Fort Wayne IN 46803,41.077818,-85.116851
University of Saint Francis-Fort Wayne,2701 Spring St Fort Wayne IN 46808,41.0877695,-85.1737406
Kellogg Community College,450 North Ave Battle Creek MI 49017,42.3348958,-85.1771605
West Georgia Technical College,176 Murphy Campus Blvd. Waco GA 30182,33.6909839,-85.1835749
Point University,507 West 10th Street West Point GA 31833,32.8791226,-85.1847494
Berry College,2277 Martha Berry Hwy NW Mount Berry GA 30149,34.289492,-85.1868137
Shorter University,315 Shorter Ave Rome GA 30165,34.2634127,-85.1917422
Georgia Highlands College,3175 Cedartown Highway  S.E. Rome GA 30161,34.169222,-85.2066467
Chipola College,3094 Indian Circle Marianna FL 32446,30.7874134,-85.232581
Chattanooga State Community College,4501 Amnicola Hwy Chattanooga TN 37406,35.100833,-85.2431547
The University of Tennessee-Chattanooga,615 McCallie Ave Chattanooga TN 37403,35.047943,-85.2982972
Lindsey Wilson College,210 Lindsey Wilson St Columbia KY 42728,37.1028076,-85.3014631
Campbellsville University,1 University Dr Campbellsville KY 42718,37.3429502,-85.349153
Covenant College,14049 Scenic Highway Lookout Mountain GA 30750,34.9542752,-85.3778797
Ball State University,2000 University Ave Muncie IN 47306,40.1999048,-85.4115988
Hanover College,517 Ball Drive Hanover IN 47243,38.7189081,-85.4623152
George C Wallace Community College-Dothan,1141 Wallace Drive Dothan AL 36303,31.3156396,-85.4666895
Ferris State University,1201 S State St Big Rapids MI 49307,43.6844327,-85.4820277
Auburn University,P.O. Box 351 Auburn AL 36849,32.5909562,-85.4929785
Taylor University,236 W Reade Ave Upland IN 46989,40.4571778,-85.4957953
Glen Oaks Community College,62249 Shimmel Rd Centreville MI 49032,41.8926528,-85.4989482
Huntington University,2303 College Ave Huntington IN 46750,40.8990026,-85.499843
Tennessee Technological University,1 William L. Jones Drive Cookeville TN 38505,36.1745935,-85.5040628
Davenport University,6191 Kraft Avenue S.E. Grand Rapids MI 49512,42.8493922,-85.5306755
Southern Union State Community College,750 Roberts St Wadley AL 36276,33.1293106,-85.5733034
Calvin College,3201 Burton Street SE Grand Rapids MI 49546,42.9331793,-85.580505
Cornerstone University,1001 E Beltline Ave NE Grand Rapids MI 49525,42.9801473,-85.5920923
Kalamazoo College,1200 Academy St Kalamazoo MI 49006,42.2900676,-85.5985133
Western Michigan University,1903 W Michigan Ave Kalamazoo MI 49008,42.2837337,-85.6102504
Aquinas College,1700 Fulton St. E Grand Rapids MI 49506,42.9610438,-85.6256929
Anderson University,1100 E 5th St Anderson IN 46012,40.1100894,-85.6656014
Grand Rapids Community College,143 Bostwick Ave NE Grand Rapids MI 49503,42.9669729,-85.6667651
Indiana Wesleyan University-Marion,4201 South Washington Street Marion IN 46953,40.5207334,-85.6668454
Kalamazoo Valley Community College,6767 West O Ave Kalamazoo MI 49003,42.2263148,-85.6814503
Grace Bible College,1011 Aldon SW Grand Rapids MI 49509,42.9194335,-85.690033
Bellarmine University,2001 Newburg Rd Louisville KY 40205,38.2187146,-85.704243
Tuskegee University,Kresge Center  3rd Floor Tuskegee AL 36088,32.4309166,-85.7084869
Gulf Coast State College,5230 West U.S. Highway 98 Panama City FL 32401,30.1856374,-85.7279634
Spalding University,845 South 3rd Street Louisville KY 40203,38.2423593,-85.7568513
University of Louisville,2301 S 3rd St Louisville KY 40292,38.2157954,-85.7614322
Manchester University,604 E. College Ave North Manchester IN 46962,41.0126887,-85.7640494
Simmons College of Kentucky,1018 South 7th Street Louisville KY 40203,38.2395182,-85.7647821
Jacksonville State University,700 Pelham Road North Jacksonville AL 36265,33.8218096,-85.7692277
Grace College and Theological Seminary,200 Seminary Dr Winona Lake IN 46590,41.2258318,-85.8159033
Indiana University-Southeast,4201 Grant Line Rd New Albany IN 47150,38.347053,-85.8194855
Goshen College,1700 S Main St Goshen IN 46526,41.562224,-85.8280258
Enterprise State Community College,600 Plaza Drive Enterprise AL 36330,31.2983627,-85.8364229
Grand Valley State University,1 Campus Dr Allendale MI 49401,42.9629773,-85.8921123
Northeast Alabama Community College,138 AL Highway 35 W Rainsville AL 35986,34.5448368,-85.911926
Sewanee-The University of the South,735 University Avenue Sewanee TN 37383,35.2025381,-85.9208317
Central Alabama Community College,1675 Cherokee Rd Alexander City AL 35010,32.925393,-85.945145
Troy University,University Avenue Troy AL 36082,31.7984183,-85.9552906
Gadsden State Community College,1001 George Wallace Dr Gadsden AL 35903,33.9959754,-85.9917038
Franklin College,101 Branigin Blvd Franklin IN 46131,39.4781674,-86.0434001
Hope College,100 E. 8th Street  Suite 260 Holland MI 494229000,42.7901211,-86.1028843
Talladega College,627 W Battle St Talladega AL 35160,33.4327519,-86.1135613
Indiana University-Kokomo,2300 S Washington St Kokomo IN 46904,40.4594254,-86.1316461
University of Indianapolis,1400 E Hanna Ave Indianapolis IN 46227,39.709623,-86.1364602
Snead State Community College,102 Elder Street Boaz AL 35957,34.2015775,-86.1698877
Butler University,4600 Sunset Ave Indianapolis IN 46208,39.8381669,-86.1705391
Indiana University-Purdue University-Indianapolis,425 University Blvd Indianapolis IN 46202,39.7737388,-86.1752156
Auburn University at Montgomery,7440 East Drive Montgomery AL 36117,32.36729,-86.177745
Bethel College-Indiana,1001 Bethel Circle Mishawaka IN 46545,41.6781593,-86.1940547
Muskegon Community College,221 S Quarterline Rd Muskegon MI 49442,43.2479391,-86.1962781
Marian University,3200 Cold Spring Rd Indianapolis IN 46222,39.8136086,-86.2035322
Faulkner University,5345 Atlanta Hwy Montgomery AL 36109,32.3835179,-86.2164055
Indiana University-South Bend,1700 Mishawaka Ave South Bend IN 46634,41.6652955,-86.2220432
University of Notre Dame,400 Main Building Notre Dame IN 46556,41.703084,-86.2389844
Holy Cross College,54515 State Road 933 North Notre Dame IN 46556,41.6984637,-86.2543486
Huntingdon College,1500 East Fairview Avenue Montgomery AL 36106,32.3504918,-86.2863163
Alabama State University,915 S Jackson Street Montgomery AL 36104,32.3651836,-86.2957213
Cumberland University,1 Cumberland Square Lebanon TN 37087,36.2052571,-86.2990749
Motlow State Community College,6015 Ledford Mill Road Tullahoma TN 37388,35.3664331,-86.3008975
Andrews University,4150 Administration Drive  Room 136 Berrien Springs MI 49104,41.9628187,-86.3579616
Middle Tennessee State University,1301 East Main Street Murfreesboro TN 37132,35.843624,-86.3705892
Lake Michigan College,2755 East Napier Avenue Benton Harbor MI 49022,42.0955639,-86.3930083
Ancilla College,9601 S. Union Road Donaldson IN 46513,41.3377279,-86.4451627
Lurleen B Wallace Community College,1000 Dannelly Blvd. Andalusia AL 36420,31.3222583,-86.4526766
Western Kentucky University,1906 College Heights Blvd Bowling Green KY 42101,36.9833474,-86.4579446
Northwest Florida State College,100 College Boulevard Niceville FL 32578,30.5348147,-86.4744205
Volunteer State Community College,1480 Nashville Pike Gallatin TN 37066,36.3660451,-86.49772
Indiana University-Bloomington,107 South Indiana Ave. Bloomington IN 47405,39.166111,-86.5267824
Welch College,1045 Bison Trail Gallatin TN 37066,36.365311,-86.5484772
Trevecca Nazarene University,333 Murfreesboro Rd Nashville TN 37210,36.0149584,-86.5560692
Alabama A & M University,4900 Meridian Street Normal AL 35762,34.7927879,-86.5720616
University of Alabama in Huntsville,301 Sparkman Dr Huntsville AL 35899,34.7251471,-86.639783
Oakwood University,7000 Adventist Blvd NW Huntsville AL 35896,34.7529622,-86.6485379
Jefferson State Community College,2601 Carson Rd Birmingham AL 35215,33.6518095,-86.7080876
George C Wallace State Community College-Hanceville,801 Main St NW Hanceville AL 35077,34.0598451,-86.7695439
Samford University,800 Lakeshore Drive Birmingham AL 35229,33.4649218,-86.7913423
Belmont University,1900 Belmont Blvd Nashville TN 37212,36.1336191,-86.7939242
University of Alabama at Birmingham,Administration Bldg Suite 1070 Birmingham AL 35294,33.5058651,-86.7994508
Lipscomb University,One University Park Drive Nashville TN 37204,36.105632,-86.79999
Vanderbilt University,2101 West End Avenue Nashville TN 37240,36.1490297,-86.802263
Fisk University,1000 17th Ave North Nashville TN 37208,36.167017,-86.803365
Tennessee State University,3500 John A. Merritt Blvd Nashville TN 37209,36.1682397,-86.8259623
Birmingham Southern College,900 Arkadelphia Road Birmingham AL 35254,33.5148629,-86.8559116
DePauw University,313 S Locust St Greencastle IN 46135,39.6408691,-86.8603269
University of Montevallo,Station 6001 Montevallo AL 35115,33.10917,-86.8781
Lawson State Community College-Birmingham Campus,3060 Wilson Rd SW Birmingham AL 35221,33.4506233,-86.8891388
Miles College,5500 Myron Massey Blvd Fairfield AL 35064,33.4808313,-86.9082779
Purdue University-Main Campus,Hovde Hall of Administration West Lafayette IN 47907,40.4282112,-86.9143951
John C Calhoun State Community College,6250 U S Highway 31 N Tanner AL 35671,34.6493007,-86.9488842
George C Wallace State Community College-Selma,3000 Earl Goodwin Parkway Selma AL 36703,32.4466035,-87.012492
Martin Methodist College,433 West Madison Street Pulaski TN 38478,35.2002256,-87.036387
Valparaiso University,US Highway 30 and Sturdy Road Valparaiso IN 46383,41.4602103,-87.0366594
Bay de Noc Community College,2001 N Lincoln Road Escanaba MI 49829,45.7721711,-87.0855351
Columbia State Community College,1665 Hampshire Pike Columbia TN 38401,35.6163784,-87.0998008
Brescia University,717 Frederica St Owensboro KY 42301,37.768595,-87.1109759
Kentucky Wesleyan College,3000 Frederica Street Owensboro KY 42301,37.7435478,-87.1201839
Pensacola State College,1000 College Blvd Pensacola FL 32504,30.4783322,-87.1982074
The University of West Florida,11000 University Parkway Pensacola FL 32514,30.5491387,-87.2185862
Bevill State Community College,1411 Indiana Avenue Jasper AL 35501,33.8371004,-87.2658745
Marion Military Institute,1101 Washington St Marion AL 36756,32.623964,-87.3184238
Judson College,302 Bibb St Marion AL 36756,32.6299197,-87.3185795
Rose-Hulman Institute of Technology,5500 Wabash Avenue Terre Haute IN 47803,39.4836321,-87.3268569
Indiana University-Northwest,3400 Broadway Gary IN 46408,41.5565044,-87.3384378
Austin Peay State University,601 College St Clarksville TN 37044,36.5320374,-87.3521543
Oakland City University,138 N Lucretia St Oakland City IN 47660,38.3395434,-87.352751
Northern Michigan University,1401 Presque Isle Avenue Marquette MI 49855,46.5573421,-87.4041527
Indiana State University,210 N 7th St Terre Haute IN 47809,39.4683597,-87.4074032
Saint Mary-of-the-Woods College,1 St Mary of Woods Coll Saint Mary of the Woods IN 47876,39.5074094,-87.4607951
Purdue University Northwest,2200 169th Street Hammond IN 46323,41.5879387,-87.4749691
Calumet College of Saint Joseph,2400 New York Ave Whiting IN 46394,41.67086,-87.494459
Vincennes University,1002 N First St Vincennes IN 47591,38.6878205,-87.5215703
University of Evansville,1800 Lincoln Avenue Evansville IN 47722,37.9734067,-87.5321652
The University of Alabama,739 University Blvd Tuscaloosa AL 35487,33.2096093,-87.5466476
Shelton State Community College,9500 Old Greensboro Rd Tuscaloosa AL 35405,33.1210689,-87.5619872
Stillman College,3601 Stillman Boulevard Tuscaloosa AL 35401,33.200526,-87.5852409
Danville Area Community College,2000 E Main St Danville IL 61832,40.1318487,-87.5911507
City Colleges of Chicago-Olive-Harvey College,10001 S Woodlawn Ave Chicago IL 60628,41.7105412,-87.5920383
University of Chicago,5801 S Ellis Ave Chicago IL 60637,41.7895805,-87.6009332
Chicago State University,9501 S. King Drive Chicago IL 60628,41.7211175,-87.6133634
South Suburban College,15800 South State Street South Holland IL 60473,41.6298989,-87.6220509
Roosevelt University,430 S Michigan Ave Chicago IL 60605,41.8759958,-87.6248551
DePaul University,1 E Jackson Blvd Chicago IL 60604,41.8781342,-87.6271172
Robert Morris University Illinois,401 S State Street Chicago IL 60605,41.8763776,-87.6271993
Illinois Institute of Technology,10 West 35th Street Chicago IL 60616,41.8313967,-87.6272292
Moody Bible Institute,820 N LaSalle Blvd Chicago IL 60610,41.8973002,-87.6330205
Prairie State College,202 South Halsted Street Chicago Heights IL 60411,41.5255653,-87.6386099
City Colleges of Chicago-Kennedy-King College,6301 S Halsted St Chicago IL 60621,41.7804262,-87.64425
University of Illinois at Chicago,601 S Morgan Chicago IL 60607,41.8737632,-87.6509928
Loyola University Chicago,1032 W. Sheridan Rd Chicago IL 60660,41.9986438,-87.657844
City Colleges of Chicago-Harry S Truman College,1145 W Wilson Ave. Chicago IL 60640,41.9647366,-87.6589635
City Colleges of Chicago-Malcolm X College,1900 W Jackson Blvd Chicago IL 60612,41.8778058,-87.6745251
University of Southern Indiana,8600 University Blvd Evansville IN 47712,37.9649225,-87.6772445
Northwestern University,633 Clark St Evanston IL 60208,42.0506265,-87.6797271
University of North Alabama,One Harrison Plaza Florence AL 35632,34.8074555,-87.6811676
Lincoln Trail College,11220 State Hwy 1 Robinson IL 62454,39.0194015,-87.6884765
North Park University,3225 W Foster Ave Chicago IL 60625,41.975649,-87.7098566
Saint Xavier University,3700 W 103rd St Chicago IL 60655,41.7069171,-87.7161339
Governors State University,1 University Pky University Park IL 60484,41.4483892,-87.716181
City Colleges of Chicago-Richard J Daley College,7500 S Pulaski Rd Chicago IL 60652,41.756218,-87.7240342
Silver Lake College of the Holy Family,2406 S Alverno Rd Manitowoc WI 54220,44.071439,-87.741061
Morton College,3801 South Central Avenue Cicero IL 60804,41.8242401,-87.7622759
Coastal Alabama Community College,1900 U.S. Highway 31 S Bay Minette AL 36507,30.8516559,-87.7773586
Wabash Valley College,2200 College Drive Mount Carmel IL 62863,38.4279603,-87.7790235
Trinity Christian College,6601 W College Dr Palos Heights IL 60463,41.6677877,-87.7843266
City Colleges of Chicago-Wilbur Wright College,4300 N Narragansett Chicago IL 60634,41.9588516,-87.7883228
Concordia University-Chicago,7400 Augusta River Forest IL 60305,41.900068,-87.8095272
Carthage College,2001 Alford Park Dr Kenosha WI 53140,42.6221689,-87.821815
Dominican University,7900 W Division Street River Forest IL 60305,41.9021729,-87.8224293
Lake Forest College,555 N Sheridan Road Lake Forest IL 600452338,42.2507024,-87.8282225
Triton College,2000 5th Ave River Grove IL 60171,41.9150378,-87.8388589
Moraine Valley Community College,9000 W. College Parkway Palos Hills IL 60465,41.6914849,-87.8416325
Kankakee Community College,100 College Drive Kankakee IL 60901,41.0985076,-87.8504829
University of Wisconsin-Parkside,900 Wood Rd Kenosha WI 53144,42.6450231,-87.8517458
Olivet Nazarene University,One University Avenue Bourbonnais IL 60914,41.1549071,-87.8723694
Trinity International University-Illinois,2065 Half Day Rd Deerfield IL 60015,42.1979075,-87.8810327
University of Wisconsin-Milwaukee,2200 E Kenwood Blvd Milwaukee WI 53211,43.0752308,-87.881425
Oakton Community College,1600 E Golf Rd. Des Plaines IL 60016,42.0545834,-87.8865027
Lakeland University,W3718 South Drive Plymouth WI 53073,43.8407318,-87.8871043
Cardinal Stritch University,6801 N Yates Rd Milwaukee WI 53217,43.140054,-87.9071529
Milwaukee School of Engineering,1025 N Broadway Milwaukee WI 53202,43.0440305,-87.9089848
Concordia University-Wisconsin,12800 N Lake Shore Dr Mequon WI 53097,43.2544619,-87.915778
Milwaukee Area Technical College,700 W State St Milwaukee WI 53233,43.0433865,-87.9208399
University of Wisconsin-Green Bay,2420 Nicolet Dr Green Bay WI 54311,44.532204,-87.9217003
Marquette University,1250 W Wisconsin Ave Milwaukee WI 53233,43.0389659,-87.9280415
Elmhurst College,190 Prospect Ave Elmhurst IL 60126,41.8976377,-87.9469594
College of Lake County,19351 W Washington St. Grayslake IL 60030,42.3542648,-88.0125666
Wisconsin Lutheran College,8800 W Bluemound Rd Milwaukee WI 53226,43.0379137,-88.0232388
Bryant & Stratton College-Wauwatosa,10950 W Potter Road Wauwatosa WI 53226,43.0431584,-88.0508617
Bishop State Community College,351 North Broad Street Mobile AL 36603,30.6959001,-88.0557153
Saint Norbert College,100 Grant St De Pere WI 54115,44.4448752,-88.0663034
William Rainey Harper College,1200 W Algonquin Rd Palatine IL 60067,42.0814531,-88.0726262
College of DuPage,425 Fawell Blvd. Glen Ellyn IL 60137,41.8414336,-88.0730896
Lewis University,One University Parkway Romeoville IL 60446,41.6050295,-88.0805608
Benedictine University,5700 College Rd Lisle IL 60532,41.7788628,-88.0948979
University of St Francis,500 North Wilcox Street Joliet IL 60435,41.5333799,-88.0970978
Olney Central College,305 N West Street Olney IL 62450,38.7361594,-88.0991828
Wheaton College,501 College Ave Wheaton IL 601875593,41.868737,-88.0996058
University of Mobile,5735 College Parkway Drive Mobile AL 36613,30.7946459,-88.1289433
Spring Hill College,4000 Dauphin St Mobile AL 36608,30.6915278,-88.137679
North Central College,30 North Brainard St Naperville IL 60540,41.7757515,-88.1428168
University of South Alabama,307 N University Blvd Mobile AL 36688,30.6954258,-88.1752139
Eastern Illinois University,600 Lincoln Avenue Charleston IL 61920,39.4780297,-88.1759056
Joliet Junior College,1215 Houbolt Rd Joliet IL 60431,41.5005349,-88.1808127
University of West Alabama,100 North Washington Street - Hwy11 Livingston AL 35470,32.5849811,-88.1870591
Carroll University,100 N East Ave Waukesha WI 53186,43.0044881,-88.2280201
University of Illinois at Urbana-Champaign,601 E John Street Champaign IL 61820,40.1088318,-88.2300373
Judson University,1151 N State St Elgin IL 60123,42.0599279,-88.2905129
Parkland College,2400 W Bradley Ave Champaign IL 61821,40.1327671,-88.2907598
Murray State University,218 Wells Hall Murray KY 42071,36.6163842,-88.3214979
Elgin Community College,1700 Spartan Drive Elgin IL 60123,42.0177155,-88.3227162
Aurora University,347 S Gladstone Ave Aurora IL 60506,41.7549208,-88.3476948
McHenry County College,8900 US Hwy 14 Crystal Lake IL 60012,42.259164,-88.3691599
Lawrence University,College Ave Appleton WI 54911,44.258491,-88.369477
Lake Land College,5001 Lake Land Blvd Mattoon IL 61938,39.4168843,-88.380659
Frontier Community College,2 Frontier Drive Fairfield IL 62837,38.38231,-88.392055
Itawamba Community College,602 W Hill Street Fulton MS 38843,34.2777922,-88.4149401
Mississippi University for Women,1100 College Street Columbus MS 39701,33.491089,-88.4183492
Marian University,45 S National Ave Fond Du Lac WI 54935,43.7778991,-88.4195234
Southeastern Illinois College,3575 College Road Harrisburg IL 62946,37.7515069,-88.4364622
Waubonsee Community College,Rte 47 at Waubonsee Drive Sugar Grove IL 60554,41.7896779,-88.4573015
East Mississippi Community College,1512 Kemper Street Scooba MS 39358,32.830934,-88.484783
Bethel University,325 Cherry Ave McKenzie TN 38201,36.1419765,-88.5148285
Michigan Technological University,1400 Townsend Drive Houghton MI 49931,47.115026,-88.5452004
University of Wisconsin-Oshkosh,800 Algoma Blvd Oshkosh WI 54901,44.0265059,-88.5510459
Northeast Mississippi Community College,101 Cunningham Blvd Booneville MS 38829,34.6675368,-88.5625714
Finlandia University,601 Quincy St Hancock MI 49930,47.1267999,-88.5870089
Freed-Hardeman University,158 E Main St Henderson TN 38340,35.4408398,-88.6363382
Meridian Community College,910 Hwy 19 N Meridian MS 39307,32.3657388,-88.7313891
Maranatha Baptist University,745 West Main Street Watertown WI 53094,43.194346,-88.7378731
University of Wisconsin-Whitewater,800 W Main St Whitewater WI 53190,42.8360981,-88.7440316
Northern Illinois University,1425 W. Lincoln Hwy. Dekalb IL 60115,41.9339755,-88.7798537
Jackson State Community College,2046 North Pky Jackson TN 38301,35.645096,-88.7812586
Mississippi State University,Lee Boulevard Mississippi State MS 39762,33.455202,-88.7882108
Lane College,545 Lane Ave Jackson TN 38301,35.6277386,-88.8062252
Ripon College,300 West Seward Street Ripon WI 54971,43.8432217,-88.8409595
Union University,1050 Union University Dr Jackson TN 38305,35.6770261,-88.8602731
The University of Tennessee-Martin,554 University Street Martin TN 38238,36.342753,-88.862428
Kishwaukee College,21193 Malta Road Malta IL 60150,41.9384044,-88.8820157
Rend Lake College,468 N Ken Gray Pkwy Ina IL 62846,38.1305373,-88.9215165
Millikin University,1184 W Main St Decatur IL 62522,39.8433566,-88.975267
Illinois State University,North and School Streets Normal IL 61790,40.52355,-88.9899395
Illinois Wesleyan University,1312 N Park St Bloomington IL 61702,40.4918279,-88.9907734
Rock Valley College,3301 N Mulford Rd Rockford IL 61114,42.3095499,-88.9949611
Heartland Community College,1500 West Raab Road Normal IL 61761,40.5352293,-89.0143482
Rockford University,5050 E State St Rockford IL 61108,42.269123,-89.021474
Blue Mountain College,201 W Main St Blue Mountain MS 38610,34.6720826,-89.0292462
Beloit College,700 College St Beloit WI 53511,42.5030333,-89.0309048
Shawnee Community College,8364 Shawnee College Rd Ullin IL 62992,37.270476,-89.033354
John A Logan College,700 Logan College Drive Carterville IL 62918,37.7460636,-89.0923723
Illinois Valley Community College,815 N Orlando Smith Road Oglesby IL 61348,41.3067576,-89.1010772
East Central Community College,15738 Highway 15 Decatur MS 39327,32.4442075,-89.1091693
Mississippi Gulf Coast Community College,51 Main Street Perkinston MS 39573,30.780579,-89.140474
Southeastern Baptist College,4229 Hwy 15 N Laurel MS 394409989,31.7484224,-89.1494633
Kaskaskia College,27210 College Rd Centralia IL 62801,38.5633556,-89.1931155
Jones County Junior College,900 South Court Street Ellisville MS 39437,31.5949078,-89.2007261
Southern Illinois University-Carbondale,1263 Lincoln Drive Carbondale IL 629016899,37.7100209,-89.2225941
Eureka College,300 E. College Avenue Eureka IL 61530,40.71398,-89.267575
William Carey University,710 William Carey Parkway Hattiesburg MS 39401,31.3039598,-89.2927035
Madison Area Technical College,1701 Wright Street Madison WI 53704,43.1215712,-89.3289214
University of Southern Mississippi,118 College Drive # 0001 Hattiesburg MS 39406,31.3300116,-89.3340423
Lincoln Christian University,100 Campus View Drive Lincoln IL 62656,40.1494576,-89.3484155
Lincoln College,300 Keokuk St Lincoln IL 62656,40.1569482,-89.3600373
Dyersburg State Community College,1510 Lake Rd Dyersburg TN 38024,36.0483788,-89.3902411
University of Wisconsin-Madison,500 Lincoln Dr Madison WI 53706,43.075486,-89.4043511
Greenville University,315 E. College Ave Greenville IL 62246,38.8941304,-89.4091274
Edgewood College,1000 Edgewood College Drive Madison WI 53711,43.0579472,-89.4228151
Rust College,150 Rust Avenue Holly Springs MS 38635,34.774592,-89.4455924
Illinois Central College,1 College Drive East Peoria IL 61635,40.7072344,-89.5143692
Southeast Missouri State University,One University Plaza  MS3200 Cape Girardeau MO 63701,37.3148783,-89.5280438
University of Mississippi,Oxford  Mississippi University MS 38677,34.3662913,-89.5379826
Pearl River Community College,101 Hwy 11 North Poplarville MS 39470,30.8443542,-89.5430413
University of Wisconsin-Stevens Point,2100 Main St Stevens Point WI 54481,44.5243265,-89.5688112
Sauk Valley Community College,173 Illinois Rt 2 Dixon IL 61021,41.8196091,-89.597828
Lincoln Land Community College,5250 Shepherd Rd Springfield IL 62794,39.7205657,-89.6109529
Bradley University,1501 W Bradley Ave Peoria IL 61625,40.6963829,-89.615972
University of Illinois at Springfield,One University Plaza Springfield IL 62703,39.729518,-89.617002
Highland Community College,2998 W Pearl City Rd Freeport IL 61032,42.2831242,-89.6739499
McKendree University,701 College Rd Lebanon IL 62254,38.6076721,-89.8157017
Blackburn College,700 College Ave Carlinville IL 62626,39.2886353,-89.8729899
Holmes Community College,#1 Hill St Goodman MS 39079,32.9691105,-89.9121268
Southwestern Illinois College,2500 Carlyle Ave Belleville IL 62221,38.5178935,-89.9226223
University of Memphis,Southern Avenue Memphis TN 38152,35.1158539,-89.9311296
Nunez Community College,3710 Paris Road United States LA 70043,29.955098,-89.9582858
Northwest Mississippi Community College,4975 Hwy 51 N Senatobia MS 38668,34.625492,-89.9702635
Southern Illinois University-Edwardsville,Il State Rte 157 Edwardsville IL 62026,38.7934381,-89.9787421
Christian Brothers University,650 East Parkway South Memphis TN 38104,35.128596,-89.9824691
Rhodes College,2000 North Parkway Memphis TN 38112,35.1528744,-89.9926045
Le Moyne-Owen College,807 Walker Ave Memphis TN 38126,35.1180178,-90.0344861
Southwest Tennessee Community College,737 Union Avenue Memphis TN 38103,35.1384753,-90.0366638
Southern University at New Orleans,6400 Press Drive New Orleans LA 70126,30.0235606,-90.0448991
University of New Orleans,2000 Lakeshore Drive New Orleans LA 70148,30.0292776,-90.0647316
Dillard University,2601 Gentilly Blvd New Orleans LA 70122,29.9948773,-90.0675421
Spoon River College,23235 North County 22 Canton IL 61520,40.5530809,-90.0800511
Delgado Community College,615 City Park Avenue New Orleans LA 70119,29.9847034,-90.104671
Xavier University of Louisiana,1 Drexel Drive New Orleans LA 70125,29.9654259,-90.1093959
Loyola University New Orleans,6363 Saint Charles Ave New Orleans LA 70118,29.9353302,-90.1205465
Tulane University of Louisiana,6823 St. Charles Avenue New Orleans LA 70118,29.9354099,-90.122739
Tougaloo College,500 W County Line Rd Tougaloo MS 39174,32.4006802,-90.1570878
Gogebic Community College,E4946 Jackson Rd Ironwood MI 49938,46.472624,-90.16465
Belhaven University,1500 Peachtree St Jackson MS 39202,32.3198074,-90.169346
Millsaps College,1701 N State St Jackson MS 39210,32.3226511,-90.1778325
Lewis and Clark Community College,5800 Godfrey Rd Godfrey IL 62035,38.9518844,-90.1962632
Jackson State University,1400 J R Lynch Street Jackson MS 39217,32.2979167,-90.2059305
MacMurray College,447 East College Ave Jacksonville IL 62650,39.731828,-90.2231448
Arkansas State University Mid-South,2000 W.  Broadway West Memphis AR 72301,35.1456656,-90.2238067
Harris-Stowe State University,3026 Laclede Ave Saint Louis MO 63103,38.6319589,-90.2240265
Saint Louis University,One North Grand Blvd Saint Louis MO 63103,38.6346955,-90.2340587
Illinois College,1101 West College Ave Jacksonville IL 62650,39.7312595,-90.2460901
St. Louis College of Pharmacy,4588 Parkview Pl Saint Louis MO 63110,38.6366208,-90.2608024
University of Missouri-St Louis,One University Boulevard Saint Louis MO 63121,38.7096291,-90.3080589
Washington University in St Louis,One Brookings Drive Saint Louis MO 63130,38.6487895,-90.3107962
Fontbonne University,6800 Wydown Blvd Saint Louis MO 63105,38.6414182,-90.315441
Mississippi College,200 South Capitol Street Clinton MS 39058,32.3359652,-90.3292157
Mississippi Valley State University,14000 Highway 82 West Itta Bena MS 38941,33.5126982,-90.3416715
Webster University,470 E Lockwood Ave. Saint Louis MO 63119,38.590513,-90.345715
Knox College,2 E South St Galesburg IL 61401,40.9434553,-90.3701921
Copiah-Lincoln Community College,1001 Co-Lin Lane Wesson MS 39191,31.6903033,-90.4008317
Carl Sandburg College,2400 Tom L. Wilson Boulevard Galesburg IL 61401,40.981153,-90.407899
Hinds Community College,608 Hinds Boulevard Raymond MS 39154,32.253804,-90.413253
Three Rivers College,2080 Three Rivers Blvd Poplar Bluff MO 63901,36.7764609,-90.4307836
Saint Louis Community College,3221 McKelvey Rd. Bridgeton MO 63044,38.7456585,-90.4371196
Southwest Mississippi Community College,1156 College Dr Summit MS 39666,31.29293,-90.445248
Black Hawk College,6600 34th Avenue Moline IL 612655899,41.4768837,-90.4479459
Missouri Baptist University,One College Park Dr Saint Louis MO 63141,38.6428107,-90.4616744
Southeastern Louisiana University,548 Ned McGehee Ave. Hammond LA 70402,30.5134247,-90.4669384
Mineral Area College,5270 Flat River Road Park Hills MO 63601,37.844032,-90.4808028
University of Wisconsin-Platteville,1 University Plaza Platteville WI 53818,42.7322351,-90.4868112
Lindenwood University,209 S Kingshighway Saint Charles MO 63301,38.7859784,-90.4974718
Mississippi Delta Community College,Hwy 3 and Cherry St Moorhead MS 38761,33.4457044,-90.5052707
Maryville University of Saint Louis,650 Maryville University Drive Saint Louis MO 63141,38.6468582,-90.5054432
Augustana College,639 38th St Rock Island IL 61201,41.5051381,-90.5472032
Jefferson College,1000 Viking Drive Hillsboro MO 63050,38.2593094,-90.5599873
Coahoma Community College,3240 Friars Point Rd Clarksdale MS 38614,34.2322937,-90.5708746
Eastern Iowa Community College District,101 W 3rd St Davenport IA 52801,41.5221486,-90.5744391
Saint Ambrose University,518 W Locust St Davenport IA 52803,41.5406023,-90.5823186
Crowley's Ridge College,100 College Dr Paragould AR 72450,36.066437,-90.584504
Southwest Wisconsin Technical College,1800 Bronson Blvd Fennimore WI 53809,42.9761517,-90.6367349
St Charles Community College,4601 Mid Rivers Mall Dr Cottleville MO 63376,38.7590918,-90.6398705
Monmouth College,700 E Broadway Monmouth IL 61462,40.912214,-90.6404441
Loras College,1450 Alta Vista Dubuque IA 52004,42.5054189,-90.6802698
Arkansas State University-Main Campus,2105 E. Aggie Road Jonesboro AR 72401,35.8414567,-90.6806034
Western Illinois University,1 University Circle Macomb IL 61455,40.4766148,-90.6843599
Clarke University,1550 Clarke Dr Dubuque IA 52001,42.5091309,-90.689742
University of Dubuque,2000 University Ave Dubuque IA 52001,42.4977869,-90.6921934
Emmaus Bible College,2570 Asbury Rd Dubuque IA 52001,42.5105975,-90.7055878
Delta State University,1003 W Sunflower Road Cleveland MS 38733,33.746706,-90.7347194
Nicholls State University,University Station  La Hwy 1 Thibodaux LA 70301,29.7907128,-90.8028699
Northland College,1411 Ellis Avenue Ashland WI 54806,46.5802698,-90.8736669
Williams Baptist College,60 W Fulbright Avenue Walnut Ridge AR 72476,36.1245861,-90.9390498
East Central College,1964 Prairie Dell Rd Union MO 63084,38.4311131,-90.977368
Baton Rouge Community College,201 Community College Drive Baton Rouge LA 70806,30.4480275,-91.1368762
Alcorn State University,1000 ASU Dr Ste 359 Alcorn State MS 39096,31.8759422,-91.1402143
Southeastern Community College,1500 West Agency Road West Burlington IA 52655,40.8119257,-91.1737859
Southern University and A & M College,3rd Floor  J.S. Clark Adm. Building  P.O. Box 9374 Baton Rouge LA 70813,30.5586838,-91.1738289
Louisiana State University and Agricultural & Mechanical College,156 Thomas Boyd Hall Baton Rouge LA 70803,30.4150707,-91.1791769
University of Wisconsin-La Crosse,1725 State St La Crosse WI 54601,43.8136889,-91.2300094
Viterbo University,900 Viterbo Drive La Crosse WI 54601,43.8022454,-91.2451134
Western Technical College,400 Seventh St. North La Crosse WI 54601,43.8153635,-91.2460309
John Wood Community College,1301 S 48th Street Quincy IL 62305,39.912622,-91.337418
Hannibal-LaGrange University,2800 Palmyra Rd Hannibal MO 63401,39.7241427,-91.3851656
Quincy University,1800 College Ave Quincy IL 62301,39.9405616,-91.3855142
Cornell College,600 First St. SW Mount Vernon IA 52314,41.9245718,-91.4237652
University of Wisconsin-Eau Claire,105 Garfield Ave Eau Claire WI 54701,44.7985131,-91.5017528
Culver-Stockton College,One College Hill Canton MO 63435,40.1290996,-91.5335407
University of Iowa,101 Jessup Hall Iowa City IA 52242,41.661897,-91.5364924
Iowa Wesleyan University,601 N Main Street Mount Pleasant IA 52641,40.9728375,-91.5526085
Lyon College,2300 Highland Road Batesville AR 72501,35.7792058,-91.6283696
Winona State University,175 West Mark Street Winona MN 55987,44.0465984,-91.6421458
Mount Mercy University,1330 Elmhurst Dr NE Cedar Rapids IA 52402,42.0025313,-91.6520445
Kirkwood Community College,6301 Kirkwood Blvd SW Cedar Rapids IA 52406,41.9187029,-91.6553677
Coe College,1220 First Ave NE Cedar Rapids IA 52402,41.9882822,-91.6578519
Saint Mary's University of Minnesota,700 Terrace Heights Winona MN 55987,44.0457784,-91.6956335
Harding University,915 E. Market Ave. Searcy AR 72149,35.2491804,-91.7263201
Missouri University of Science and Technology,1201 N. State St. Rolla MO 65409,37.9534444,-91.7755633
Luther College,700 College Drive Decorah IA 52101,43.3133043,-91.7996724
Upper Iowa University,605 Washington St Fayette IA 52142,42.8385298,-91.8013479
University of Arkansas at Monticello,Highway 425 South Monticello AR 71656,33.6235915,-91.8027923
Vermilion Community College,1900 East Camp Street Ely MN 55731,47.9041671,-91.8382783
Missouri State University-West Plains,128 Garfield Avenue West Plains MO 65775,36.7292266,-91.8553193
University of Wisconsin-Stout,712 S. Broadway St. Menomonie WI 54751,44.875987,-91.9294497
William Woods University,One University Avenue Fulton MO 65251,38.8624839,-91.949568
Westminster College,501 Westminster Ave Fulton MO 65251,38.8500391,-91.9544836
University of Arkansas at Pine Bluff,1200 N University Mail Slot 4789 Pine Bluff AR 71601,34.2262213,-92.0195428
University of Louisiana at Lafayette,104 University Circle Lafayette LA 70503,30.2324598,-92.0323738
University of Louisiana at Monroe,700 University Avenue Monroe LA 71209,32.5306007,-92.0739628
University of Minnesota-Duluth,515 Darland Administration Bldg Duluth MN 55812,46.8170318,-92.0844331
University of Wisconsin-Superior,1605 Catlin Ave Superior WI 54880,46.7188135,-92.0893698
The College of Saint Scholastica,1200 Kenwood Ave Duluth MN 55811,46.8160713,-92.1056239
Lake Superior College,2101 Trinity Rd Duluth MN 55811,46.784743,-92.1452908
Lincoln University,820 Chestnut Street Jefferson City MO 65101,38.5638414,-92.1695212
Philander Smith College,900 W. Daisy Bates Drive Little Rock AR 72202,34.7380987,-92.2820652
Arkansas Baptist College,1600 Dr. Martin Luther King Drive Little Rock AR 72202,34.7354335,-92.2894837
Columbia College,1001 Rogers Street Columbia MO 65216,38.9578722,-92.3264079
University of Missouri-Columbia,105 Jesse Hall Columbia MO 65211,38.9453385,-92.3282738
Hawkeye Community College,1501 E Orange Rd Waterloo IA 50701,42.4297978,-92.3296127
University of Arkansas at Little Rock,2801 S University Ave Little Rock AR 72204,34.7257004,-92.340731
Indian Hills Community College,525 Grandview Ave Ottumwa IA 52501,41.0457764,-92.395689
Louisiana State University-Alexandria,8100 Hwy 71 South Alexandria LA 71302,31.178112,-92.4143367
Rochester Community and Technical College,851 30th Ave SE Rochester MN 55904,44.0139319,-92.4228725
Louisiana College,1140 College Dr Pineville LA 71359,31.325387,-92.4267002
Central Christian College of the Bible,911 E Urbandale Dr Moberly MO 65270,39.3960168,-92.4274335
Louisiana State University-Eunice,2048 Johnson Hwy Eunice LA 70535,30.4746996,-92.4340744
Hendrix College,1600 Washington Ave Conway AR 72032,35.0995323,-92.4406773
Central Baptist College,1501 College Avenue Conway AR 72034,35.0837628,-92.4449639
Fond du Lac Tribal and Community College,2101 14th St Cloquet MN 55720,46.6896331,-92.4516746
Moberly Area Community College,101 College Ave Moberly MO 65270,39.4179392,-92.4542337
University of Central Arkansas,201 Donaghey Ave Conway AR 72035,35.0773132,-92.4579421
University of Northern Iowa,1227 W 27th St Cedar Falls IA 50614,42.514711,-92.4595681
Wartburg College,100 Wartburg Blvd. Waverly IA 50677,42.7286543,-92.4824715
Mesabi Range College,1001 Chestnut Street West Virginia MN 55792,47.5250385,-92.5507898
Truman State University,100 E Normal Avenue Kirksville MO 63501,40.1885977,-92.5820442
University of Wisconsin-River Falls,410 S 3rd St River Falls WI 54022,44.8534105,-92.6224938
Louisiana Tech University,1310 West Railroad Avenue Ruston LA 71272,32.5281991,-92.6472759
William Penn University,201 Trueblood Ave Oskaloosa IA 52577,41.3088225,-92.6480881
Central Methodist University-College of Liberal Arts and Sciences,411 Central Methodist Square Fayette MO 65248,39.1514905,-92.6839663
Grambling State University,403 Main Street Grambling LA 71245,32.5221156,-92.7145047
Southern Arkansas University Tech,6415 Spellman Road Camden AR 717011906,33.6322452,-92.7177303
Grinnell College,1121 Park Street Grinnell IA 50112,41.7469499,-92.7230514
Marshalltown Community College,3700 S Center St Marshalltown IA 50158,42.0013493,-92.9098343
Central College,812 University Pella IA 50219,41.4015297,-92.9221676
Hibbing Community College,1515 E 25th St Hibbing MN 55746,47.4240927,-92.9228442
Century College,3300 Century Ave N White Bear Lake MN 55110,45.0416329,-92.9830809
Riverland Community College,1900 8th Ave NW Austin MN 55912,43.6760635,-92.9951507
Ouachita Baptist University,410 Ouachita St Arkadelphia AR 71998,34.124339,-93.0518906
Henderson State University,1100 Henderson Street Arkadelphia AR 71999,34.126744,-93.0596154
Champion Christian College,600 Garland Avenue Hot Springs AR 71913,34.5002048,-93.0656415
Dakota County Technical College,1300  145th Street East Rosemount MN 55068,44.7386313,-93.0804606
North Arkansas College,1515 Pioneer Drive Harrison AR 72601,36.2211118,-93.0887707
Northwestern State University of Louisiana,175 Sam Sibley Drive Natchitoches LA 71497,31.75041,-93.0975096
North Iowa Area Community College,500 College Dr Mason City IA 50401,43.1567371,-93.1341934
Arkansas Tech University,1509 N Boulder Ave Russellville AR 72801,35.293186,-93.135701
Concordia University-Saint Paul,1282 Concordia Ave Saint Paul MN 55104,44.950563,-93.15527
Carleton College,One North College Street Northfield MN 55057,44.4613633,-93.1559742
Bethel University,3900 Bethel Dr Saint Paul MN 55112,45.0575752,-93.1624341
Hamline University,1536 Hewitt Avenue Saint Paul MN 55104,44.9657315,-93.1653529
University of Northwestern-St Paul,3003 Snelling Ave N Saint Paul MN 55113,45.0337612,-93.1683209
Macalester College,1600 Grand Ave Saint Paul MN 55105,44.9379243,-93.1690746
St Catherine University,2004 Randolph Ave Saint Paul MN 55105,44.9247103,-93.1821902
St Olaf College,1520 St Olaf Ave Northfield MN 55057,44.4611523,-93.1854975
University of St Thomas,2115 Summit Ave Saint Paul MN 55105,44.9443261,-93.1884006
Missouri Valley College,500 E College St Marshall MO 65340,39.108868,-93.1902975
McNeese State University,4205 Ryan St Lake Charles LA 70605,30.1803625,-93.2179514
University of Minnesota-Twin Cities,100 Church Street SE Minneapolis MN 55455,44.9758602,-93.2345109
Southern Arkansas University Main Campus,100 E. University Magnolia AR 71753,33.2910064,-93.2359922
College of the Ozarks,100 Opportunity Avenue Point Lookout MO 65726,36.6192811,-93.239568
Augsburg University,2211 Riverside Ave Minneapolis MN 55454,44.9668218,-93.2417957
North Central University,910 Elliot Ave Minneapolis MN 55404,44.9690031,-93.2616887
Evangel University,1111 N Glenstone Springfield MO 65802,37.2222974,-93.2640205
Ellsworth Community College,1100 College Ave Iowa Falls IA 50126,42.5262564,-93.266653
State Fair Community College,3201 W 16th Street Sedalia MO 65301,38.6964547,-93.2683429
Missouri State University-Springfield,901 S National Avenue Springfield MO 65897,37.200566,-93.2806696
Baptist Bible College,628 E Kearney Springfield MO 65803,37.2401984,-93.2841826
Drury University,900 N. Benton Ave Springfield MO 65802,37.2196487,-93.286156
Anoka-Ramsey Community College,11200 Mississippi Blvd NW Coon Rapids MN 55433,45.1740986,-93.3507881
Southwest Baptist University,1600 University Ave Bolivar MO 65613,37.6015836,-93.4114334
University of the Ozarks,415 N College Ave Clarksville AR 72830,35.4785772,-93.4656137
Itasca Community College,1851 Hwy 169 East Grand Rapids MN 55744,47.2432395,-93.4950407
Simpson College,701 North C St Indianola IA 50125,41.3648968,-93.5648599
Grand View University,1200 Grandview Ave Des Moines IA 50316,41.6204245,-93.5996217
Des Moines Area Community College,2006 Ankeny Blvd Ankeny IA 50023,41.7483226,-93.6004005
North Central Missouri College,1301 Main St Trenton MO 64683,40.078383,-93.6182975
Faith Baptist Bible College and Theological Seminary,1900 NW 4th St Ankeny IA 50023,41.7370765,-93.6244716
Waldorf University,106 S Sixth St Forest City IA 50436,43.262914,-93.6404247
Iowa State University,1750 Beardshear Hall Ames IA 50011,42.0266573,-93.6464516
Bossier Parish Community College,6220 East Texas Bossier City LA 71111,32.5395936,-93.6467623
Drake University,2507 University Avenue Des Moines IA 50311,41.6022771,-93.6520879
Louisiana State University-Shreveport,1 University Place Shreveport LA 71115,32.4283894,-93.7026658
Centenary College of Louisiana,2911 Centenary Boulevard Shreveport LA 71104,32.4830533,-93.7334146
University of Central Missouri,108 W South Street Warrensburg MO 64093,38.7581171,-93.7383776
Crown College,8700 College View Drive Saint Bonifacius MN 55375,44.884838,-93.7425367
Southern University at Shreveport,3050 Martin Luther King Dr Shreveport LA 71107,32.5447613,-93.8343617
Lamar State College-Port Arthur,1500 Proctor St Port Arthur TX 77641,29.8799965,-93.926252
Graceland University-Lamoni,1 University Place Lamoni IA 50140,40.6161507,-93.9283652
Rainy River Community College,1501 Hwy 71 International Falls MN 56649,49.1280704,-93.9300854
Gustavus Adolphus College,800 West College Avenue Saint Peter MN 56082,44.3232193,-93.9750883
Bethany Lutheran College,700 Luther Dr Mankato MN 56001,44.1667466,-93.9912901
Minnesota State University-Mankato,South Rd and Ellis Ave Mankato MN 56001,44.1462142,-93.9993332
Lamar University,4400 MLK Blvd Beaumont TX 77705,30.0440162,-94.0706633
Texas A&M University-Texarkana,7101 University Avenue Texarkana TX 75503,33.4898106,-94.1036731
Saint Cloud State University,720 Fourth Ave. South Saint Cloud MN 56301,45.5535198,-94.1495336
St Cloud Technical and Community College,1540 Northway Drive Saint Cloud MN 56303,45.5789674,-94.1762487
University of Arkansas,Administration Bldg 425 Fayetteville AR 72701,36.0699572,-94.1769533
Iowa Central Community College,One Triton Circle Fort Dodge IA 50501,42.4902957,-94.2040086
Central Lakes College-Brainerd,501 West College Drive Brainerd MN 56401,46.345808,-94.215585
University of Arkansas Community College Rich Mountain,1100 College Dr Mena AR 71953,34.591978,-94.2201514
Ecclesia College,9653 Nations Dr Springdale AR 72762,36.2140489,-94.2369071
Panola College,1109 W Panola Street Carthage TX 75633,32.1568728,-94.3562797
Crowder College,601 Laclede Ave Neosho MO 64850,36.8136425,-94.3680755
University of Arkansas-Fort Smith,5210 Grand Ave Fort Smith AR 72913,35.3848407,-94.3726531
East Texas Baptist University,One Tiger Drive Marshall TX 75670,32.5537361,-94.3747764
Wiley College,711 Wiley Ave Marshall TX 75670,32.5384916,-94.3752104
Southwestern Community College,1501 West Townline Street Creston IA 50801,41.0732022,-94.3808459
William Jewell College,500 College Hill Liberty MO 64068,39.2476836,-94.4273274
Missouri Southern State University,3950 E. Newman Road Joplin MO 64801,37.0972414,-94.4598183
Martin Luther College,1995 Luther Ct New Ulm MN 56073,44.3045069,-94.4720098
Ozark Christian College,1111 N Main St Joplin MO 64801,37.1033135,-94.5095979
Calvary University,15800 Calvary Road Kansas City MO 64147,38.8391679,-94.5447145
John Brown University,2000 W University St Siloam Springs AR 72761,36.1890088,-94.5611738
Rockhurst University,1100 Rockhurst Rd Kansas City MO 64110,39.0309284,-94.5715533
University of Missouri-Kansas City,5100 Rockhill Rd. Kansas City MO 64110,39.0336695,-94.5762777
Metropolitan Community College-Kansas City,3200 Broadway Kansas City MO 64111,39.068401,-94.590408
Avila University,11901 Wornall Rd Kansas City MO 64145,38.911948,-94.5921098
Carl Albert State College,1507 S McKenna Poteau OK 74953,35.0387744,-94.6344822
Leech Lake Tribal College,6945 Littlewolf Road NW Cass Lake MN 56633,47.395383,-94.652303
Stephen F Austin State University,1936 North Street Nacogdoches TX 75962,31.6188766,-94.6525142
Kansas Christian College,7401 Metcalf Overland Park KS 66204,38.9952185,-94.6663425
Park University,8700 NW River Park Dr Parkville MO 64152,39.1895409,-94.6811598
Pittsburg State University,1701 S Broadway Pittsburg KS 66762,37.3913218,-94.7036545
Fort Scott Community College,2108 S Horton Fort Scott KS 66701,37.8169345,-94.7188216
LeTourneau University,2100 S Mobberly Ave Longview TX 75602,32.4669735,-94.7264712
Johnson County Community College,12345 College Blvd Overland Park KS 66210,38.9237863,-94.7306238
Angelina College,3500 South First Lufkin TX 75902,31.2871142,-94.7318131
Kansas City Kansas Community College,7250 State Ave Kansas City KS 66112,39.1171336,-94.7457168
MidAmerica Nazarene University,2030 E College Way Olathe KS 66062,38.8730082,-94.783399
Missouri Western State University,4525 Downs Dr Saint Joseph MO 64507,39.7570008,-94.7869192
Galveston College,4015 Ave Q Galveston TX 77550,29.284711,-94.807822
Iowa Lakes Community College,19 S 7th St Estherville IA 51334,43.4013635,-94.8356184
Northeastern Oklahoma A&M College,200 I St NE Miami OK 74354,36.8795784,-94.8674195
Kilgore College,1100 Broadway Kilgore TX 75662,32.3773413,-94.8725661
Bemidji State University,1500 Birchmont Dr Bemidji MN 56601,47.4826372,-94.8746802
Northeast Texas Community College,2886 FM 1735 Mount Pleasant TX 75455,33.1039783,-94.8802565
Northwest Missouri State University,800 University Drive Maryville MO 64468,40.3563259,-94.8857793
Oak Hills Christian College,1600 Oak Hills Rd SW Bemidji MN 56601,47.4241899,-94.9018774
University of Saint Mary,4100 S 4th St Trafficway Leavenworth KS 66048,39.2783084,-94.9063137
Northeastern State University,600 N Grand Tahlequah OK 74464,35.920645,-94.9661094
Lee College,511 S Whiting Baytown TX 77520,29.7306898,-94.9761843
Ridgewater College,2101 15th Ave NW Willmar MN 56201,45.1385756,-95.0727655
Benedictine College,1020 N 2nd St Atchison KS 66002,39.5722819,-95.1149933
San Jacinto Community College,4624 Fairmont Parkway Pasadena TX 77505,29.6484169,-95.1722797
Jarvis Christian College,PR 7631 Hwy 80 E Hawkins TX 75765,32.5891917,-95.1797935
Baker University,618 Eighth Street Baldwin City KS 66006,38.7763345,-95.1881414
Buena Vista University,610 W 4th St Storm Lake IA 50588,42.6419535,-95.2073401
Haskell Indian Nations University,155 Indian Ave Lawrence KS 66046,38.938797,-95.2328993
Alvin Community College,3110 Mustang Rd Alvin TX 77511,29.3990108,-95.2449001
University of Kansas,Strong Hall  1450 Jayhawk Blvd  Room 230 Lawrence KS 66045,38.958542,-95.2476138
The University of Texas at Tyler,3900 University Blvd Tyler TX 75799,32.3151773,-95.2546031
Labette Community College,200 S 14th Parsons KS 67357,37.3390987,-95.2553038
Ottawa University-Ottawa,1001 South Cedar Ottawa KS 66067,38.6029423,-95.2637339
Highland Community College,606 W Main Highland KS 66035,39.8600065,-95.2711453
Tyler Junior College,1400 East Fifth Street Tyler TX 75701,32.3329038,-95.2808928
Jacksonville College-Main Campus,105 B J Albritton Dr Jacksonville TX 75766,31.9649981,-95.2819133
Texas College,2404 N. Grand Avenue Tyler TX 75702,32.3746216,-95.3120536
Connors State College,700 College Road Warner OK 74469,35.4918602,-95.322511
Eastern Oklahoma State College,1301 W Main St Wilburton OK 74578,34.9134248,-95.3277491
Bacone College,2299 Old Bacone Rd Muskogee OK 74403,35.7740418,-95.3344863
University of Houston,212 E. Cullen Building Houston TX 77204,29.7203176,-95.343528
Texas Southern University,3100 Cleburne St Houston TX 77004,29.7214214,-95.3592692
University of St Thomas,3800 Montrose Blvd Houston TX 77006,29.7385517,-95.391389
Allen County Community College,1801 N Cottonwood Iola KS 66749,37.938448,-95.399694
Rice University,6100 S Main St Houston TX 77005,29.69102,-95.4172133
Neosho County Community College,800 W 14th St Chanute KS 66720,37.6674718,-95.4633237
Houston Baptist University,7502 Fondren Rd Houston TX 77074,29.6929877,-95.5147577
Paris Junior College,2400 Clarksville St Paris TX 75460,33.6486992,-95.5285407
Sam Houston State University,1806 Ave J Huntsville TX 77340,30.7155156,-95.5490274
Minnesota West Community and Technical College,1593 11th Ave Granite Falls MN 56241,44.8079963,-95.5597461
Coffeyville Community College,400 W 11th St Coffeyville KS 67337,37.0337728,-95.622796
Rogers State University,1701 W Will Rogers Blvd Claremore OK 74017,36.3182518,-95.6406352
Washburn University,1700 SW College Avenue Topeka KS 66621,39.03334,-95.7015649
Independence Community College,1057 West College Avenue Independence KS 67301,37.1964732,-95.7196767
Peru State College,600 Hoyt Street Peru NE 68421,40.475025,-95.7340136
Southwest Minnesota State University,1501 State St Marshall MN 56258,44.4541149,-95.7599734
Iowa Western Community College,2700 College Rd Council Bluffs IA 51503,41.2725376,-95.8005917
Trinity Valley Community College,100 Cardinal Drive Athens TX 75751,32.1963422,-95.8600007
University of Minnesota-Morris,309 Behmler Hall Morris MN 56267,45.5890317,-95.8969661
Texas A & M University-Commerce,2600 South Neal Commerce TX 75429,33.23814,-95.908807
Bellevue University,1000 Galvin Rd S Bellevue NE 68005,41.1509774,-95.9195956
University of Tulsa,800 South Tucker Drive Tulsa OK 74104,36.1492597,-95.9465855
Creighton University,2500 California Plaza Omaha NE 68178,41.2655878,-95.9486026
Oral Roberts University,7777 S Lewis Ave. Tulsa OK 74171,36.0480386,-95.9557686
Oklahoma Wesleyan University,2201 Silver Lake Rd Bartlesville OK 74006,36.7181532,-95.9567142
Prairie View A & M University,FM 1098 Road & University Drive Prairie View TX 77446,30.0879218,-95.9890087
University of Nebraska at Omaha,6001 Dodge St Omaha NE 68182,41.2582497,-96.0107049
Northwestern College,101 Seventh St SW Orange City IA 51041,42.9962057,-96.0590321
Wharton County Junior College,911 Boling Hwy Wharton TX 77488,29.323815,-96.0857765
Nebraska Christian College of Hope International University,12550 S. 114th St. Papillion NE 68046,41.121667,-96.093209
Minnesota State Community and Technical College,1414 College Way Fergus Falls MN 56537,46.2891665,-96.0974515
Northland Community and Technical College,1101 Hwy One East Thief River Falls MN 56701,48.1252563,-96.16354
Dordt College,700 7th Street NE Sioux Center IA 51250,43.0843536,-96.1657944
Emporia State University,1 Kellogg Circle Emporia KS 66801,38.4133013,-96.1811734
Southwestern Christian College,200 Bowser Circle Terrell TX 75160,32.7360116,-96.2850065
Texas A & M University-College Station,JKW Administration Building  Suite 200 College Station TX 77843,30.6187558,-96.3364772
Morningside College,1501 Morningside Ave Sioux City IA 51106,42.4746152,-96.3597007
Southeastern Oklahoma State University,425 W. University Blvd Durant OK 74701,34.0049685,-96.3764866
Blinn College,902 College Ave Brenham TX 77833,30.1587451,-96.4095088
Briar Cliff University,3303 Rebecca Street Sioux City IA 51104,42.5270102,-96.4270388
Little Priest Tribal College,610 E. College Drive Winnebago NE 68071,42.2351598,-96.4679381
Midland University,900 N. Clarkson Fremont NE 68025,41.437512,-96.4897867
Navarro College,3200 W 7th Avenue Corsicana TX 75110,32.0761398,-96.4987055
Manhattan Christian College,1415 Anderson Ave Manhattan KS 66502,39.1860646,-96.5788176
Kansas State University,919 Mid-Campus Drive  Anderson Hall Manhattan KS 66506,39.1886244,-96.5810747
Austin College,900 N Grand Ave Sherman TX 75090,33.647123,-96.5983612
North Dakota State College of Science,800 N 6th St Wahpeton ND 58076,46.2715363,-96.6082342
University of Minnesota-Crookston,2900 University Ave Crookston MN 56716,47.8020868,-96.6097964
Southeast Community College Area,301 South 68th Street Place Lincoln NE 68510,40.810791,-96.6281769
Grayson College,6101 Grayson Drive Denison TX 75020,33.7065029,-96.6330819
Collin County Community College District,3452 Spur 399 McKinney TX 75069,33.1624419,-96.6385575
Nebraska Wesleyan University,5000 St Paul Ave Lincoln NE 68504,40.8387836,-96.6475961
Union College,3800 S 48th Street Lincoln NE 68506,40.7745521,-96.6522539
Eastfield College,3737 Motley Dr Mesquite TX 75150,32.8158186,-96.6592165
East Central University,1100 E. 14th Street Ada OK 74820,34.7728483,-96.6598029
Murray State College,One Murray Campus Tishomingo OK 73460,34.2242914,-96.6775877
University of Nebraska-Lincoln,14th and R St Lincoln NE 68588,40.8175693,-96.7005013
Seminole State College,2701 Boren Blvd Seminole OK 74868,35.2473029,-96.7046035
Richland College,12800 Abrams Rd. Dallas TX 75243,32.9198714,-96.7355133
Augustana University,2001 S Summit Ave Sioux Falls SD 57197,43.525073,-96.73698
University of Sioux Falls,1101 W 22nd St Sioux Falls SD 57105,43.5327632,-96.737942
The University of Texas at Dallas,800 West Campbell  Road Richardson TX 75080,32.9816479,-96.752658
Paul Quinn College,3837 Simpson Stuart Rd Dallas TX 75241,32.6789702,-96.7558858
Minnesota State University Moorhead,1104 Seventh Avenue South Moorhead MN 56563,46.8671306,-96.7592967
Cedar Valley College,3030 North Dallas Ave Lancaster TX 75134,32.6256727,-96.7640374
Concordia College at Moorhead,901 S 8th St Moorhead MN 56562,46.8648964,-96.770366
South Dakota State University,1015 Campanile Avenue Brookings SD 57007,44.3165147,-96.7858305
Southern Methodist University,6425 Boaz St Dallas TX 75275,32.8449511,-96.7859334
North Dakota State University-Main Campus,1301  12th Avenue North Fargo ND 58108,46.8903848,-96.7981266
Brookhaven College,3939 Valley View Ln Farmers Branch TX 75244,32.9282811,-96.8502191
Southwestern Assemblies of God University,1200 Sycamore St. Waxahachie TX 75165,32.4042402,-96.8521408
Butler Community College,901 S Haverhill Rd El Dorado KS 67042,37.8064386,-96.8828334
Dallas Christian College,2700 Christian Pkwy. Dallas TX 75234,32.9133282,-96.8867464
Mountain View College,4849 West Illinois Ave. Dallas TX 75211,32.7269983,-96.903725
University of Dallas,1845 E Northgate Drive Irving TX 75062,32.8462097,-96.9210392
University of South Dakota,414 E Clark St Vermillion SD 57069,42.7872223,-96.9249387
Oklahoma Baptist University,500 W University Shawnee OK 74804,35.3604545,-96.9324868
Dallas Baptist University,3000 Mountain Creek Parkway Dallas TX 75211,32.7100766,-96.9469828
Doane University-Arts & Sciences,1014 Boswell Avenue Crete NE 68333,40.622954,-96.950967
North Lake College,5001 North MacArthur Blvd. Irving TX 75038,32.8752069,-96.9626003
Southwestern College,100 College Street Winfield KS 67156,37.2500656,-96.9758629
University of Houston-Victoria,3007 N. Ben Wilson Victoria TX 77901,28.816247,-96.9763288
Wayne State College,1111 Main Street Wayne NE 68787,42.2397434,-97.0131371
Cowley County Community College,125 S 2nd St Arkansas City KS 67005,37.061329,-97.0419074
Sisseton Wahpeton College,12572 BIA Rd 700 Sisseton SD 57262,45.5627346,-97.0606685
Oklahoma State University-Main Campus,107 Whitehurst Stillwater OK 74078,36.1219844,-97.070567
University of North Dakota,264 Centennial Drive  Stop 8193 Grand Forks ND 58202,47.922891,-97.0768014
Hill College,112 Lamar Dr Hillsboro TX 76645,32.0118479,-97.0882951
Concordia University-Nebraska,800 N Columbia Ave Seward NE 68434,40.9135666,-97.0890104
Dakota State University,820 N Washington Ave Madison SD 57042,44.0124808,-97.1117383
The University of Texas at Arlington,701 S. Nedderman Dr. Arlington TX 76013,32.7292117,-97.1151971
Baylor University,500 Speight Ave. Waco TX 76798,31.5447753,-97.1182662
Texas Woman's University,304 Administration Dr Denton TX 76204,33.2262575,-97.127863
University of North Texas,1501 W.Chestnut Ave. Denton TX 76203,33.2112391,-97.1414643
Arlington Baptist University,3001 W Division Arlington TX 76012,32.739242,-97.1564685
North Central Texas College,1525 W California Street Gainesville TX 76240,33.6187918,-97.1659405
McLennan Community College,1400 College Dr Waco TX 76708,31.5899707,-97.1719963
Tabor College,400 S Jefferson Hillsboro KS 67063,38.3499975,-97.1996964
Langston University,102 Page Hall Langston OK 73050,35.9459622,-97.262907
Texas Wesleyan University,1201 Wesleyan St Fort Worth TX 76105,32.7331261,-97.2796183
Wichita State University,1845 N. Fairmount Wichita KS 67260,37.716465,-97.2955956
Northern Oklahoma College,1220 E Grand Ave Tonkawa OK 74653,36.678641,-97.296112
Mayville State University,330 Third Street NE Mayville ND 58257,47.505783,-97.3225249
Texas A & M University-Corpus Christi,6300 Ocean Dr. Corpus Christi TX 78412,27.712792,-97.3241191
Southwestern Adventist University,100 W Hillcrest Keene TX 76059,32.3970475,-97.3261376
Bethel College-North Newton,300 E 27th St North Newton KS 67117,38.0736885,-97.3433008
Temple College,2600 S 1st St Temple TX 76504,31.072684,-97.3522031
Texas Christian University,2800 S University Dr Fort Worth TX 76129,32.709151,-97.3593366
Friends University,2100 W. University Ave. Wichita KS 67213,37.6771802,-97.366881
Newman University,3100 McCormick Ave Wichita KS 67213,37.6735241,-97.3779091
Northeast Community College,801 E Benjamin Norfolk NE 68702,42.0495426,-97.3968066
Mount Marty College,1105 W. 8th Street Yankton SD 57078,42.8741668,-97.4078814
Rose State College,6420 S E 15th Midwest City OK 73110,35.4497498,-97.4132203
Hesston College,301 South Main Hesston KS 67062,38.1345466,-97.4339328
University of Oklahoma-Norman Campus,660 Parrington Oval Norman OK 73019,35.2085041,-97.4456811
University of Mary Hardin-Baylor,900 College St Belton TX 76513,31.0708561,-97.4665354
Oklahoma Christian University,2501 E Memorial Rd Edmond OK 73013,35.6127474,-97.4695814
University of Central Oklahoma,100 N University Dr Edmond OK 73034,35.6551099,-97.4720166
Randall University,3701 S I-35 Service Road Moore OK 73160,35.300747,-97.4910046
Oklahoma City University,2501 N Blackwelder Oklahoma City OK 73106,35.495481,-97.5410111
Mid-America Christian University,3500 SW 119th St Oklahoma City OK 73170,35.347349,-97.577237
York College,1125 E 8th St York NE 68467,40.86909,-97.579154
Kansas Wesleyan University,100 E. Claflin Ave. Salina KS 67401,38.8134816,-97.6093619
Southern Nazarene University,6729 NW 39th Expy Bethany OK 73008,35.5118819,-97.6284522
Southwestern Christian University,7210 NW 39th Expressway Bethany OK 73008,35.5133242,-97.639312
McPherson College,1600 E. Euclid McPherson KS 67460,38.3721279,-97.642027
Southwestern University,1001 E. University Avenue Georgetown TX 78626,30.6368922,-97.664306
Cloud County Community College,2221 Campus Dr Concordia KS 66901,39.5539267,-97.6663162
Central Christian College of Kansas,1200 S Main McPherson KS 67460,38.3583827,-97.6676974
Bethany College,335 E Swensson St Lindsborg KS 67456,38.5799308,-97.6721221
Huston-Tillotson University,900 Chicon St Austin TX 78702,30.2646809,-97.7223309
The University of Texas at Austin,110 Inner Campus Drive Austin TX 78712,30.2861062,-97.7393634
Coastal Bend College,3800 Charco Rd Beeville TX 78102,28.4358166,-97.7563978
Saint Edward's University,3001 S Congress Ave Austin TX 78704,30.2315177,-97.7566899
Weatherford College,225 College Park Drive Weatherford TX 76086,32.7412919,-97.7925756
Concordia University Texas,11400 Concordia University Drive Austin TX 78726,30.4209992,-97.8362386
Texas A & M University-Kingsville,700 University Blvd Kingsville TX 78363,27.5166951,-97.8826288
Hutchinson Community College,1300 N Plum St Hutchinson KS 67501,38.0666992,-97.9198954
Texas State University,601 University Dr San Marcos TX 78666,29.8888838,-97.9430682
University of Science and Arts of Oklahoma,17th Street and Grand Avenue Chickasha OK 73018,35.0295652,-97.9546929
Redlands Community College,1300 S Country Club Rd El Reno OK 730365304,35.518597,-97.9749531
Texas Lutheran University,1000 W. Court St Seguin TX 78155,29.5720802,-97.9850616
Valley City State University,101 College St SW Valley City ND 58072,46.9184614,-98.0039265
Dakota Wesleyan University,1200 W University Ave Mitchell SD 57301,43.6984049,-98.0303248
The University of Texas Rio Grande Valley,1201 W University Dr Edinburg TX 78539,26.3081983,-98.1740158
Sterling College,125 W. Cooper Sterling KS 67579,38.2201653,-98.208995
Tarleton State University,1333 W. Washington Stephenville TX 76401,32.2160426,-98.2159537
Central Community College,3134 West Hwy 34 Grand Island NE 68802,40.8896717,-98.3724381
Hastings College,710 N Turner Ave Hastings NE 68901,40.5906776,-98.3746145
Cameron University,2800 West Gore Blvd Lawton OK 73505,34.6054387,-98.4361444
University of the Incarnate Word,4301 Broadway San Antonio TX 78209,29.4678446,-98.4670993
Trinity University,One Trinity Place San Antonio TX 78212,29.4642886,-98.4819314
Northern State University,1200 S Jay St Aberdeen SD 57401,45.4527992,-98.4837391
Presentation College,1500 N Main Aberdeen SD 57401,45.4839399,-98.4912293
Universidad del Sagrado Corazon,Calle Rosales Esq San Antonio Pda 26 1/2 Santurce PR 907,29.4241219,-98.4936282
Trinity Bible College and Graduate School,50 6th Ave S Ellendale ND 584367150,46.0005465,-98.5182677
Midwestern State University,3410 Taft Blvd Wichita Falls TX 76308,33.871351,-98.5215674
Our Lady of the Lake University,411 SW 24th St. San Antonio TX 78207,29.4269288,-98.5439494
St. Mary's University,One Camino Santa Maria San Antonio TX 78228,29.452695,-98.5609206
The University of Texas at San Antonio,One UTSA Circle San Antonio TX 78249,29.5845786,-98.6167664
Northwestern Oklahoma State University,709 Oklahoma Blvd Alva OK 73717,36.7967815,-98.6683902
Ranger College,1100 College Circle Ranger TX 76470,32.4585435,-98.6823645
University of Jamestown,608 6th St NE Jamestown ND 58405,46.9139031,-98.7042178
Southwestern Oklahoma State University,100 Campus Dr Weatherford OK 73096,35.5354936,-98.7078062
Pratt Community College,348 NE SR 61 Pratt KS 67124,37.6557822,-98.712289
Barton County Community College,245 NE 30th Road Great Bend KS 67530,38.4037674,-98.7331466
Lake Region State College,1801 College Dr N Devils Lake ND 58301,48.1261678,-98.8659278
Cisco College,101 College Heights Cisco TX 76437,32.4008802,-98.9852757
Howard Payne University,1000 Fisk St. Brownwood TX 76801,31.7159054,-98.9853615
University of Nebraska at Kearney,905 W 25th St Kearney NE 68849,40.7006228,-99.0925816
Barclay College,607 N Kingman Haviland KS 67059,37.6209975,-99.1043105
Schreiner University,2100 Memorial Blvd Kerrville TX 78028,30.0303241,-99.1303962
Vernon College,4400 College Dr. Vernon TX 76384,34.1599813,-99.3194747
Western Oklahoma State College,2801 N Main St Altus OK 73521,34.6689365,-99.3367889
Fort Hays State University,600 Park St Hays KS 67601,38.8731404,-99.3402104
Texas A & M International University,5201 University Blvd Laredo TX 78041,27.5734867,-99.4350531
Laredo Community College,West End Washington St Laredo TX 78040,27.5087686,-99.518781
Abilene Christian University,ACU Box 27916 Abilene TX 79699,32.469732,-99.708098
Hardin-Simmons University,2200 Hickory Abilene TX 79698,32.4762039,-99.7340038
Southwest Texas Junior College,2401 Garner Field Rd Uvalde TX 78801,29.2195791,-99.7404492
Turtle Mountain Community College,10145 BIA #7 North Belcourt ND 58316,48.8165127,-99.744902
McMurry University,S 14th and Sayles Blvd Abilene TX 79697,32.4321567,-99.7481098
Dodge City Community College,2501 N 14th Ave Dodge City KS 67801,37.7777983,-100.0335003
Dakota College at Bottineau,105 Simrall Blvd Bottineau ND 58318,48.832551,-100.441195
Angelo State University,2601 W. Avenue N San Angelo TX 76909,31.4414289,-100.466001
Nebraska College of Technical Agriculture,404 East 7th Curtis NE 69025,40.6354483,-100.5104095
Mid-Plains Community College,1101 Halligan Drive North Platte NE 69101,41.1103171,-100.7488942
University of Mary,7500 University Dr Bismarck ND 58504,46.721353,-100.7531659
United Tribes Technical College,3315 University Dr Bismarck ND 58504,46.7688374,-100.7607191
Bismarck State College,1500 Edwards Ave. Bismarck ND 585065587,46.8222613,-100.8191235
Garden City Community College,801 Campus Dr Garden City KS 67846,37.9706495,-100.8473785
Clarendon College,1122 College Drive Clarendon TX 79226,34.944589,-100.9024097
Western Texas College,6200 College Ave Snyder TX 79549,32.6794057,-100.9146204
Seward County Community College,1801 N. Kansas Ave. Liberal KS 67901,37.0602274,-100.9178417
Colby Community College,1255 S Range Colby KS 67701,39.3775645,-101.0528795
Minot State University,500 University Ave W Minot ND 58707,48.2465875,-101.3005673
Frank Phillips College,1301 W. Roosevelt St. Borger TX 79008,35.6568328,-101.4060969
Howard College,1001 Birdwell Lane Big Spring TX 79720,32.2522202,-101.4459816
Oklahoma Panhandle State University,323 Eagle Ave Goodwell OK 73939,36.595016,-101.6286679
Northwest Kansas Technical College,1209 Harrison St Goodland KS 67735,39.346341,-101.7009195
Wayland Baptist University,1900 W 7th St. Plainview TX 79072,34.1869437,-101.727693
Texas Tech University,Broadway and University Avenue Lubbock TX 79409,33.5842591,-101.8782822
West Texas A & M University,2501 4th Ave Canyon TX 79016,34.9813968,-101.9158737
Lubbock Christian University,5601 19th Street Lubbock TX 79407,33.5760419,-101.9343927
Midland College,3600 N Garfield Midland TX 79705,32.0298602,-102.1075392
Oglala Lakota College,490 Piya Wiconi Road Kyle SD 57752,43.4239256,-102.1815103
The University of Texas of the Permian Basin,4901 E University Odessa TX 79762,31.8876067,-102.3230046
South Plains College,1401 S. College Ave Levelland TX 79336,33.578406,-102.3669395
Odessa College,201 W University Blvd Odessa TX 79764,31.8676128,-102.3816728
Lamar Community College,2401 S Main St Lamar CO 81052,38.0674918,-102.6165979
Dickinson State University,291 Campus Drive Dickinson ND 58601,46.8830578,-102.8010153
Chadron State College,1000 Main St Chadron NE 69337,42.8198689,-103.0015725
New Mexico Junior College,5317 Lovington Hwy Hobbs NM 88240,32.7578125,-103.1842749
University of the Southwest,6610 North Lovington Hwy Hobbs NM 88240,32.7750423,-103.1948846
Northeastern Junior College,100 College Avenue Sterling CO 80751,40.6345731,-103.200712
South Dakota School of Mines and Technology,501 E Saint Joseph St Rapid City SD 57701,44.0730941,-103.2062801
Eastern New Mexico University-Main Campus,ENMU Station 2  1500 S Ave K Portales NM 88130,34.1784011,-103.3490605
Otero Junior College,1802 Colorado Ave La Junta CO 81050,37.968363,-103.5459056
Williston State College,1410 University Ave Williston ND 58801,48.1583902,-103.6126117
Western Nebraska Community College,1601 East 27th Street Scottsbluff NE 69361,41.8754361,-103.6431347
Sul Ross State University,E. Hwy 90 Alpine TX 79832,30.3615773,-103.6482231
Mesalands Community College,911 S Tenth Street Tucumcari NM 88401,35.1609305,-103.7363626
Black Hills State University,1200 University St Spearfish SD 57799,44.4965054,-103.8712643
Eastern Wyoming College,3200 West C St Torrington WY 82240,42.0757471,-104.1896865
Trinidad State Junior College,600 Prospect Street Trinidad CO 81082,37.1732795,-104.5146953
New Mexico Military Institute,101 W.  College Blvd. Roswell NM 88201,33.409521,-104.5251207
Colorado State University-Pueblo,2200 Bonforte Blvd Pueblo CO 81001,38.3060152,-104.579911
University of Northern Colorado,Carter Hall - Rm 4000 Greeley CO 80639,40.4109302,-104.6927651
Dawson Community College,300 College Dr Glendive MT 59330,47.0854354,-104.7240014
Laramie County Community College,1400 E College Dr Cheyenne WY 82007,41.1054751,-104.7768894
University of Colorado Colorado Springs,1420 Austin Bluffs Parkway Colorado Springs CO 80918,38.8958038,-104.8060771
Colorado College,14. E Cache La Poudre St. Colorado Springs CO 80903,38.847021,-104.823665
Johnson & Wales University-Denver,7150 Montview Blvd Denver CO 80220,39.7469815,-104.9052481
University of Denver,2199 S. University Blvd Denver CO 80208,39.6766368,-104.9614844
Metropolitan State University of Denver,Speer Blvd and Colfax Ave Denver CO 80217,39.7401554,-104.9981379
Regis University,3333 Regis Blvd Denver CO 80221,39.7881508,-105.0261543
Colorado State University-Fort Collins,102 Administration Building Fort Collins CO 80523,40.5757036,-105.0941044
Colorado Christian University,8787 West Alameda Avenue Lakewood CO 80226,39.7131041,-105.0959302
New Mexico Highlands University,University Ave Las Vegas NM 87701,35.5949351,-105.2179765
Colorado School of Mines,1500 Illinois St Golden CO 80401,39.7508585,-105.2238689
Luna Community College,336 Luna Drive Las Vegas NM 87701,35.6163988,-105.2531266
University of Colorado Boulder,Regent Drive at Broadway Boulder CO 80309,40.0034965,-105.2677112
University of Wyoming,1000 E University Ave. Laramie WY 82071,41.3140214,-105.5846008
Miles Community College,2715 Dickinson Street Miles City MT 59301,46.4056589,-105.8260954
Adams State University,208 Edgemont Blvd Alamosa CO 81101,37.4710901,-105.8801626
Northern New Mexico College,921 Paseo de Onate Espanola NM 87532,36.0037499,-106.085328
Casper College,125 College Drive Casper WY 82601,42.830783,-106.3275617
El Paso Community College,9050 Viscount Blvd El Paso TX 79925,31.7722351,-106.3710309
The University of Texas at El Paso,500 W. University Ave El Paso TX 79968,31.7698629,-106.5055082
University of New Mexico-Main Campus,1700 Lomas Blvd NE Albuquerque NM 87106,35.0893968,-106.6246758
New Mexico State University-Main Campus,2850 Weddell Street Las Cruces NM 88003,32.2824831,-106.7529053
Western State Colorado University,1 Western Way Gunnison CO 81231,38.547862,-106.9179434
Sheridan College,1 Whitney Way Sheridan WY 82801,44.7647058,-106.9429672
Colorado Mountain College,802 Grand Ave. Glenwood Springs CO 81601,39.5464088,-107.3244047
Fort Lewis College,1000 Rim Drive Durango CO 81301,37.2737647,-107.8710444
Navajo Technical University,PO Box 849 Crownpoint NM 87313,35.6874308,-108.1474931
Western New Mexico University,1000 W. College Ave Silver City NM 88062,32.7770043,-108.2825633
Central Wyoming College,2660 Peck Avenue Riverton WY 82501,43.0280952,-108.4265384
Montana State University-Billings,1500 University Drive Billings MT 59101,45.7966938,-108.5214457
Rocky Mountain College,1511 Poly Drive Billings MT 59102,45.7977348,-108.5521089
Colorado Mesa University,1100 North Avenue Grand Junction CO 81501,39.0803555,-108.5544794
Northwest College,231 W 6th St Powell WY 82435,44.7592091,-108.76107
Colorado Northwestern Community College,500 Kennedy Drive Rangely CO 81648,40.0839684,-108.7866412
Dine College,Route 12  One Circle Drive Tsaile AZ 86556,36.29557,-109.222569
Western Wyoming Community College,2500 College Dr Rock Springs WY 82901,41.5911812,-109.23703
Montana State University-Northern,300 W 11th St Havre MT 59501,48.5411668,-109.6857625
Eastern Arizona College,615 N. Stadium Ave. Thatcher AZ 85552,32.8463004,-109.7620276
Cochise County Community College District,901 N Colombo Ave Sierra Vista AZ 85635,31.5637785,-110.2478083
Pima Community College,4905C East  Broadway Blvd. Tucson AZ 857091275,32.2221098,-110.8866317
University of Arizona,1401 E University Tucson AZ 85721,32.2327247,-110.9508944
University of Providence,1301 Twentieth St S Great Falls MT 59405,47.4913797,-111.2703462
Snow College,150 E College Ave Ephraim UT 84627,39.3611091,-111.583783
Brigham Young University-Provo,Main Campus Provo UT 84602,40.2524308,-111.6502622
Central Arizona College,8470 N Overfield Rd Coolidge AZ 85128,32.9574297,-111.6521054
Northern Arizona University,1900 S. Knoles Dr.  Babbitt Administrative Center  Room 200 Flagstaff AZ 86011,35.1804402,-111.6539683
Utah Valley University,800 W University Parkway Orem UT 84058,40.278957,-111.716379
Chandler-Gilbert Community College,2626 E Pecos Rd Chandler AZ 85225,33.2925859,-111.7959515
Utah State University,Old Main Hill Logan UT 84322,41.7429398,-111.8137667
University of Utah,201 Presidents Circle  ROOM 201 Salt Lake City UT 84112,40.7650458,-111.8489555
Westminster College,1840 South 1300 East Salt Lake City UT 84105,40.7307172,-111.8556475
Mesa Community College,1833 W Southern Ave Mesa AZ 85202,33.3916488,-111.8719964
Tohono O'Odham Community College,Highway 86  Mile Post 125.5 Sells AZ 856343129,31.9183549,-111.8792747
Scottsdale Community College,9000 E Chaparral Rd Scottsdale AZ 85256,33.512739,-111.8821969
Arizona State University-Tempe,University Drive and Mill Avenue Tempe AZ 85287,33.4219437,-111.9400636
Salt Lake Community College,4600 S Redwood Rd Salt Lake City UT 84123,40.6724474,-111.9443311
Weber State University,3850 Dixon Parkway Dr. Dept. 1031 Ogden UT 84408,41.1932522,-111.9460552
GateWay Community College,108 N. 40th Street Phoenix AZ 85034,33.4507462,-111.9968639
Paradise Valley Community College,18401 N 32nd St Phoenix AZ 85032,33.6515443,-112.0107974
South Mountain Community College,7050 S 24th St Phoenix AZ 85042,33.3832378,-112.0342233
Carroll College,1601 N Benton Ave Helena MT 59625,46.6013247,-112.0388419
Phoenix College,1202 W Thomas Rd Phoenix AZ 85013,33.4814939,-112.0906723
Grand Canyon University,3300 W Camelback Rd Phoenix AZ 85017,33.5131895,-112.1298877
Arizona Christian University,1 West Firestorm Way Glendale AZ 85306,33.6209932,-112.1807676
Glendale Community College,6000 W Olive Ave Glendale AZ 85302,33.5694333,-112.1908271
Estrella Mountain Community College,3000 N Dysart Rd Avondale AZ 85392,33.4804594,-112.3434611
Ottawa University-Surprise,15950 N. Civic Center Plaza Surprise AZ 85374,33.6288291,-112.3681442
Idaho State University,921 S 8th Ave Stop 8173 Pocatello ID 83209,42.8627836,-112.429762
Embry-Riddle Aeronautical University-Prescott,3700 Willow Creek Road Prescott AZ 86301,34.6161839,-112.4488672
Yavapai College,1100 E Sheldon St Prescott AZ 86301,34.5480888,-112.4559107
Prescott College,220 Grove Ave Prescott AZ 86301,34.5448304,-112.4766192
Montana Tech of the University of Montana,1300 W Park St Butte MT 59701,46.0128511,-112.5593425
The University of Montana-Western,710 S Atlantic Dillon MT 59725,45.208228,-112.6412055
Southern Utah University,351 West University Blvd Cedar City UT 84720,37.6755016,-113.0710984
Dixie State University,225 S University Avenue Saint George UT 84770,37.1091597,-113.5684943
The University of Montana,Missoula  Montana Missoula MT 59812,46.861557,-113.9842701
Salish Kootenai College,58138 US  Highway 93 Pablo MT 59855,47.5980644,-114.1127607
College of Southern Idaho,315 Falls Ave. Twin Falls ID 83301,42.5814891,-114.4725694
Arizona Western College,2020 S. Avenue 8E Yuma AZ 85365,32.688474,-114.4948775
University of Nevada-Las Vegas,4505 S Maryland Pky Las Vegas NV 89154,36.1065217,-115.1444487
College of Southern Nevada,6375 W. Charleston Blvd. Las Vegas NV 89146,36.1556186,-115.2325897
Imperial Valley College,380 E. Aten Road Imperial CA 92251,32.8290418,-115.5054213
Boise State University,1910 University Dr Boise ID 83725,43.609316,-116.2108121
Copper Mountain Community College,6162 Rotary Way Joshua Tree CA 92252,34.1382233,-116.2124883
College of the Desert,43-500 Monterey Ave Palm Desert CA 92260,33.7330326,-116.3864666
Northwest Nazarene University,623 S. University Blvd. Nampa ID 83686,43.5631616,-116.5644371
The College of Idaho,2112 Cleveland Blvd Caldwell ID 83605,43.6536737,-116.6767711
North Idaho College,1000 West Garden Avenue Coeur d'Alene ID 83814,47.6765034,-116.7964835
Cuyamaca College,900 Rancho San Diego Pky El Cajon CA 92019,32.7464261,-116.939156
Mt San Jacinto Community College District,1499 N. State St. San Jacinto CA 92583,33.8066222,-116.96941
Treasure Valley Community College,650 College Blvd Ontario OR 97914,44.0177762,-116.9722322
San Diego Christian College,200 Riverview Parkway Santee CA 92071,32.8424439,-116.9783896
Southwestern College,900 Otay Lakes Rd Chula Vista CA 91910,32.6407136,-116.9980644
Grossmont College,8800 Grossmont College Dr El Cajon CA 92020,32.8164953,-117.0063045
University of Idaho,875 Perimeter Drive MS 2282 Moscow ID 83844,46.7288124,-117.0126084
Barstow Community College,2700 Barstow Road Barstow CA 92311,34.8703181,-117.0233643
Lewis-Clark State College,500 8th Ave Lewiston ID 83501,46.412247,-117.027928
San Diego State University,5500 Campanile Dr San Diego CA 92182,32.7720012,-117.0726966
Crafton Hills College,11711 Sand Canyon Road Yucaipa CA 923391799,34.038649,-117.100396
San Diego Miramar College,10440 Black Mountain Rd San Diego CA 92126,32.9065169,-117.1222589
San Diego City College,1313 Park Boulevard San Diego CA 92101,32.7186055,-117.1525357
Washington State University,French Administration Building Pullman WA 99164,46.7304151,-117.1581928
California State University-San Marcos,333 S Twin Oaks Valley Rd San Marcos CA 92096,33.1290871,-117.1596729
University of Redlands,1200 E. Colton Ave Redlands CA 92373,34.0623061,-117.1642828
San Diego Mesa College,7250 Mesa College Dr San Diego CA 92111,32.8047563,-117.1690578
Palomar College,1140 W. Mission San Marcos CA 92069,33.1512336,-117.1821809
University of San Diego,5998 Alcala Park San Diego CA 92110,32.7716583,-117.1915679
University of Saint Katherine,1637 Capalina Road San Marcos CA 92069,33.1512468,-117.1965733
University of California-San Diego,9500 Gilman Dr La Jolla CA 92093,32.8824069,-117.2348172
Point Loma Nazarene University,3900 Lomaland Dr San Diego CA 92106,32.7183123,-117.2502505
Victor Valley College,18422 Bear Valley Rd Victorville CA 92395,34.473543,-117.2610014
MiraCosta College,One Barnard Drive Oceanside CA 92056,33.191206,-117.3022131
San Bernardino Valley College,701 South Mount Vernon Avenue San Bernardino CA 92410,34.088754,-117.3129529
California State University-San Bernardino,5500 University Parkway San Bernardino CA 92407,34.1813145,-117.3215307
University of California-Riverside,900 University Ave Riverside CA 92521,33.9754243,-117.3315961
Riverside City College,4800 Magnolia Avenue Riverside CA 92506,33.9714889,-117.3808994
Gonzaga University,E 502 Boone Ave Spokane WA 99258,47.6664473,-117.4015208
Whitworth University,300 W Hawthorne Rd Spokane WA 99251,47.7548497,-117.4198208
California Baptist University,8432 Magnolia Ave Riverside CA 92504,33.9284053,-117.4255589
Spokane Falls Community College,3410 W Fort George Wright Dr Spokane WA 99224,47.675728,-117.468727
La Sierra University,4500 Riverwalk Parkway Riverside CA 92505,33.9107229,-117.5001118
Norco College,2001 Third St Norco CA 92860,33.916817,-117.5689828
Chaffey College,5885 Haven Ave Rancho Cucamonga CA 91737,34.1464807,-117.5748348
Eastern Washington University,526 5th Street Cheney WA 99004,47.4901128,-117.5797878
Saddleback College,28000 Marguerite Pky Mission Viejo CA 92692,33.5540319,-117.6641121
Cerro Coso Community College,3000 College Heights Blvd Ridgecrest CA 93555,35.5673364,-117.670908
Claremont McKenna College,500 E 9th St Claremont CA 91711,34.1020742,-117.7064979
Pomona College,550 N College Ave Claremont CA 91711,34.099078,-117.7145536
Soka University of America,1 University Drive Aliso Viejo CA 92656,33.5547982,-117.7352081
Santiago Canyon College,8045 E Chapman Orange CA 92869,33.7954226,-117.7667941
University of La Verne,1950 Third St La Verne CA 91750,34.1008542,-117.7732346
Irvine Valley College,5500 Irvine Center Drive Irvine CA 92618,33.676084,-117.7749477
Concordia University-Irvine,1530 Concordia West Irvine CA 92612,33.6545502,-117.8123154
California State Polytechnic University-Pomona,3801 West Temple Avenue Pomona CA 91768,34.055599,-117.8192622
Life Pacific College,1100 W. Covina Blvd. San Dimas CA 91773,34.0987652,-117.829457
University of California-Irvine,501 Aldrich Hall Irvine CA 92697,33.6485178,-117.8413671
Mt San Antonio College,1100 N Grand Ave Walnut CA 91789,34.0482035,-117.845125
Chapman University,One University Dr. Orange CA 92866,33.7931305,-117.8521395
Citrus College,1000 W Foothill Blvd Glendora CA 91741,34.1333467,-117.8849735
Hope International University,2500 E Nutwood Ave Fullerton CA 92831,33.8764863,-117.884986
Azusa Pacific University,901 E Alosta Azusa CA 91702,34.1294151,-117.8879158
Santa Ana College,1530 W. 17th Street Santa Ana CA 92706,33.7579717,-117.8889425
California State University-Fullerton,800 N State College Blvd Fullerton CA 92831,33.8819278,-117.8889736
Vanguard University of Southern California,55 Fair Dr Costa Mesa CA 92626,33.6632391,-117.9013021
Orange Coast College,2701 Fairview Road Costa Mesa CA 92626,33.6711258,-117.9102056
Fullerton College,321 E Chapman Avenue Fullerton CA 92832,33.875251,-117.9175771
Bethesda University,730 N. Euclid St Anaheim CA 92801,33.8422654,-117.9411471
Golden West College,15744 Goldenwest St. Huntington Beach CA 92647,33.7325619,-118.0046404
Biola University,13800 Biola Ave La Mirada CA 90639,33.9055482,-118.0181345
Cypress College,9200 Valley View Cypress CA 90630,33.8279582,-118.023732
Rio Hondo College,3600 Workman Mill Rd Whittier CA 90601,34.0199534,-118.031874
Whittier College,13406 E Philadelphia Street Whittier CA 90601,33.9788103,-118.0322988
Eastern Oregon University,One University Blvd La Grande OR 97850,45.3177348,-118.0904671
Cerritos College,11110 Alondra Blvd Norwalk CA 90650,33.8861477,-118.0962259
Pasadena City College,1570 E Colorado Blvd. Pasadena CA 91106,34.1440134,-118.1191895
California State University-Long Beach,1250 Bellflower Blvd Long Beach CA 90840,33.7826983,-118.1223045
California Institute of Technology,1200 E California Blvd Pasadena CA 91125,34.1356666,-118.12724
Long Beach City College,4901 E. Carson St. Long Beach CA 90808,33.8327926,-118.134784
University of Antelope Valley,44055 Sierra Highway Lancaster CA 93534,34.6835278,-118.1349891
Providence Christian College,464 E. Walnut St. Pasadena CA 91101,34.1493046,-118.1409294
East Los Angeles College,1301 Avenida Cesar Chavez Monterey Park CA 91754,34.0410705,-118.1509336
California State University-Los Angeles,5151 State University Dr Los Angeles CA 90032,34.0620391,-118.1736587
Antelope Valley College,3041 West  Ave K Lancaster CA 93536,34.6761685,-118.1853732
El Camino College-Compton Center,1111 East Artesia Blvd. Compton CA 90221,33.8774168,-118.2098066
Occidental College,1600 Campus Rd Los Angeles CA 90041,34.1273185,-118.2101148
Glendale Community College,1500 N Verdugo Rd Glendale CA 91208,34.1670866,-118.2285401
California State University-Dominguez Hills,1000 E Victoria St Carson CA 90747,33.8639658,-118.2570021
Los Angeles Trade Technical College,400 W Washington Blvd Los Angeles CA 90015,34.0325515,-118.2697468
Walla Walla Community College,500 Tausick Way Walla Walla WA 99362,46.0790886,-118.2780479
University of Southern California,University Park Los Angeles CA 90089,34.0309703,-118.2789735
Los Angeles Harbor College,1111 Figueroa Place Wilmington CA 90744,33.7841,-118.2840891
Los Angeles Southwest College,1600 W. Imperial Hwy. Los Angeles CA 90047,33.9288113,-118.3060819
Whitman College,345 Boyer Ave Walla Walla WA 99362,46.0709226,-118.3298311
El Camino Community College District,16007 Crenshaw Blvd Torrance CA 90506,33.8844832,-118.3304386
Marymount California University,30800 Palos Verdes Drive East Rancho Palos Verdes CA 90275,33.7344926,-118.3337755
West Los Angeles College,9000 Overland Avenue Culver City CA 90230,34.0042282,-118.3871555
Walla Walla University,204 S College Ave College Place WA 99324,46.0475193,-118.3895857
Loyola Marymount University,One Lmu Drive Los Angeles CA 90045,33.9701634,-118.4166111
Los Angeles Valley College,5800 Fulton Avenue Valley Glen CA 91401,34.1753393,-118.4189809
Los Angeles Mission College,13356 Eldridge Avenue Sylmar CA 91342,34.3151143,-118.4200526
University of California-Los Angeles,405 Hilgard Ave Los Angeles CA 90095,34.0725988,-118.439277
Santa Monica College,1900 Pico Blvd Santa Monica CA 90405,34.0178145,-118.4716762
The Master's University and Seminary,21726 Placerita Canyon Road Santa Clarita CA 91321,34.3817734,-118.5175513
California State University-Northridge,18111 Nordhoff St Northridge CA 91330,34.2399364,-118.5262521
College of the Canyons,26455 Rockwell Canyon Rd Santa Clarita CA 91355,34.4043812,-118.5705894
Los Angeles Pierce College,6201 Winnetka Ave Woodland Hills CA 91371,34.1824071,-118.5710341
Pepperdine University,24255 Pacific Coast Hwy Malibu CA 90263,34.0390661,-118.7056781
Blue Mountain Community College,2411 NW Carden Ave Pendleton OR 97801,45.6765562,-118.8160619
Moorpark College,7075 Campus Rd Moorpark CA 93021,34.2996142,-118.8341914
California Lutheran University,60 W Olsen Rd Thousand Oaks CA 91360,34.2253821,-118.8786129
Bakersfield College,1801 Panorama Dr Bakersfield CA 93305,35.408,-118.9716483
Porterville College,100 E College Ave Porterville CA 93257,36.0489004,-119.0161748
California State University-Bakersfield,9001 Stockdale Hwy Bakersfield CA 93311,35.3486641,-119.1033448
Columbia Basin College,2600 N 20th Ave Pasco WA 99301,46.2521452,-119.1238877
Oxnard College,4000 S Rose Ave Oxnard CA 93033,34.1651566,-119.1582803
Ventura College,4667 Telegraph Rd Ventura CA 93003,34.2773843,-119.2306844
College of the Sequoias,915 S. Mooney Blvd Visalia CA 93277,36.3229462,-119.3145528
Big Bend Community College,7662 Chanute St NE Moses Lake WA 98837,47.1847684,-119.3282356
Reedley College,995 N Reed Ave Reedley CA 93654,36.6053908,-119.4600072
Taft College,29 Cougar Court Taft CA 93268,35.1492183,-119.4601285
Westmont College,955 La Paz Rd Santa Barbara CA 93108,34.450362,-119.6615508
Santa Barbara City College,721 Cliff Drive Santa Barbara CA 93109,34.4060713,-119.6990924
Clovis Community College,10309 N. Willow Ave Fresno CA 93730,36.8865174,-119.7313037
Fresno Pacific University,1717 S Chestnut Ave Fresno CA 93702,36.7254417,-119.7340528
California State University-Fresno,5241 N Maple Ave Fresno CA 93740,36.8108284,-119.7462226
Fresno City College,1101 E. University Ave Fresno CA 93741,36.7675959,-119.7969299
University of Nevada-Reno,North Virginia Street Reno NV 89557,39.5438691,-119.8185305
West Hills College-Lemoore,555 College Avenue Lemoore CA 93245,36.2926108,-119.8217898
University of California-Santa Barbara,5221 Cheadle Hall Santa Barbara CA 93106,34.4139629,-119.848947
Sierra Nevada College,999 Tahoe Blvd. Incline Village NV 89451,39.2452176,-119.9384347
Lake Tahoe Community College,One College Drive South Lake Tahoe CA 96150,38.9269827,-119.9727982
Wenatchee Valley College,1300 Fifth St Wenatchee WA 98801,47.4311604,-120.3344319
West Hills College-Coalinga,300 Cherry Lane Coalinga CA 93210,36.1478043,-120.3570364
Columbia College,11600 Columbia College Dr Sonora CA 95370,38.0305209,-120.3865357
Allan Hancock College,800 South College Drive Santa Maria CA 93454,34.9438546,-120.4214254
University of California-Merced,5200 North Lake Road Merced CA 95343,37.3637343,-120.4311096
Merced College,3600 M St Merced CA 95348,37.3336824,-120.4730031
Yakima Valley College,South 16th Ave. & Nob Hill Blvd. Yakima WA 98907,46.5852395,-120.530328
Central Washington University,400 East University Way Ellensburg WA 98926,47.0029902,-120.5377517
Lassen Community College,478-200 Hwy 139 Susanville CA 96130,40.429826,-120.63056
California Polytechnic State University-San Luis Obispo,1 Grand Ave. San Luis Obispo CA 93407,35.3011339,-120.658758
Cuesta College,HIGHWAY 1 San Luis Obispo CA 934038106,35.2860745,-120.6625847
California State University-Stanislaus,One University Circle Turlock CA 95382,37.5235478,-120.8570626
Feather River Community College District,570 Golden Eagle Ave Quincy CA 95971,39.9521546,-120.9643281
Modesto Junior College,435 College Ave Modesto CA 95350,37.6511684,-121.0091396
Folsom Lake College,10 College Parkway Folsom CA 95630,38.661472,-121.1254873
Sierra College,5100 Sierra College Blvd Rocklin CA 95677,38.794612,-121.2058275
William Jessup University,2121 University Avenue Rocklin CA 95765,38.8194736,-121.2919339
University of the Pacific,3601 Pacific Ave Stockton CA 95211,37.9774118,-121.3123094
San Joaquin Delta College,5151 Pacific Ave Stockton CA 95207,37.9950829,-121.3192899
American River College,4700 College Oak Dr Sacramento CA 95841,38.6488478,-121.3470152
Cosumnes River College,8401 Center Parkway Sacramento CA 95823,38.4535803,-121.4216495
California State University-Sacramento,6000 J St Sacramento CA 95819,38.5642453,-121.4252955
Sacramento City College,3835 Freeport Blvd Sacramento CA 95822,38.5415791,-121.4903529
Yuba College,2088 N Beale Rd Marysville CA 95901,39.1250852,-121.5384276
Gavilan College,5055 Santa Teresa Blvd Gilroy CA 95020,36.9666134,-121.562
Butte College,3536 Butte Campus Drive Oroville CA 95965,39.6501451,-121.6419465
Hartnell College,411 Central Avenue Salinas CA 93901,36.6739532,-121.6656507
University of California-Davis,One Shields Avenue Davis CA 95616,38.5409093,-121.7462685
Evergreen Valley College,3095 Yerba Buena Rd San Jose CA 95135,37.3001189,-121.7627821
Oregon Institute of Technology,3201 Campus Drive Klamath Falls OR 97601,42.2539585,-121.7854792
California State University-Monterey Bay,100 Campus Center Seaside CA 93955,36.6508506,-121.7977026
Las Positas College,3000 Campus Hill Drive Livermore CA 94551,37.7108595,-121.8004765
California State University-Chico,400 W. 1st Street Chico CA 95929,39.7296139,-121.8457026
Los Medanos College,2700 East Leland Road Pittsburg CA 94565,38.0053337,-121.8605006
San Jose State University,One Washington Square San Jose CA 95192,37.334157,-121.8842554
Monterey Peninsula College,980 Fremont St Monterey CA 93940,36.5893339,-121.8869455
Ohlone College,43600 Mission Blvd Fremont CA 94539,37.5316572,-121.9114299
Cabrillo College,6500 Soquel Dr Aptos CA 95003,36.9876108,-121.9259014
San Jose City College,2100 Moorpark Ave San Jose CA 95128,37.315671,-121.930156
Santa Clara University,500 El Camino Real Santa Clara CA 95053,37.3499438,-121.9406449
Mission College,3000 Mission College Blvd Santa Clara CA 95054,37.3912164,-121.9820461
West Valley College,14000 Fruitvale Ave Saratoga CA 95070,37.2640661,-122.0108938
De Anza College,21250 Stevens Creek Blvd. Cupertino CA 95014,37.3195396,-122.0450548
University of California-Santa Cruz,1156 High St Santa Cruz CA 95064,36.9834126,-122.054164
California State University-East Bay,25800 Carlos Bee Blvd Hayward CA 94542,37.6571303,-122.0567457
Diablo Valley College,321 Golf Club Rd Pleasant Hill CA 94523,37.9685658,-122.0712718
Chabot College,25555 Hesperian Blvd Hayward CA 94545,37.6398046,-122.1069105
Saint Mary's College of California,1928 Saint Marys Road Moraga CA 94575,37.8414569,-122.1107267
Foothill College,12345 El Monte Rd Los Altos Hills CA 94022,37.3677565,-122.1136184
Solano Community College,4000 Suisun Valley Rd Fairfield CA 94534,38.2348856,-122.1236828
Bellevue College,3000 Landerholm Cir SE Bellevue WA 98007,47.5848959,-122.147211
Merritt College,12500 Campus Dr Oakland CA 94619,37.7933608,-122.1668027
Stanford University,450 Serra Mall Stanford CA 94305,37.4400665,-122.1696059
Green River College,12401 SE 320th St Auburn WA 98092,47.3130004,-122.1800119
Holy Names University,3500 Mountain Blvd Oakland CA 94619,37.8029258,-122.186977
Menlo College,1000 El Camino Real Atherton CA 94027,37.4562115,-122.1923422
Northwest University,P.O. Box 579 Kirkland WA 98083,47.6576921,-122.1924837
Everett Community College,2000 Tower Street Everett WA 98201,48.0065191,-122.204757
California State University Maritime Academy,200 Maritime Academy Dr Vallejo CA 94590,38.0692105,-122.2325063
University of California-Berkeley,200 California Hall Berkeley CA 94720,37.8718399,-122.2603363
Laney College,900 Fallon Sreet Oakland CA 94607,37.7945245,-122.2611597
Canada College,4200 Farm Hill Blvd. Redwood City CA 94061,37.4473861,-122.2663635
Napa Valley College,2277 Napa-Vallejo Hwy Napa CA 94558,38.2743057,-122.2777462
College of Alameda,555 Ralph Appezzato Memorial Pky Alameda CA 94501,37.7808735,-122.2793041
Notre Dame de Namur University,1500 Ralston Ave Belmont CA 94002,37.5173394,-122.2867436
Highline College,2400 S 240th St Des Moines WA 98198,47.3897813,-122.3002856
Skagit Valley College,2405 E. College Way Mount Vernon WA 98273,48.4383268,-122.3079877
University of Washington-Seattle Campus,1400 NE Campus Parkway Seattle WA 98195,47.6565538,-122.3127075
Shasta College,11555 Old Oregon Trail Redding CA 96003,40.6255265,-122.313442
Seattle University,900 Broadway Seattle WA 98122,47.6102654,-122.3207835
Edmonds Community College,20000 68th Ave W Lynnwood WA 98036,47.816842,-122.32769
Simpson University,2211 College View Drive Redding CA 96003,40.6144049,-122.3322752
College of San Mateo,1700 W Hillsdale Blvd San Mateo CA 94402,37.5350511,-122.335123
Contra Costa College,2600 Mission Bell Drive San Pablo CA 94806,37.9686416,-122.3403797
Shoreline Community College,16101 Greenwood Ave N Shoreline WA 98133,47.7486311,-122.3594244
Seattle Pacific University,3307 3rd Ave W Seattle WA 98119,47.6491147,-122.3617437
College of the Siskiyous,800 College Ave Weed CA 96094,41.4126153,-122.3893698
Mt Hood Community College,26000 SE Stark St Gresham OR 97030,45.516477,-122.3956316
Academy of Art University,79 New Montgomery San Francisco CA 94105,37.7879584,-122.4004678
Pacific Union College,One Angwin Ave Angwin CA 94508,38.5698777,-122.4394834
Pacific Lutheran University,12180 Park Ave South Tacoma WA 98447,47.1451931,-122.4436669
City College of San Francisco,50 Frida Kahlo Way San Francisco CA 94112,37.725852,-122.4508572
University of San Francisco,2130 Fulton St San Francisco CA 94117,37.7752654,-122.4517272
Skyline College,3300 College Dr San Bruno CA 94066,37.6300571,-122.465882
San Francisco State University,1600 Holloway Ave San Francisco CA 94132,37.7227669,-122.4767213
University of Puget Sound,1500 N. Warner Street Tacoma WA 98416,47.2639174,-122.4811764
Western Washington University,516 High Street Bellingham WA 98225,48.7342883,-122.4866109
Whatcom Community College,237 W Kellogg Rd Bellingham WA 98226,48.7947551,-122.4925861
Dominican University of California,50 Acacia Ave San Rafael CA 94901,37.9798523,-122.5134504
Tacoma Community College,6501 S 19th St Tacoma WA 98466,47.2458032,-122.5248135
College of Marin,835 College Ave Kentfield CA 94904,37.9516402,-122.5491653
Pierce College-Fort Steilacoom,9401 Farwest Dr SW Lakewood WA 98498,47.1714295,-122.5714716
Clackamas Community College,19600 Molalla Ave Oregon City OR 97045,45.3229707,-122.5743069
Multnomah University,8435 NE Glisan St Portland OR 97220,45.5268724,-122.576211
Warner Pacific College,2219 SE 68th Ave Portland OR 97215,45.5070194,-122.5927861
Northwest Indian College,2522 Kwina Rd Bellingham WA 98226,48.79461,-122.614492
Olympic College,1600 Chester Ave Bremerton WA 98337,47.575258,-122.6352126
Concordia University-Portland,2811 NE Holman Street Portland OR 97211,45.568541,-122.6373017
Clark College,1933 Fort Vancouver Way Vancouver WA 98663,45.6346831,-122.6502812
Lewis & Clark College,0615 S W Palatine Hill Rd Portland OR 97219,45.4450779,-122.671689
Sonoma State University,1801 E Cotati Ave Rohnert Park CA 94928,38.3409331,-122.6738225
Portland State University,724 SW Harrison Portland OR 97201,45.5111227,-122.6845654
Southern Oregon University,1250 Siskiyou Blvd Ashland OR 97520,42.1857969,-122.6944886
Santa Rosa Junior College,1501 Mendocino Avenue Santa Rosa CA 95401,38.454581,-122.7198213
University of Portland,5000 N Willamette Blvd Portland OR 97203,45.5735801,-122.7238071
Portland Community College,12000 SW 49th Avenue Portland OR 97219,45.4380653,-122.7307655
Saint Martin's University,5000 Abbey Way SE Lacey WA 98503,47.0405654,-122.8154461
South Puget Sound Community College,2011 Mottman Rd SW Olympia WA 98512,47.0237083,-122.9295869
Lower Columbia College,1600 Maple Street Longview WA 98632,46.1435851,-122.9353583
Corban University,5000 Deer Park Dr SE Salem OR 97317,44.8830429,-122.9589391
Centralia College,600 Centralia College Blvd. Centralia WA 98531,46.7162571,-122.9606674
George Fox University,414 N Meridian St Newberg OR 97132,45.303629,-122.969402
The Evergreen State College,2700 Evergreen Pkwy NW Olympia WA 98505,47.073705,-122.974597
Chemeketa Community College,4000 Lancaster Dr NE Salem OR 97305,44.9785165,-122.977154
Willamette University,900 State St Salem OR 97301,44.9354439,-123.0317802
Lane Community College,4000 E 30th Ave Eugene OR 97405,44.0118985,-123.0345638
University of Oregon,110 Johnson Hall Eugene OR 97403,44.0637862,-123.0787724
Northwest Christian University,828 E. 11th Ave. Eugene OR 97401,44.047441,-123.0797086
Pacific University,2043 College Way Forest Grove OR 97116,45.5209573,-123.1094571
Linn-Benton Community College,6500 Pacific Blvd SW Albany OR 97321,44.5884944,-123.1157674
New Hope Christian College-Eugene,2155 Bailey Hill Rd Eugene OR 97405,44.0329569,-123.1524586
Linfield College-McMinnville Campus,900 SE Baker McMinnville OR 97128,45.2030604,-123.2006564
Mendocino College,1000 Hensley Creek Road Ukiah CA 95482,39.1886846,-123.2276344
Western Oregon University,345 North Monmouth Ave Monmouth OR 97361,44.8511456,-123.2371619
Oregon State University,1500 SW Jefferson Avenue Corvallis OR 97331,44.5639127,-123.2747161
Umpqua Community College,1140 Umpqua College Rd. Roseburg OR 97470,43.2910295,-123.3345596
Rogue Community College,3345 Redwood Hwy Grants Pass OR 97527,42.41245,-123.3947374
Peninsula College,1502 E Lauridsen Blvd Port Angeles WA 98362,48.1018573,-123.4125566
Grays Harbor College,1620 Edward P Smith Drive Aberdeen WA 98520,46.9538135,-123.8033796
Humboldt State University,1 Harpst Street Arcata CA 95521,40.8744392,-124.0790979
College of the Redwoods,7351 Tompkins Hill Rd Eureka CA 95501,40.698432,-124.1953753
Southwestern Oregon Community College,1988 Newmark Ave Coos Bay OR 97420,43.3917455,-124.2552006
University of Alaska Fairbanks,1810 Salcha Street Fairbanks AK 99775,64.8562245,-147.8211757
University of Alaska Anchorage,3211 Providence Drive Anchorage AK 99508,61.1907878,-149.8244275
University of Hawaii at Hilo,200 W Kawili St Hilo HI 96720,19.7018462,-155.0791607
Chaminade University of Honolulu,3140 Waialae Avenue Honolulu HI 96816,21.2897129,-157.8072852
University of Hawaii at Manoa,2500 Campus Road Honolulu HI 96822,21.300702,-157.8176773
Hawaii Pacific University,1 Aloha Tower Drive Honolulu HI 96813,21.3065617,-157.8655946
